{
 "crs": {
  "type": "name", 
  "properties": {
   "name": "urn:ogc:def:crs:EPSG::4326"
  }
 }, 
 "type": "FeatureCollection", 
 "name": "Avisos", 
 "features": [
  {
   "geometry": {
    "type": "Polygon", 
    "coordinates": [
     [
      [
       3.082073313602626, 
       41.824826281063345
      ], 
      [
       3.086272661110857, 
       41.826340213079945
      ], 
      [
       3.098010493212545, 
       41.84268226097762
      ], 
      [
       3.115484183901735, 
       41.84931052805003
      ], 
      [
       3.145971385605563, 
       41.849873166718126
      ], 
      [
       3.146726827758028, 
       41.85886054052435
      ], 
      [
       3.173392019761114, 
       41.86405846918253
      ], 
      [
       3.184616911743912, 
       41.88834866448963
      ], 
      [
       3.204125112443205, 
       41.89200871771296
      ], 
      [
       3.208400738158145, 
       41.917519185222915
      ], 
      [
       3.219793639588294, 
       41.94277762132379
      ], 
      [
       3.234296650738604, 
       41.95016967690259
      ], 
      [
       3.232452484451533, 
       41.96977498771974
      ], 
      [
       3.214721452592452, 
       41.97458337221866
      ], 
      [
       3.200940367059836, 
       41.99544851130084
      ], 
      [
       3.195976705245351, 
       42.028723912725305
      ], 
      [
       3.199115263451745, 
       42.04864381074216
      ], 
      [
       3.214803215230657, 
       42.06160840725341
      ], 
      [
       3.184716194256445, 
       42.104005403167456
      ], 
      [
       3.137866087867716, 
       42.12683701937359
      ], 
      [
       3.125217242702377, 
       42.128325649145005
      ], 
      [
       3.113191568834922, 
       42.172840699222164
      ], 
      [
       3.11264990894991, 
       42.20415745189329
      ], 
      [
       3.118321442145595, 
       42.2228372229003
      ], 
      [
       3.13968817188577, 
       42.25101659368455
      ], 
      [
       3.162752890003275, 
       42.26424846272922
      ], 
      [
       3.18232671129598, 
       42.25761027780726
      ], 
      [
       3.220088513945284, 
       42.23261715663812
      ], 
      [
       3.23213823075297, 
       42.24535385503731
      ], 
      [
       3.282428709105792, 
       42.25415633260183
      ], 
      [
       3.288741539967442, 
       42.265456049069655
      ], 
      [
       3.292031963666492, 
       42.30749774699677
      ], 
      [
       3.303702515789549, 
       42.308276329547425
      ], 
      [
       3.309032251463918, 
       42.3270817521545
      ], 
      [
       3.268811351972768, 
       42.34072773816703
      ], 
      [
       3.242411058474765, 
       42.33779938354657
      ], 
      [
       3.239430766372375, 
       42.349330419293935
      ], 
      [
       3.216038740349082, 
       42.34960690659257
      ], 
      [
       3.199087906650205, 
       42.33510053960062
      ], 
      [
       3.189260683242976, 
       42.352222346478094
      ], 
      [
       3.164037472880288, 
       42.3608142905846
      ], 
      [
       3.156176264679809, 
       42.37905139741862
      ], 
      [
       3.171950006422561, 
       42.415995416560285
      ], 
      [
       3.175783197246252, 
       42.435680341975946
      ], 
      [
       3.248111442585749, 
       42.43298526602685
      ], 
      [
       3.712159825762839, 
       42.440184329331274
      ], 
      [
       3.754298705501022, 
       42.410945135929886
      ], 
      [
       3.769591863001221, 
       42.348647916070604
      ], 
      [
       3.768671550324815, 
       42.285331251024466
      ], 
      [
       3.751619501668346, 
       42.22329015981087
      ], 
      [
       3.719097293034401, 
       42.164767014930746
      ], 
      [
       3.668398798414395, 
       42.09344644616784
      ], 
      [
       3.677107385002818, 
       42.005658007638765
      ], 
      [
       3.679804960746254, 
       41.942526282206096
      ], 
      [
       3.666474175612513, 
       41.88015168478726
      ], 
      [
       3.63763975127264, 
       41.82077845931151
      ], 
      [
       3.575323138650984, 
       41.7224071895065
      ], 
      [
       3.524571678556222, 
       41.66056526035962
      ], 
      [
       3.461848450251143, 
       41.61199804956196
      ], 
      [
       3.368175731826968, 
       41.665430184873244
      ], 
      [
       3.082073313602626, 
       41.824826281063345
      ]
     ]
    ]
   }, 
   "type": "Feature", 
   "properties": {
    "Expire_COCO": "2026-10-09T23:59:59+02:00", 
    "N_avisos": 1, 
    "Des_COCO": "Viento del noroeste de 50 a 60 km/h (fuerza 7) y olas de 3 m.", 
    "Provincia": "Girona", 
    "Nivel_COCO": 3, 
    "Code_COCO": "2PR-3AM-10COCO-1791547200-691703C", 
    "COD_Z": "691703C", 
    "Cer_COCO": "Likely", 
    "Prb_COCO": "40%-70%", 
    "Av_mayor": 3, 
    "Fen_avisos": [
     "COCO "
    ], 
    "Identf_COCO": "2.49.0.0.724.0.ES.20261007093555.691703COCO09221791365755", 
    "Sev_COCO": "Amarillo", 
    "Onset_COCO": "2026-10-09T14:00:00+02:00", 
    "Nombre_zona": "Ampurdán - Costa", 
    "COCO": "Costeros", 
    "Ordn_avisos": [
     "2PR-3AM-10COCO-1791547200-691703C"
    ], 
    "Resum_COCO": "Aviso de costeros de nivel amarillo. Costa - Ampurdán"
   }
  }, 
  {
   "geometry": {
    "type": "Polygon", 
    "coordinates": [
     [
      [
       3.453111563135304, 
       40.218545183064485
      ], 
      [
       3.462403541415314, 
       40.232694336314864
      ], 
      [
       3.517628683576131, 
       40.28592640145727
      ], 
      [
       3.585923604617043, 
       40.329393136605425
      ], 
      [
       3.664416175739356, 
       40.361256578706474
      ], 
      [
       3.749787840053641, 
       40.38016896355217
      ], 
      [
       3.920282254888747, 
       40.40361988428846
      ], 
      [
       3.989122395928106, 
       40.42022608988096
      ], 
      [
       4.077397093357589, 
       40.4270182616101
      ], 
      [
       4.165618488228601, 
       40.41990557651544
      ], 
      [
       4.264444896983975, 
       40.39512918462429
      ], 
      [
       4.290893804176956, 
       40.38404914529773
      ], 
      [
       4.370222074227303, 
       40.357193911035054
      ], 
      [
       4.440905911600214, 
       40.31877382839477
      ], 
      [
       4.483924535007516, 
       40.28359361599664
      ], 
      [
       4.515526121220306, 
       40.27030894730337
      ], 
      [
       4.582363018267909, 
       40.226695297955246
      ], 
      [
       4.63627085277578, 
       40.17363354795935
      ], 
      [
       4.675055902313432, 
       40.11332011344435
      ], 
      [
       4.732947705540757, 
       39.99389040592457
      ], 
      [
       4.754131401538674, 
       39.932858680396045
      ], 
      [
       4.75989675486754, 
       39.869845015233444
      ], 
      [
       4.750078049051147, 
       39.807129986571944
      ], 
      [
       4.725070955664728, 
       39.74697721959972
      ], 
      [
       4.681886104296574, 
       39.65625494106519
      ], 
      [
       4.639004299785731, 
       39.60148385565221
      ], 
      [
       4.583399979436958, 
       39.55406589701648
      ], 
      [
       4.51714019949643, 
       39.51574778114677
      ], 
      [
       4.442672080142895, 
       39.48793996630908
      ], 
      [
       4.362734415206908, 
       39.471666316388905
      ], 
      [
       4.272394304301587, 
       39.46771910657539
      ], 
      [
       4.183887708873893, 
       39.477055729156284
      ], 
      [
       4.090971268556688, 
       39.50240523010855
      ], 
      [
       4.018023308687414, 
       39.5296982740339
      ], 
      [
       3.883855396926581, 
       39.59244201948094
      ], 
      [
       3.8812347586139, 
       39.592294442974456
      ], 
      [
       3.799249504103252, 
       39.67515076471391
      ], 
      [
       3.66674406220694, 
       39.83056819298232
      ], 
      [
       3.530352607590071, 
       39.9884770810162
      ], 
      [
       3.486196709789007, 
       40.1022920722502
      ], 
      [
       3.453111563135304, 
       40.218545183064485
      ]
     ], 
     [
      [
       3.831360128022526, 
       39.97145854446977
      ], 
      [
       3.821869420184256, 
       39.925974620335325
      ], 
      [
       3.855284371051183, 
       39.921759777368784
      ], 
      [
       3.912894507433046, 
       39.9256900617062
      ], 
      [
       3.937914095313725, 
       39.938635065534164
      ], 
      [
       4.019709079766007, 
       39.92259252429274
      ], 
      [
       4.079245976663601, 
       39.89658415537849
      ], 
      [
       4.098675712604329, 
       39.879094675956324
      ], 
      [
       4.144048156595628, 
       39.862249871545856
      ], 
      [
       4.175876235641732, 
       39.843399239609056
      ], 
      [
       4.232635503680789, 
       39.81944862294717
      ], 
      [
       4.270362511741297, 
       39.809347526732374
      ], 
      [
       4.288704543397044, 
       39.815064393986084
      ], 
      [
       4.300790591291161, 
       39.83335363186803
      ], 
      [
       4.313041917998484, 
       39.88572177292749
      ], 
      [
       4.275445732362079, 
       39.93378225825376
      ], 
      [
       4.279453669881259, 
       39.946017625261405
      ], 
      [
       4.26268088885862, 
       39.9651388432208
      ], 
      [
       4.256639933567299, 
       39.99968247882007
      ], 
      [
       4.225775459088047, 
       39.998508563313194
      ], 
      [
       4.194346658988747, 
       40.02404431973719
      ], 
      [
       4.169625300320487, 
       40.027737999680866
      ], 
      [
       4.165664925997604, 
       40.058057526372224
      ], 
      [
       4.156563363771487, 
       40.068247935997604
      ], 
      [
       4.137340577640527, 
       40.06731211772563
      ], 
      [
       4.14185542459894, 
       40.03572681619271
      ], 
      [
       4.121057026869154, 
       40.0360560683947
      ], 
      [
       4.131425103162904, 
       40.0556311899564
      ], 
      [
       4.101975078492025, 
       40.054924089850246
      ], 
      [
       4.085475502743022, 
       40.07534135606005
      ], 
      [
       4.07795988305642, 
       40.060564529392266
      ], 
      [
       4.049399279424795, 
       40.05297980715426
      ], 
      [
       4.033217292990988, 
       40.065936274966724
      ], 
      [
       4.022808301922438, 
       40.059893414804684
      ], 
      [
       3.979481028276378, 
       40.05138479652403
      ], 
      [
       3.959580304129579, 
       40.061794792018475
      ], 
      [
       3.942382585964486, 
       40.05689982849731
      ], 
      [
       3.883113546207726, 
       40.05847491529487
      ], 
      [
       3.822660094446648, 
       40.05052335119432
      ], 
      [
       3.819935255530015, 
       40.04031715862857
      ], 
      [
       3.793566243831407, 
       40.02045506921205
      ], 
      [
       3.795923696315386, 
       40.00046519867328
      ], 
      [
       3.826427210470649, 
       39.996467767508626
      ], 
      [
       3.831360128022526, 
       39.97145854446977
      ]
     ]
    ]
   }, 
   "type": "Feature", 
   "properties": {
    "Expire_COCO": "2026-10-09T23:59:59+02:00", 
    "N_avisos": 1, 
    "Des_COCO": "Olas de 3 m del norte.", 
    "Provincia": "Menorca", 
    "Nivel_COCO": 3, 
    "Code_COCO": "2PR-3AM-10COCO-1791550800-645501C", 
    "COD_Z": "645501C", 
    "Cer_COCO": "Likely", 
    "Prb_COCO": "40%-70%", 
    "Av_mayor": 3, 
    "Fen_avisos": [
     "COCO "
    ], 
    "Identf_COCO": "2.49.0.0.724.0.ES.20261007093555.645501COCO09221791365755", 
    "Sev_COCO": "Amarillo", 
    "Onset_COCO": "2026-10-09T15:00:00+02:00", 
    "Nombre_zona": "Menorca - Costa", 
    "COCO": "Costeros", 
    "Ordn_avisos": [
     "2PR-3AM-10COCO-1791550800-645501C"
    ], 
    "Resum_COCO": "Aviso de costeros de nivel amarillo. Costa - Menorca"
   }
  }
 ]
}
