{
 "crs": {
  "type": "name", 
  "properties": {
   "name": "urn:ogc:def:crs:EPSG::4326"
  }
 }, 
 "type": "FeatureCollection", 
 "name": "Avisos", 
 "features": [
  {
   "geometry": {
    "type": "Polygon", 
    "coordinates": [
     [
      [
       3.082073313602626, 
       41.824826281063345
      ], 
      [
       3.086272661110857, 
       41.826340213079945
      ], 
      [
       3.098010493212545, 
       41.84268226097762
      ], 
      [
       3.115484183901735, 
       41.84931052805003
      ], 
      [
       3.145971385605563, 
       41.849873166718126
      ], 
      [
       3.146726827758028, 
       41.85886054052435
      ], 
      [
       3.173392019761114, 
       41.86405846918253
      ], 
      [
       3.184616911743912, 
       41.88834866448963
      ], 
      [
       3.204125112443205, 
       41.89200871771296
      ], 
      [
       3.208400738158145, 
       41.917519185222915
      ], 
      [
       3.219793639588294, 
       41.94277762132379
      ], 
      [
       3.234296650738604, 
       41.95016967690259
      ], 
      [
       3.232452484451533, 
       41.96977498771974
      ], 
      [
       3.214721452592452, 
       41.97458337221866
      ], 
      [
       3.200940367059836, 
       41.99544851130084
      ], 
      [
       3.195976705245351, 
       42.028723912725305
      ], 
      [
       3.199115263451745, 
       42.04864381074216
      ], 
      [
       3.214803215230657, 
       42.06160840725341
      ], 
      [
       3.184716194256445, 
       42.104005403167456
      ], 
      [
       3.137866087867716, 
       42.12683701937359
      ], 
      [
       3.125217242702377, 
       42.128325649145005
      ], 
      [
       3.113191568834922, 
       42.172840699222164
      ], 
      [
       3.11264990894991, 
       42.20415745189329
      ], 
      [
       3.118321442145595, 
       42.2228372229003
      ], 
      [
       3.13968817188577, 
       42.25101659368455
      ], 
      [
       3.162752890003275, 
       42.26424846272922
      ], 
      [
       3.18232671129598, 
       42.25761027780726
      ], 
      [
       3.220088513945284, 
       42.23261715663812
      ], 
      [
       3.23213823075297, 
       42.24535385503731
      ], 
      [
       3.282428709105792, 
       42.25415633260183
      ], 
      [
       3.288741539967442, 
       42.265456049069655
      ], 
      [
       3.292031963666492, 
       42.30749774699677
      ], 
      [
       3.303702515789549, 
       42.308276329547425
      ], 
      [
       3.309032251463918, 
       42.3270817521545
      ], 
      [
       3.268811351972768, 
       42.34072773816703
      ], 
      [
       3.242411058474765, 
       42.33779938354657
      ], 
      [
       3.239430766372375, 
       42.349330419293935
      ], 
      [
       3.216038740349082, 
       42.34960690659257
      ], 
      [
       3.199087906650205, 
       42.33510053960062
      ], 
      [
       3.189260683242976, 
       42.352222346478094
      ], 
      [
       3.164037472880288, 
       42.3608142905846
      ], 
      [
       3.156176264679809, 
       42.37905139741862
      ], 
      [
       3.171950006422561, 
       42.415995416560285
      ], 
      [
       3.175783197246252, 
       42.435680341975946
      ], 
      [
       3.248111442585749, 
       42.43298526602685
      ], 
      [
       3.712159825762839, 
       42.440184329331274
      ], 
      [
       3.754298705501022, 
       42.410945135929886
      ], 
      [
       3.769591863001221, 
       42.348647916070604
      ], 
      [
       3.768671550324815, 
       42.285331251024466
      ], 
      [
       3.751619501668346, 
       42.22329015981087
      ], 
      [
       3.719097293034401, 
       42.164767014930746
      ], 
      [
       3.668398798414395, 
       42.09344644616784
      ], 
      [
       3.677107385002818, 
       42.005658007638765
      ], 
      [
       3.679804960746254, 
       41.942526282206096
      ], 
      [
       3.666474175612513, 
       41.88015168478726
      ], 
      [
       3.63763975127264, 
       41.82077845931151
      ], 
      [
       3.575323138650984, 
       41.7224071895065
      ], 
      [
       3.524571678556222, 
       41.66056526035962
      ], 
      [
       3.461848450251143, 
       41.61199804956196
      ], 
      [
       3.368175731826968, 
       41.665430184873244
      ], 
      [
       3.082073313602626, 
       41.824826281063345
      ]
     ]
    ]
   }, 
   "type": "Feature", 
   "properties": {
    "Expire_COCO": "2026-10-08T23:59:59+02:00", 
    "N_avisos": 1, 
    "Des_COCO": "Viento del norte de 50 a 70 km/h (fuerza 7 a 8) y olas de 3 o 4 m.", 
    "Provincia": "Girona", 
    "Nivel_COCO": 2, 
    "Code_COCO": "2PR-2NA-10COCO-1791439200-691703C", 
    "COD_Z": "691703C", 
    "Cer_COCO": "Likely", 
    "Prb_COCO": "40%-70%", 
    "Av_mayor": 2, 
    "Fen_avisos": [
     "COCO "
    ], 
    "Identf_COCO": "2.49.0.0.724.0.ES.20261007092432.691703COCO08221791365072", 
    "Sev_COCO": "Naranja", 
    "Onset_COCO": "2026-10-08T08:00:00+02:00", 
    "Nombre_zona": "Ampurdán - Costa", 
    "COCO": "Costeros", 
    "Ordn_avisos": [
     "2PR-2NA-10COCO-1791439200-691703C"
    ], 
    "Resum_COCO": "Aviso de costeros de nivel naranja. Costa - Ampurdán"
   }
  }, 
  {
   "geometry": {
    "type": "Polygon", 
    "coordinates": [
     [
      [
       2.383826642688542, 
       41.80900486816851
      ], 
      [
       2.355441057333059, 
       41.80740989279012
      ], 
      [
       2.348473570325066, 
       41.83263583600609
      ], 
      [
       2.327133615472195, 
       41.85595620700639
      ], 
      [
       2.329125023330405, 
       41.88333865547895
      ], 
      [
       2.338670837084558, 
       41.889456685408696
      ], 
      [
       2.372213216787919, 
       41.879722825252195
      ], 
      [
       2.378342284092536, 
       41.87310652353279
      ], 
      [
       2.405535130710071, 
       41.88659865910372
      ], 
      [
       2.408259073094081, 
       41.89601235671433
      ], 
      [
       2.44444772335687, 
       41.888301760961575
      ], 
      [
       2.469785287891707, 
       41.904936226337234
      ], 
      [
       2.481411932366802, 
       41.923167466549806
      ], 
      [
       2.471886196072723, 
       41.93958390691141
      ], 
      [
       2.447185921815187, 
       41.94429981518085
      ], 
      [
       2.453181910081966, 
       41.96633957837402
      ], 
      [
       2.489162311599524, 
       41.984955318407934
      ], 
      [
       2.500040727959373, 
       42.00180697571767
      ], 
      [
       2.493448517008577, 
       42.03813180101631
      ], 
      [
       2.467843767232271, 
       42.074025204678456
      ], 
      [
       2.478745825004947, 
       42.08050727298251
      ], 
      [
       2.4741242330483, 
       42.106366378302546
      ], 
      [
       2.493279214743945, 
       42.12639591727684
      ], 
      [
       2.470611342459387, 
       42.129408673099476
      ], 
      [
       2.459928060125774, 
       42.14044251897933
      ], 
      [
       2.462841507491606, 
       42.15599403463617
      ], 
      [
       2.447966068489988, 
       42.188958007085375
      ], 
      [
       2.46314942361516, 
       42.201754854068284
      ], 
      [
       2.491328354963966, 
       42.19902795504732
      ], 
      [
       2.483562298457596, 
       42.21934010499542
      ], 
      [
       2.498667245414029, 
       42.231757727691644
      ], 
      [
       2.517904815313415, 
       42.227761348363096
      ], 
      [
       2.533743908854999, 
       42.23297323666735
      ], 
      [
       2.557120045277597, 
       42.21931783115838
      ], 
      [
       2.564297189057977, 
       42.20180213798108
      ], 
      [
       2.612293576621362, 
       42.22965772789672
      ], 
      [
       2.59289429917766, 
       42.26949642249875
      ], 
      [
       2.589932325201858, 
       42.28543958633991
      ], 
      [
       2.604164220341314, 
       42.29252038023519
      ], 
      [
       2.659186137781945, 
       42.2963088977826
      ], 
      [
       2.668676988183887, 
       42.272821093665044
      ], 
      [
       2.697909352550276, 
       42.274536309987084
      ], 
      [
       2.711205639817448, 
       42.26690542402601
      ], 
      [
       2.703568022531175, 
       42.24972442165336
      ], 
      [
       2.729052045331852, 
       42.250034373413555
      ], 
      [
       2.735087698743917, 
       42.26644781994052
      ], 
      [
       2.724002268172022, 
       42.28130715673868
      ], 
      [
       2.722298415602038, 
       42.299521871398305
      ], 
      [
       2.738382878252735, 
       42.29998467602027
      ], 
      [
       2.733649150685928, 
       42.33082793543978
      ], 
      [
       2.759569783325617, 
       42.34349504288259
      ], 
      [
       2.778361874669077, 
       42.364843320631806
      ], 
      [
       2.796960343706016, 
       42.37131856541658
      ], 
      [
       2.79132976622829, 
       42.39977907967635
      ], 
      [
       2.822664627434742, 
       42.3902290108377
      ], 
      [
       2.833461165138685, 
       42.37874138879389
      ], 
      [
       2.850717207647832, 
       42.3794342748447
      ], 
      [
       2.859486349083367, 
       42.36528458731978
      ], 
      [
       2.887542699922368, 
       42.36132182434954
      ], 
      [
       2.89564597632722, 
       42.34911206527767
      ], 
      [
       2.828015528690661, 
       42.3415008890224
      ], 
      [
       2.806601400257334, 
       42.312732886807936
      ], 
      [
       2.785653441610907, 
       42.30636902909627
      ], 
      [
       2.798487561008232, 
       42.28125227819258
      ], 
      [
       2.780404375954585, 
       42.26608241668453
      ], 
      [
       2.806833613221542, 
       42.233408294251824
      ], 
      [
       2.834998956559952, 
       42.23737490774842
      ], 
      [
       2.843001287300215, 
       42.20735114941825
      ], 
      [
       2.862157970950609, 
       42.19667575615755
      ], 
      [
       2.847108579852728, 
       42.16340284214071
      ], 
      [
       2.810279691385394, 
       42.1665766496228
      ], 
      [
       2.803086244700128, 
       42.1459233320426
      ], 
      [
       2.824967406878808, 
       42.1510487619913
      ], 
      [
       2.840029279174327, 
       42.13978466007328
      ], 
      [
       2.843675053959488, 
       42.09735434071072
      ], 
      [
       2.858040109425617, 
       42.07870641685536
      ], 
      [
       2.885408626184338, 
       42.066076389000045
      ], 
      [
       2.884115055764105, 
       42.05354994875624
      ], 
      [
       2.901294272069108, 
       42.03214158027956
      ], 
      [
       2.897355409705221, 
       41.98784179095803
      ], 
      [
       2.905976448904199, 
       41.97177959834348
      ], 
      [
       2.932933974580174, 
       41.970726702459984
      ], 
      [
       2.949452211435794, 
       41.9623886953263
      ], 
      [
       2.936784505346204, 
       41.94020143004428
      ], 
      [
       2.899016583286803, 
       41.93320765638204
      ], 
      [
       2.903243704069285, 
       41.91935252665678
      ], 
      [
       2.887117384718295, 
       41.90967874840201
      ], 
      [
       2.940958989728721, 
       41.89478907772887
      ], 
      [
       2.956505960618205, 
       41.88477247591763
      ], 
      [
       2.944300136770658, 
       41.86530727391981
      ], 
      [
       2.917932886267526, 
       41.8600218559188
      ], 
      [
       2.88840799327799, 
       41.86067167041455
      ], 
      [
       2.863213341761981, 
       41.84893109446724
      ], 
      [
       2.850804070445769, 
       41.819726244065855
      ], 
      [
       2.854998988553561, 
       41.79241735082774
      ], 
      [
       2.887358329468093, 
       41.7565524065921
      ], 
      [
       2.870949289774472, 
       41.746170234473546
      ], 
      [
       2.849994186421508, 
       41.76247328364072
      ], 
      [
       2.809498274523081, 
       41.74463281702754
      ], 
      [
       2.77799277865842, 
       41.73578505179817
      ], 
      [
       2.745883737740243, 
       41.73527624779177
      ], 
      [
       2.725936943400223, 
       41.744610874679886
      ], 
      [
       2.682258453438147, 
       41.73986409718816
      ], 
      [
       2.670596099674392, 
       41.74567217114289
      ], 
      [
       2.640531606716926, 
       41.7431780183315
      ], 
      [
       2.638028983910826, 
       41.73356125706236
      ], 
      [
       2.538682771164105, 
       41.722042692937585
      ], 
      [
       2.532377696598218, 
       41.739253162337214
      ], 
      [
       2.51677014965061, 
       41.74897195033306
      ], 
      [
       2.517112832005005, 
       41.762197446458565
      ], 
      [
       2.490992935865521, 
       41.7657931576746
      ], 
      [
       2.444905744800838, 
       41.789481405869346
      ], 
      [
       2.437670646408974, 
       41.80317534131839
      ], 
      [
       2.405842678293312, 
       41.80197236926434
      ], 
      [
       2.383826642688542, 
       41.80900486816851
      ]
     ]
    ]
   }, 
   "type": "Feature", 
   "properties": {
    "Valor_PRP1": "20 mm", 
    "Nivel_PR": 3, 
    "Prb_TOTO": "40%-70%", 
    "Sev_TOTO": "Amarillo", 
    "TOTO": "Tormentas", 
    "Des_TOTO": "Pueden venir acompañadas de granizo inferior a 2 cm.", 
    "N_avisos": 2, 
    "Identf_TOTO": "2.49.0.0.724.0.ES.20261007092432.691702TOTO08181791365072", 
    "Expire_PRP1": "2026-10-08T19:59:59+02:00", 
    "Code_TOTO": "2PR-3AM-07TOTO-1791446400-691702", 
    "PRP1": "Lluvias", 
    "Prb_PRP1": "40%-70%", 
    "Expire_TOTO": "2026-10-08T19:59:59+02:00", 
    "Des_PRP1": "Precipitación acumulada en una hora: 20 mm.", 
    "Code_PRP1": "2PR-3AM-01PRP1-1791446400-691702", 
    "Cer_TOTO": "Likely", 
    "Fen_avisos": [
     "PR ", 
     "TOTO "
    ], 
    "Ordn_avisos": [
     "2PR-3AM-01PRP1-1791446400-691702", 
     "2PR-3AM-07TOTO-1791446400-691702"
    ], 
    "Nivel_TOTO": 3, 
    "Onset_TOTO": "2026-10-08T10:00:00+02:00", 
    "COD_Z": "691702", 
    "Av_mayor": 3, 
    "Resum_PRP1": "Aviso de lluvias de nivel amarillo. Prelitoral de Girona", 
    "Cer_PRP1": "Likely", 
    "Onset_PRP1": "2026-10-08T10:00:00+02:00", 
    "Nivel_PRP1": 3, 
    "Identf_PRP1": "2.49.0.0.724.0.ES.20261007092432.691702PRP108181791365072", 
    "Sev_PRP1": "Amarillo", 
    "Nombre_zona": "Prelitoral de Girona", 
    "Resum_TOTO": "Aviso de tormentas de nivel amarillo. Prelitoral de Girona"
   }
  }, 
  {
   "geometry": {
    "type": "Polygon", 
    "coordinates": [
     [
      [
       0.734399554322187, 
       40.640308699524084
      ], 
      [
       0.736666823011185, 
       40.64082182608277
      ], 
      [
       0.747136871474016, 
       40.63651965363344
      ], 
      [
       0.712539913216221, 
       40.592466384077355
      ], 
      [
       0.673551692204818, 
       40.59370563608575
      ], 
      [
       0.651336648591862, 
       40.585810479789075
      ], 
      [
       0.599031340175684, 
       40.574828000920434
      ], 
      [
       0.610227025990529, 
       40.559447454242296
      ], 
      [
       0.65104299969501, 
       40.55546132191296
      ], 
      [
       0.681289412124061, 
       40.56464966877626
      ], 
      [
       0.709197642852862, 
       40.58522528742295
      ], 
      [
       0.751199107234354, 
       40.635387967286874
      ], 
      [
       0.769213167421963, 
       40.648164770243525
      ], 
      [
       0.842588169845539, 
       40.676136078635075
      ], 
      [
       0.877673195784174, 
       40.70165304361671
      ], 
      [
       0.888666556093036, 
       40.719743503355495
      ], 
      [
       0.875324296484753, 
       40.734358197567765
      ], 
      [
       0.86478495642443, 
       40.72184354202826
      ], 
      [
       0.828988020672423, 
       40.7360060222804
      ], 
      [
       0.782081017832905, 
       40.775008306201144
      ], 
      [
       0.763681600599112, 
       40.76217464425693
      ], 
      [
       0.729783638439996, 
       40.77061618128614
      ], 
      [
       0.710494018587541, 
       40.786251030376086
      ], 
      [
       0.700839221853448, 
       40.80417624565644
      ], 
      [
       0.729983447137581, 
       40.81815846646287
      ], 
      [
       0.753095334987016, 
       40.84645023833075
      ], 
      [
       0.79348613645024, 
       40.86700104097945
      ], 
      [
       0.858900814631335, 
       40.93499613543125
      ], 
      [
       0.918524900410932, 
       40.988381127658705
      ], 
      [
       0.967606140782954, 
       41.02875257424696
      ], 
      [
       0.990437975148758, 
       41.04193860065209
      ], 
      [
       1.004952302634858, 
       41.04337935890015
      ], 
      [
       1.051941910261324, 
       41.06482230744912
      ], 
      [
       1.085325325802643, 
       41.0640378702214
      ], 
      [
       1.118879626911933, 
       41.074187220682866
      ], 
      [
       1.332179035381998, 
       40.764786278826925
      ], 
      [
       1.310728348682103, 
       40.751414746226246
      ], 
      [
       1.315051996474769, 
       40.68779808284437
      ], 
      [
       1.303401266535607, 
       40.62471670885213
      ], 
      [
       1.276244508655578, 
       40.56447027861868
      ], 
      [
       1.234608065533769, 
       40.509249479911276
      ], 
      [
       1.180034056069901, 
       40.461057733634526
      ], 
      [
       1.114521302253698, 
       40.42164021215293
      ], 
      [
       1.071215429854732, 
       40.40033089883925
      ], 
      [
       1.042431194685819, 
       40.371249530671896
      ], 
      [
       1.01049728970025, 
       40.34572031530584
      ], 
      [
       0.910321527310226, 
       40.383210290680594
      ], 
      [
       0.550437130346159, 
       40.51591364534921
      ], 
      [
       0.516346493521146, 
       40.52326072632791
      ], 
      [
       0.539429213765425, 
       40.56780107293233
      ], 
      [
       0.603785309323274, 
       40.62240142057493
      ], 
      [
       0.664378241553634, 
       40.62686826908806
      ], 
      [
       0.704798466643601, 
       40.63897728854831
      ], 
      [
       0.734399554322187, 
       40.640308699524084
      ]
     ]
    ]
   }, 
   "type": "Feature", 
   "properties": {
    "Expire_COCO": "2026-10-08T23:59:59+02:00", 
    "N_avisos": 1, 
    "Des_COCO": "Viento del noroeste de 50 a 60 km/h (fuerza 7).", 
    "Provincia": "Tarragona", 
    "Nivel_COCO": 3, 
    "Code_COCO": "2PR-3AM-10COCO-1791439200-694304C", 
    "COD_Z": "694304C", 
    "Cer_COCO": "Likely", 
    "Prb_COCO": "40%-70%", 
    "Av_mayor": 3, 
    "Fen_avisos": [
     "COCO "
    ], 
    "Identf_COCO": "2.49.0.0.724.0.ES.20261007092432.694304COCO08221791365072", 
    "Sev_COCO": "Amarillo", 
    "Onset_COCO": "2026-10-08T08:00:00+02:00", 
    "Nombre_zona": "Litoral sur de Tarragona - Costa", 
    "COCO": "Costeros", 
    "Ordn_avisos": [
     "2PR-3AM-10COCO-1791439200-694304C"
    ], 
    "Resum_COCO": "Aviso de costeros de nivel amarillo. Costa - Litoral sur de Tarragona"
   }
  }, 
  {
   "geometry": {
    "type": "Polygon", 
    "coordinates": [
     [
      [
       2.77799277865842, 
       41.73578505179817
      ], 
      [
       2.809498274523081, 
       41.74463281702754
      ], 
      [
       2.849994186421508, 
       41.76247328364072
      ], 
      [
       2.870949289774472, 
       41.746170234473546
      ], 
      [
       2.887358329468093, 
       41.7565524065921
      ], 
      [
       2.854998988553561, 
       41.79241735082774
      ], 
      [
       2.850804070445769, 
       41.819726244065855
      ], 
      [
       2.863213341761981, 
       41.84893109446724
      ], 
      [
       2.88840799327799, 
       41.86067167041455
      ], 
      [
       2.917932886267526, 
       41.8600218559188
      ], 
      [
       2.944300136770658, 
       41.86530727391981
      ], 
      [
       2.956505960618205, 
       41.88477247591763
      ], 
      [
       2.987099742120129, 
       41.885138041633034
      ], 
      [
       3.024074739899159, 
       41.869371493571485
      ], 
      [
       3.034402074091144, 
       41.84864672474698
      ], 
      [
       3.063307647808232, 
       41.843959336706796
      ], 
      [
       3.082073313602626, 
       41.824826281063345
      ], 
      [
       3.066508618259802, 
       41.80051243413485
      ], 
      [
       3.030545181372171, 
       41.779847209583785
      ], 
      [
       2.972557070473235, 
       41.75348957069878
      ], 
      [
       2.954825624775968, 
       41.73131597738271
      ], 
      [
       2.913299210607874, 
       41.708102422203694
      ], 
      [
       2.888299863819823, 
       41.70152344883903
      ], 
      [
       2.854415933790484, 
       41.70006519376004
      ], 
      [
       2.817866231081555, 
       41.686778243706705
      ], 
      [
       2.794120100176215, 
       41.67391256856941
      ], 
      [
       2.779505115009547, 
       41.64912244170018
      ], 
      [
       2.759003259805408, 
       41.679428261483004
      ], 
      [
       2.775426265900593, 
       41.70053824325982
      ], 
      [
       2.76697051600381, 
       41.72598880971846
      ], 
      [
       2.77799277865842, 
       41.73578505179817
      ]
     ]
    ]
   }, 
   "type": "Feature", 
   "properties": {
    "Valor_PRP1": "20 mm", 
    "Nivel_PR": 3, 
    "Prb_TOTO": "40%-70%", 
    "Sev_TOTO": "Amarillo", 
    "TOTO": "Tormentas", 
    "Des_TOTO": "Pueden venir acompañadas de granizo inferior a 2 cm.", 
    "N_avisos": 2, 
    "Identf_TOTO": "2.49.0.0.724.0.ES.20261007092432.691704TOTO08181791365072", 
    "Expire_PRP1": "2026-10-08T19:59:59+02:00", 
    "Code_TOTO": "2PR-3AM-07TOTO-1791446400-691704", 
    "PRP1": "Lluvias", 
    "Prb_PRP1": "40%-70%", 
    "Expire_TOTO": "2026-10-08T19:59:59+02:00", 
    "Des_PRP1": "Precipitación acumulada en una hora: 20 mm.", 
    "Code_PRP1": "2PR-3AM-01PRP1-1791446400-691704", 
    "Cer_TOTO": "Likely", 
    "Fen_avisos": [
     "PR ", 
     "TOTO "
    ], 
    "Ordn_avisos": [
     "2PR-3AM-01PRP1-1791446400-691704", 
     "2PR-3AM-07TOTO-1791446400-691704"
    ], 
    "Nivel_TOTO": 3, 
    "Onset_TOTO": "2026-10-08T10:00:00+02:00", 
    "COD_Z": "691704", 
    "Av_mayor": 3, 
    "Resum_PRP1": "Aviso de lluvias de nivel amarillo. Litoral sur de Girona", 
    "Cer_PRP1": "Likely", 
    "Onset_PRP1": "2026-10-08T10:00:00+02:00", 
    "Nivel_PRP1": 3, 
    "Identf_PRP1": "2.49.0.0.724.0.ES.20261007092432.691704PRP108181791365072", 
    "Sev_PRP1": "Amarillo", 
    "Nombre_zona": "Litoral sur de Girona", 
    "Resum_TOTO": "Aviso de tormentas de nivel amarillo. Litoral sur de Girona"
   }
  }, 
  {
   "geometry": {
    "type": "Polygon", 
    "coordinates": [
     [
      [
       1.596140442569112, 
       41.3096517851911
      ], 
      [
       1.634395893911326, 
       41.3138049112509
      ], 
      [
       1.643320772385332, 
       41.312355003228674
      ], 
      [
       1.646524696651424, 
       41.295622728115184
      ], 
      [
       1.67191208871237, 
       41.285193157881594
      ], 
      [
       1.685166520458864, 
       41.28875892409741
      ], 
      [
       1.703676413781043, 
       41.32450276524682
      ], 
      [
       1.739187804531724, 
       41.34904478995114
      ], 
      [
       1.764379166651373, 
       41.33979117159183
      ], 
      [
       1.790857029682651, 
       41.32310463656831
      ], 
      [
       1.809407973897197, 
       41.323796726283824
      ], 
      [
       1.841756371716058, 
       41.31615300306607
      ], 
      [
       1.8621729741189, 
       41.334053132699395
      ], 
      [
       1.899053679363437, 
       41.35512845571401
      ], 
      [
       1.889588401523585, 
       41.37071137902592
      ], 
      [
       1.871733417499409, 
       41.38095088519627
      ], 
      [
       1.882150163603294, 
       41.412100572290335
      ], 
      [
       1.898627643853022, 
       41.428738598879946
      ], 
      [
       1.924112106474898, 
       41.431483333785295
      ], 
      [
       1.966135265955516, 
       41.44319511067024
      ], 
      [
       1.980063390176067, 
       41.441178023179475
      ], 
      [
       2.00210004894843, 
       41.45637989276555
      ], 
      [
       2.016697034808938, 
       41.4591277261562
      ], 
      [
       2.033909364490514, 
       41.442024546927115
      ], 
      [
       2.062522255340189, 
       41.44532116754234
      ], 
      [
       2.089309751852938, 
       41.42848919093642
      ], 
      [
       2.121860891031195, 
       41.42609551905853
      ], 
      [
       2.135703213495565, 
       41.44777661982533
      ], 
      [
       2.165355423174001, 
       41.45020857265821
      ], 
      [
       2.179789338190155, 
       41.46824734743848
      ], 
      [
       2.212469251243868, 
       41.47143041457286
      ], 
      [
       2.226007498192684, 
       41.49253767279448
      ], 
      [
       2.248097397931433, 
       41.488972324435316
      ], 
      [
       2.283033100350837, 
       41.51423186690675
      ], 
      [
       2.273674714289534, 
       41.523746119169154
      ], 
      [
       2.285281702614452, 
       41.54501574631199
      ], 
      [
       2.317423283176147, 
       41.53352803306667
      ], 
      [
       2.336388811775269, 
       41.54413401522227
      ], 
      [
       2.343410499514966, 
       41.56139763023904
      ], 
      [
       2.395320364271935, 
       41.60891111800686
      ], 
      [
       2.422745542623302, 
       41.63081562137843
      ], 
      [
       2.451606626242828, 
       41.62660170863602
      ], 
      [
       2.478924533015908, 
       41.631528445818006
      ], 
      [
       2.497332408202705, 
       41.624507476883366
      ], 
      [
       2.524387058062163, 
       41.62577206324832
      ], 
      [
       2.547296985485275, 
       41.65792773908892
      ], 
      [
       2.594802484508846, 
       41.659254670755075
      ], 
      [
       2.601123684160331, 
       41.683773072571114
      ], 
      [
       2.627366525424095, 
       41.68877028180123
      ], 
      [
       2.652421964025495, 
       41.722445746278154
      ], 
      [
       2.671604388975167, 
       41.71474614015953
      ], 
      [
       2.703773239467886, 
       41.72850562292488
      ], 
      [
       2.725936943400223, 
       41.744610874679886
      ], 
      [
       2.745883737740243, 
       41.73527624779177
      ], 
      [
       2.77799277865842, 
       41.73578505179817
      ], 
      [
       2.76697051600381, 
       41.72598880971846
      ], 
      [
       2.775426265900593, 
       41.70053824325982
      ], 
      [
       2.759003259805408, 
       41.679428261483004
      ], 
      [
       2.779505115009547, 
       41.64912244170018
      ], 
      [
       2.751979091212835, 
       41.644476786064
      ], 
      [
       2.718583628036436, 
       41.62881140209656
      ], 
      [
       2.633158122754026, 
       41.60421031406625
      ], 
      [
       2.563901096786782, 
       41.579633658902566
      ], 
      [
       2.556510335353464, 
       41.57956911307922
      ], 
      [
       2.496048475433082, 
       41.55304740240634
      ], 
      [
       2.462048167757439, 
       41.54267255923758
      ], 
      [
       2.403789082372492, 
       41.50648953212207
      ], 
      [
       2.377104949743265, 
       41.49448348824668
      ], 
      [
       2.297525426818167, 
       41.472611126087386
      ], 
      [
       2.253769706305435, 
       41.44828221656063
      ], 
      [
       2.224907898402009, 
       41.408836594224496
      ], 
      [
       2.177042373799399, 
       41.367541207630445
      ], 
      [
       2.161089374568351, 
       41.346887236138215
      ], 
      [
       2.151961055425819, 
       41.32208060667702
      ], 
      [
       2.120599725006837, 
       41.292388088561225
      ], 
      [
       2.075642056621197, 
       41.27759396834325
      ], 
      [
       2.021415276690865, 
       41.266284583710494
      ], 
      [
       1.945493710033761, 
       41.26412332443847
      ], 
      [
       1.922872281163871, 
       41.260341538160006
      ], 
      [
       1.870456024078326, 
       41.24317421161135
      ], 
      [
       1.854761271612054, 
       41.23469125249246
      ], 
      [
       1.816359852985469, 
       41.23635278434388
      ], 
      [
       1.779372580925507, 
       41.22408629473277
      ], 
      [
       1.695544918034914, 
       41.207365898104776
      ], 
      [
       1.674130142246973, 
       41.198470069391085
      ], 
      [
       1.646379120025998, 
       41.1959490303054
      ], 
      [
       1.64724178335957, 
       41.22912873101358
      ], 
      [
       1.622564973118679, 
       41.22353346059205
      ], 
      [
       1.603716020664504, 
       41.23513972506184
      ], 
      [
       1.582804598712092, 
       41.23748832538011
      ], 
      [
       1.576176430075131, 
       41.25648036483233
      ], 
      [
       1.595463644098316, 
       41.25928499854508
      ], 
      [
       1.62314660083051, 
       41.255248130233994
      ], 
      [
       1.62891682324519, 
       41.29631565719883
      ], 
      [
       1.613216327242671, 
       41.28547658836885
      ], 
      [
       1.589306344624381, 
       41.2943035783538
      ], 
      [
       1.596140442569112, 
       41.3096517851911
      ]
     ]
    ]
   }, 
   "type": "Feature", 
   "properties": {
    "Valor_PRP1": "20 mm", 
    "Nivel_PR": 3, 
    "Prb_TOTO": "40%-70%", 
    "Sev_TOTO": "Amarillo", 
    "TOTO": "Tormentas", 
    "Des_TOTO": "Pueden venir acompañadas de granizo inferior a 2 cm.", 
    "N_avisos": 2, 
    "Identf_TOTO": "2.49.0.0.724.0.ES.20261007092432.690804TOTO08181791365072", 
    "Expire_PRP1": "2026-10-08T19:59:59+02:00", 
    "Code_TOTO": "2PR-3AM-07TOTO-1791446400-690804", 
    "PRP1": "Lluvias", 
    "Prb_PRP1": "40%-70%", 
    "Expire_TOTO": "2026-10-08T19:59:59+02:00", 
    "Des_PRP1": "Precipitación acumulada en una hora: 20 mm.", 
    "Code_PRP1": "2PR-3AM-01PRP1-1791446400-690804", 
    "Cer_TOTO": "Likely", 
    "Fen_avisos": [
     "PR ", 
     "TOTO "
    ], 
    "Ordn_avisos": [
     "2PR-3AM-01PRP1-1791446400-690804", 
     "2PR-3AM-07TOTO-1791446400-690804"
    ], 
    "Nivel_TOTO": 3, 
    "Onset_TOTO": "2026-10-08T10:00:00+02:00", 
    "COD_Z": "690804", 
    "Av_mayor": 3, 
    "Resum_PRP1": "Aviso de lluvias de nivel amarillo. Litoral de Barcelona", 
    "Cer_PRP1": "Likely", 
    "Onset_PRP1": "2026-10-08T10:00:00+02:00", 
    "Nivel_PRP1": 3, 
    "Identf_PRP1": "2.49.0.0.724.0.ES.20261007092432.690804PRP108181791365072", 
    "Sev_PRP1": "Amarillo", 
    "Nombre_zona": "Litoral de Barcelona", 
    "Resum_TOTO": "Aviso de tormentas de nivel amarillo. Litoral de Barcelona"
   }
  }, 
  {
   "geometry": {
    "type": "Polygon", 
    "coordinates": [
     [
      [
       1.420125924774422, 
       41.676741568829435
      ], 
      [
       1.442004703078141, 
       41.6700799616048
      ], 
      [
       1.450786437612188, 
       41.69483288879672
      ], 
      [
       1.525063662489401, 
       41.69383508535637
      ], 
      [
       1.571100916413804, 
       41.68087196353922
      ], 
      [
       1.616745586721608, 
       41.69655530961756
      ], 
      [
       1.632349301111138, 
       41.654429112375844
      ], 
      [
       1.656448134192225, 
       41.656991571972036
      ], 
      [
       1.682410011444174, 
       41.62001996678777
      ], 
      [
       1.702940959503395, 
       41.61905394745864
      ], 
      [
       1.730300342371857, 
       41.646451433591665
      ], 
      [
       1.766191423025418, 
       41.64614484522072
      ], 
      [
       1.791680772992438, 
       41.63944661859801
      ], 
      [
       1.786188988225397, 
       41.618311238052314
      ], 
      [
       1.82639020031395, 
       41.5935333086011
      ], 
      [
       1.864520728774887, 
       41.592633687085964
      ], 
      [
       1.862070689492467, 
       41.60741270254661
      ], 
      [
       1.890794276603531, 
       41.61509543746186
      ], 
      [
       1.909890145730299, 
       41.63051197403184
      ], 
      [
       1.942960639536671, 
       41.624697729723366
      ], 
      [
       1.956692229698552, 
       41.64366847154303
      ], 
      [
       1.990915562111297, 
       41.65458990598361
      ], 
      [
       2.006419051668664, 
       41.6549763030677
      ], 
      [
       2.014211407719634, 
       41.68077112356825
      ], 
      [
       2.010178548578032, 
       41.69145381131745
      ], 
      [
       2.039525654864153, 
       41.71728388315574
      ], 
      [
       2.088222960381749, 
       41.708128199557876
      ], 
      [
       2.111520578412003, 
       41.71753468671478
      ], 
      [
       2.126121131397373, 
       41.712876369487994
      ], 
      [
       2.132588631268698, 
       41.73174460227006
      ], 
      [
       2.155997366560171, 
       41.73370966474107
      ], 
      [
       2.189898412893231, 
       41.775427676719545
      ], 
      [
       2.222453679934375, 
       41.778377581273844
      ], 
      [
       2.234328093155796, 
       41.762639458825156
      ], 
      [
       2.275530751081448, 
       41.77166959724636
      ], 
      [
       2.292244433998491, 
       41.79337772776171
      ], 
      [
       2.304370108496352, 
       41.79890249287357
      ], 
      [
       2.329055802430177, 
       41.786287716810016
      ], 
      [
       2.335237707834828, 
       41.764142285176405
      ], 
      [
       2.366556920308613, 
       41.769998251259004
      ], 
      [
       2.372680284419547, 
       41.79473754335154
      ], 
      [
       2.383826642688542, 
       41.80900486816851
      ], 
      [
       2.405842678293312, 
       41.80197236926434
      ], 
      [
       2.437670646408974, 
       41.80317534131839
      ], 
      [
       2.444905744800838, 
       41.789481405869346
      ], 
      [
       2.490992935865521, 
       41.7657931576746
      ], 
      [
       2.517112832005005, 
       41.762197446458565
      ], 
      [
       2.51677014965061, 
       41.74897195033306
      ], 
      [
       2.532377696598218, 
       41.739253162337214
      ], 
      [
       2.538682771164105, 
       41.722042692937585
      ], 
      [
       2.638028983910826, 
       41.73356125706236
      ], 
      [
       2.640531606716926, 
       41.7431780183315
      ], 
      [
       2.670596099674392, 
       41.74567217114289
      ], 
      [
       2.682258453438147, 
       41.73986409718816
      ], 
      [
       2.725936943400223, 
       41.744610874679886
      ], 
      [
       2.703773239467886, 
       41.72850562292488
      ], 
      [
       2.671604388975167, 
       41.71474614015953
      ], 
      [
       2.652421964025495, 
       41.722445746278154
      ], 
      [
       2.627366525424095, 
       41.68877028180123
      ], 
      [
       2.601123684160331, 
       41.683773072571114
      ], 
      [
       2.594802484508846, 
       41.659254670755075
      ], 
      [
       2.547296985485275, 
       41.65792773908892
      ], 
      [
       2.524387058062163, 
       41.62577206324832
      ], 
      [
       2.497332408202705, 
       41.624507476883366
      ], 
      [
       2.478924533015908, 
       41.631528445818006
      ], 
      [
       2.451606626242828, 
       41.62660170863602
      ], 
      [
       2.422745542623302, 
       41.63081562137843
      ], 
      [
       2.395320364271935, 
       41.60891111800686
      ], 
      [
       2.343410499514966, 
       41.56139763023904
      ], 
      [
       2.336388811775269, 
       41.54413401522227
      ], 
      [
       2.317423283176147, 
       41.53352803306667
      ], 
      [
       2.285281702614452, 
       41.54501574631199
      ], 
      [
       2.273674714289534, 
       41.523746119169154
      ], 
      [
       2.283033100350837, 
       41.51423186690675
      ], 
      [
       2.248097397931433, 
       41.488972324435316
      ], 
      [
       2.226007498192684, 
       41.49253767279448
      ], 
      [
       2.212469251243868, 
       41.47143041457286
      ], 
      [
       2.179789338190155, 
       41.46824734743848
      ], 
      [
       2.165355423174001, 
       41.45020857265821
      ], 
      [
       2.135703213495565, 
       41.44777661982533
      ], 
      [
       2.121860891031195, 
       41.42609551905853
      ], 
      [
       2.089309751852938, 
       41.42848919093642
      ], 
      [
       2.062522255340189, 
       41.44532116754234
      ], 
      [
       2.033909364490514, 
       41.442024546927115
      ], 
      [
       2.016697034808938, 
       41.4591277261562
      ], 
      [
       2.00210004894843, 
       41.45637989276555
      ], 
      [
       1.980063390176067, 
       41.441178023179475
      ], 
      [
       1.966135265955516, 
       41.44319511067024
      ], 
      [
       1.924112106474898, 
       41.431483333785295
      ], 
      [
       1.898627643853022, 
       41.428738598879946
      ], 
      [
       1.882150163603294, 
       41.412100572290335
      ], 
      [
       1.871733417499409, 
       41.38095088519627
      ], 
      [
       1.889588401523585, 
       41.37071137902592
      ], 
      [
       1.899053679363437, 
       41.35512845571401
      ], 
      [
       1.8621729741189, 
       41.334053132699395
      ], 
      [
       1.841756371716058, 
       41.31615300306607
      ], 
      [
       1.809407973897197, 
       41.323796726283824
      ], 
      [
       1.790857029682651, 
       41.32310463656831
      ], 
      [
       1.764379166651373, 
       41.33979117159183
      ], 
      [
       1.739187804531724, 
       41.34904478995114
      ], 
      [
       1.703676413781043, 
       41.32450276524682
      ], 
      [
       1.685166520458864, 
       41.28875892409741
      ], 
      [
       1.67191208871237, 
       41.285193157881594
      ], 
      [
       1.646524696651424, 
       41.295622728115184
      ], 
      [
       1.643320772385332, 
       41.312355003228674
      ], 
      [
       1.634395893911326, 
       41.3138049112509
      ], 
      [
       1.596140442569112, 
       41.3096517851911
      ], 
      [
       1.579405672115621, 
       41.31621765015433
      ], 
      [
       1.559824378220728, 
       41.34345872483683
      ], 
      [
       1.574778701718023, 
       41.35566730929806
      ], 
      [
       1.570517225846868, 
       41.36868530501632
      ], 
      [
       1.553323789044223, 
       41.36842293786631
      ], 
      [
       1.546947386950272, 
       41.379642161835946
      ], 
      [
       1.513032533697533, 
       41.394638821425325
      ], 
      [
       1.495300126914574, 
       41.389959098569065
      ], 
      [
       1.469653509830643, 
       41.44427199374333
      ], 
      [
       1.484347670736366, 
       41.45814108416229
      ], 
      [
       1.485731282386297, 
       41.47523025085737
      ], 
      [
       1.438160736659186, 
       41.498607505218104
      ], 
      [
       1.405777886978824, 
       41.50691405890482
      ], 
      [
       1.400712961896572, 
       41.52882573056699
      ], 
      [
       1.426775338801937, 
       41.532181326597666
      ], 
      [
       1.447895001058475, 
       41.55269478119527
      ], 
      [
       1.448648196672668, 
       41.57412161381787
      ], 
      [
       1.420855633418199, 
       41.58291199819694
      ], 
      [
       1.394022695242746, 
       41.57539798701497
      ], 
      [
       1.394539847592325, 
       41.59977861978287
      ], 
      [
       1.369795941303515, 
       41.61063688853348
      ], 
      [
       1.370428673594642, 
       41.62158850271992
      ], 
      [
       1.392850157078087, 
       41.63439103396261
      ], 
      [
       1.449492568028988, 
       41.63640390703609
      ], 
      [
       1.4342879975772, 
       41.65163273319999
      ], 
      [
       1.420125924774422, 
       41.676741568829435
      ]
     ]
    ]
   }, 
   "type": "Feature", 
   "properties": {
    "Valor_PRP1": "20 mm", 
    "Nivel_PR": 3, 
    "Prb_TOTO": "40%-70%", 
    "Sev_TOTO": "Amarillo", 
    "TOTO": "Tormentas", 
    "Des_TOTO": "Pueden venir acompañadas de granizo inferior a 2 cm.", 
    "N_avisos": 2, 
    "Identf_TOTO": "2.49.0.0.724.0.ES.20261007092432.690803TOTO08181791365072", 
    "Expire_PRP1": "2026-10-08T19:59:59+02:00", 
    "Code_TOTO": "2PR-3AM-07TOTO-1791446400-690803", 
    "PRP1": "Lluvias", 
    "Prb_PRP1": "40%-70%", 
    "Expire_TOTO": "2026-10-08T19:59:59+02:00", 
    "Des_PRP1": "Precipitación acumulada en una hora: 20 mm.", 
    "Code_PRP1": "2PR-3AM-01PRP1-1791446400-690803", 
    "Cer_TOTO": "Likely", 
    "Fen_avisos": [
     "PR ", 
     "TOTO "
    ], 
    "Ordn_avisos": [
     "2PR-3AM-01PRP1-1791446400-690803", 
     "2PR-3AM-07TOTO-1791446400-690803"
    ], 
    "Nivel_TOTO": 3, 
    "Onset_TOTO": "2026-10-08T10:00:00+02:00", 
    "COD_Z": "690803", 
    "Av_mayor": 3, 
    "Resum_PRP1": "Aviso de lluvias de nivel amarillo. Prelitoral de Barcelona", 
    "Cer_PRP1": "Likely", 
    "Onset_PRP1": "2026-10-08T10:00:00+02:00", 
    "Nivel_PRP1": 3, 
    "Identf_PRP1": "2.49.0.0.724.0.ES.20261007092432.690803PRP108181791365072", 
    "Sev_PRP1": "Amarillo", 
    "Nombre_zona": "Prelitoral de Barcelona", 
    "Resum_TOTO": "Aviso de tormentas de nivel amarillo. Prelitoral de Barcelona"
   }
  }, 
  {
   "geometry": {
    "type": "Polygon", 
    "coordinates": [
     [
      [
       -0.238043451063964, 
       40.71838473743723
      ], 
      [
       -0.222821107467843, 
       40.75449662781511
      ], 
      [
       -0.195963634375227, 
       40.78479372222865
      ], 
      [
       -0.143321900781666, 
       40.785780174930295
      ], 
      [
       -0.145968000525914, 
       40.77546106733316
      ], 
      [
       -0.125629996402793, 
       40.7536552081768
      ], 
      [
       -0.063489676383235, 
       40.72774476440231
      ], 
      [
       -0.030206643939116, 
       40.722767488388605
      ], 
      [
       -0.016508598382077, 
       40.731537554479615
      ], 
      [
       0.01575837557702, 
       40.72900503444177
      ], 
      [
       0.027643080773141, 
       40.695288535361186
      ], 
      [
       0.043378993513466, 
       40.69134385100983
      ], 
      [
       0.073890101089485, 
       40.714645007167775
      ], 
      [
       0.113702714391102, 
       40.72747379496828
      ], 
      [
       0.142547840478385, 
       40.7188017611698
      ], 
      [
       0.163044292791776, 
       40.72293367298469
      ], 
      [
       0.171923965146309, 
       40.73317308769824
      ], 
      [
       0.198490955135039, 
       40.724504691168896
      ], 
      [
       0.217312198064584, 
       40.73258203949896
      ], 
      [
       0.237720727541634, 
       40.702020066251826
      ], 
      [
       0.263627836215826, 
       40.70618915961671
      ], 
      [
       0.293036168014248, 
       40.6888898312484
      ], 
      [
       0.269457349899028, 
       40.65989420944097
      ], 
      [
       0.256356049242671, 
       40.66358813313502
      ], 
      [
       0.200475462639346, 
       40.65202997911142
      ], 
      [
       0.1591713406264, 
       40.64654885372779
      ], 
      [
       0.15872449716358, 
       40.61402090617148
      ], 
      [
       0.17560953153908, 
       40.61070237682571
      ], 
      [
       0.187030211292036, 
       40.59588716193642
      ], 
      [
       0.175814728424071, 
       40.584352922668764
      ], 
      [
       0.147019439295871, 
       40.57490142173107
      ], 
      [
       0.115702952251291, 
       40.58677514109691
      ], 
      [
       0.079828025315732, 
       40.572444989338166
      ], 
      [
       0.087559017417375, 
       40.54973096190209
      ], 
      [
       0.099602132762632, 
       40.54153642523728
      ], 
      [
       0.083100198605818, 
       40.50196188756082
      ], 
      [
       0.092833957746539, 
       40.4814185543957
      ], 
      [
       0.079161077130185, 
       40.468733281753934
      ], 
      [
       0.055263817478777, 
       40.466035537195005
      ], 
      [
       0.044027731281257, 
       40.45068752763623
      ], 
      [
       0.015326349834822, 
       40.44136183755466
      ], 
      [
       -0.017312719960255, 
       40.3958419003907
      ], 
      [
       -0.036351623919948, 
       40.38533439636118
      ], 
      [
       -0.044010264326541, 
       40.36723744388586
      ], 
      [
       -0.027387838347356, 
       40.36284794646901
      ], 
      [
       -0.057568618622485, 
       40.321926906237245
      ], 
      [
       -0.084572883160097, 
       40.298201994250554
      ], 
      [
       -0.103643684277315, 
       40.313290958884686
      ], 
      [
       -0.100724087556241, 
       40.32871899282646
      ], 
      [
       -0.086095129044232, 
       40.35031932933942
      ], 
      [
       -0.143098492790324, 
       40.36091183671135
      ], 
      [
       -0.153591703701116, 
       40.35666721152269
      ], 
      [
       -0.1837140043716, 
       40.36192681425074
      ], 
      [
       -0.211789264126501, 
       40.35269067382679
      ], 
      [
       -0.216112176507505, 
       40.36865657602391
      ], 
      [
       -0.246770138622725, 
       40.37605642018171
      ], 
      [
       -0.261504938489013, 
       40.36788569140665
      ], 
      [
       -0.27884282652124, 
       40.36984449613413
      ], 
      [
       -0.284177674856899, 
       40.38684060505327
      ], 
      [
       -0.30600670181252, 
       40.40953649331462
      ], 
      [
       -0.33161379225718, 
       40.42588445189524
      ], 
      [
       -0.346141242470628, 
       40.44428766347808
      ], 
      [
       -0.33139586320879, 
       40.459395379546635
      ], 
      [
       -0.275741390160813, 
       40.47620955119077
      ], 
      [
       -0.276425186266262, 
       40.50187796946709
      ], 
      [
       -0.300648772553379, 
       40.51630871109338
      ], 
      [
       -0.288898353237227, 
       40.54429767246917
      ], 
      [
       -0.294844521258606, 
       40.56083001444137
      ], 
      [
       -0.291098014380528, 
       40.60508376220704
      ], 
      [
       -0.29791817108172, 
       40.61325986813753
      ], 
      [
       -0.320871803097275, 
       40.6031847040109
      ], 
      [
       -0.378328745294887, 
       40.62522939456644
      ], 
      [
       -0.369581031142234, 
       40.65111476139501
      ], 
      [
       -0.376740941046312, 
       40.66787770823777
      ], 
      [
       -0.354952613789263, 
       40.67803555795529
      ], 
      [
       -0.327603271583558, 
       40.68062079908092
      ], 
      [
       -0.315707329958317, 
       40.66396100028952
      ], 
      [
       -0.249228789350899, 
       40.691109135321696
      ], 
      [
       -0.234778698945732, 
       40.69144818918986
      ], 
      [
       -0.238043451063964, 
       40.71838473743723
      ]
     ]
    ]
   }, 
   "type": "Feature", 
   "properties": {
    "Cer_VIRM": "Likely", 
    "N_avisos": 1, 
    "Code_VIRM": "2PR-3AM-06VIRM-1791439200-771201", 
    "COD_Z": "771201", 
    "Identf_VIRM": "2.49.0.0.724.0.ES.20261007093926.771201VIRM08221791365966", 
    "Fen_avisos": [
     "VIRM "
    ], 
    "Av_mayor": 3, 
    "Des_VIRM": "Rachas máximas: 80 km/h. Viento del noroeste.", 
    "Nivel_VIRM": 3, 
    "VIRM": "Vientos", 
    "Valor_VIRM": "80 km/h", 
    "Resum_VIRM": "Aviso de vientos de nivel amarillo. Interior norte de Castellón", 
    "Nombre_zona": "Interior norte de Castellón", 
    "Prb_VIRM": "40%-70%", 
    "Ordn_avisos": [
     "2PR-3AM-06VIRM-1791439200-771201"
    ], 
    "Sev_VIRM": "Amarillo", 
    "Onset_VIRM": "2026-10-08T08:00:00+02:00", 
    "Expire_VIRM": "2026-10-08T23:59:59+02:00"
   }
  }, 
  {
   "geometry": {
    "type": "Polygon", 
    "coordinates": [
     [
      [
       0.092833957746539, 
       40.4814185543957
      ], 
      [
       0.083100198605818, 
       40.50196188756082
      ], 
      [
       0.099602132762632, 
       40.54153642523728
      ], 
      [
       0.087559017417375, 
       40.54973096190209
      ], 
      [
       0.079828025315732, 
       40.572444989338166
      ], 
      [
       0.115702952251291, 
       40.58677514109691
      ], 
      [
       0.147019439295871, 
       40.57490142173107
      ], 
      [
       0.175814728424071, 
       40.584352922668764
      ], 
      [
       0.187030211292036, 
       40.59588716193642
      ], 
      [
       0.17560953153908, 
       40.61070237682571
      ], 
      [
       0.15872449716358, 
       40.61402090617148
      ], 
      [
       0.1591713406264, 
       40.64654885372779
      ], 
      [
       0.200475462639346, 
       40.65202997911142
      ], 
      [
       0.256356049242671, 
       40.66358813313502
      ], 
      [
       0.269457349899028, 
       40.65989420944097
      ], 
      [
       0.280026995897029, 
       40.63039590075412
      ], 
      [
       0.330952682932999, 
       40.61138360633901
      ], 
      [
       0.37226044796744, 
       40.6053742592485
      ], 
      [
       0.389587254066028, 
       40.607081993107045
      ], 
      [
       0.432562017548043, 
       40.579792769740884
      ], 
      [
       0.439158199974304, 
       40.54739954926061
      ], 
      [
       0.478117781943803, 
       40.53233551426069
      ], 
      [
       0.516346493521146, 
       40.52326072632791
      ], 
      [
       0.486802322696206, 
       40.476983232907536
      ], 
      [
       0.44834565578124, 
       40.43811489626099
      ], 
      [
       0.437430674982302, 
       40.41730271919968
      ], 
      [
       0.418439212152644, 
       40.399925949111505
      ], 
      [
       0.404704297749167, 
       40.36372994397862
      ], 
      [
       0.387552135695374, 
       40.340520391344924
      ], 
      [
       0.355289211402173, 
       40.31248807659871
      ], 
      [
       0.323469095829046, 
       40.27469751585657
      ], 
      [
       0.29705648727836, 
       40.30752641266093
      ], 
      [
       0.303615564291718, 
       40.323812069371535
      ], 
      [
       0.243299674240095, 
       40.362925175833695
      ], 
      [
       0.190723598313384, 
       40.39376884326486
      ], 
      [
       0.206781503469542, 
       40.41588569647873
      ], 
      [
       0.112403797134239, 
       40.463077545994715
      ], 
      [
       0.092833957746539, 
       40.4814185543957
      ]
     ]
    ]
   }, 
   "type": "Feature", 
   "properties": {
    "Cer_VIRM": "Likely", 
    "N_avisos": 1, 
    "Code_VIRM": "2PR-3AM-06VIRM-1791439200-771202", 
    "COD_Z": "771202", 
    "Identf_VIRM": "2.49.0.0.724.0.ES.20261007093926.771202VIRM08221791365966", 
    "Fen_avisos": [
     "VIRM "
    ], 
    "Av_mayor": 3, 
    "Des_VIRM": "Rachas máximas: 80 km/h. Viento del noroeste.", 
    "Nivel_VIRM": 3, 
    "VIRM": "Vientos", 
    "Valor_VIRM": "80 km/h", 
    "Resum_VIRM": "Aviso de vientos de nivel amarillo. Litoral norte de Castellón", 
    "Nombre_zona": "Litoral norte de Castellón", 
    "Prb_VIRM": "40%-70%", 
    "Ordn_avisos": [
     "2PR-3AM-06VIRM-1791439200-771202"
    ], 
    "Sev_VIRM": "Amarillo", 
    "Onset_VIRM": "2026-10-08T08:00:00+02:00", 
    "Expire_VIRM": "2026-10-08T23:59:59+02:00"
   }
  }, 
  {
   "geometry": {
    "type": "Polygon", 
    "coordinates": [
     [
      [
       1.038737126365947, 
       41.17557628076687
      ], 
      [
       1.05935583156521, 
       41.17675020249218
      ], 
      [
       1.062071401043808, 
       41.15919431343075
      ], 
      [
       1.087381516800279, 
       41.142206212974436
      ], 
      [
       1.096000752317826, 
       41.118235414861736
      ], 
      [
       1.095385218868641, 
       41.09304436196552
      ], 
      [
       1.118879626911933, 
       41.074187220682866
      ], 
      [
       1.085325325802643, 
       41.0640378702214
      ], 
      [
       1.051941910261324, 
       41.06482230744912
      ], 
      [
       1.004952302634858, 
       41.04337935890015
      ], 
      [
       0.990437975148758, 
       41.04193860065209
      ], 
      [
       0.967606140782954, 
       41.02875257424696
      ], 
      [
       0.918524900410932, 
       40.988381127658705
      ], 
      [
       0.858900814631335, 
       40.93499613543125
      ], 
      [
       0.79348613645024, 
       40.86700104097945
      ], 
      [
       0.753095334987016, 
       40.84645023833075
      ], 
      [
       0.729983447137581, 
       40.81815846646287
      ], 
      [
       0.700839221853448, 
       40.80417624565644
      ], 
      [
       0.710494018587541, 
       40.786251030376086
      ], 
      [
       0.729783638439996, 
       40.77061618128614
      ], 
      [
       0.763681600599112, 
       40.76217464425693
      ], 
      [
       0.782081017832905, 
       40.775008306201144
      ], 
      [
       0.828988020672423, 
       40.7360060222804
      ], 
      [
       0.86478495642443, 
       40.72184354202826
      ], 
      [
       0.875324296484753, 
       40.734358197567765
      ], 
      [
       0.888666556093036, 
       40.719743503355495
      ], 
      [
       0.877673195784174, 
       40.70165304361671
      ], 
      [
       0.842588169845539, 
       40.676136078635075
      ], 
      [
       0.769213167421963, 
       40.648164770243525
      ], 
      [
       0.751199107234354, 
       40.635387967286874
      ], 
      [
       0.709197642852862, 
       40.58522528742295
      ], 
      [
       0.681289412124061, 
       40.56464966877626
      ], 
      [
       0.65104299969501, 
       40.55546132191296
      ], 
      [
       0.610227025990529, 
       40.559447454242296
      ], 
      [
       0.599031340175684, 
       40.574828000920434
      ], 
      [
       0.651336648591862, 
       40.585810479789075
      ], 
      [
       0.673551692204818, 
       40.59370563608575
      ], 
      [
       0.712539913216221, 
       40.592466384077355
      ], 
      [
       0.747136871474016, 
       40.63651965363344
      ], 
      [
       0.736666823011185, 
       40.64082182608277
      ], 
      [
       0.734399554322187, 
       40.640308699524084
      ], 
      [
       0.704798466643601, 
       40.63897728854831
      ], 
      [
       0.664378241553634, 
       40.62686826908806
      ], 
      [
       0.603785309323274, 
       40.62240142057493
      ], 
      [
       0.539429213765425, 
       40.56780107293233
      ], 
      [
       0.516346493521146, 
       40.52326072632791
      ], 
      [
       0.478117781943803, 
       40.53233551426069
      ], 
      [
       0.439158199974304, 
       40.54739954926061
      ], 
      [
       0.432562017548043, 
       40.579792769740884
      ], 
      [
       0.389587254066028, 
       40.607081993107045
      ], 
      [
       0.37226044796744, 
       40.6053742592485
      ], 
      [
       0.330952682932999, 
       40.61138360633901
      ], 
      [
       0.360261677063316, 
       40.646972509577786
      ], 
      [
       0.353640393646419, 
       40.66042223228062
      ], 
      [
       0.401583610641141, 
       40.70758772012224
      ], 
      [
       0.428623339143825, 
       40.721826800996595
      ], 
      [
       0.444561928887034, 
       40.737760503785545
      ], 
      [
       0.507608511994626, 
       40.73864225218529
      ], 
      [
       0.562661215853815, 
       40.75210161437601
      ], 
      [
       0.574131629114579, 
       40.7332217351771
      ], 
      [
       0.588794221553614, 
       40.75204739305177
      ], 
      [
       0.612071810341577, 
       40.76267640273962
      ], 
      [
       0.607859951878198, 
       40.80758433944303
      ], 
      [
       0.643650944295066, 
       40.82182161499185
      ], 
      [
       0.63552649108679, 
       40.839089743712734
      ], 
      [
       0.66542359802591, 
       40.869031238177605
      ], 
      [
       0.643255394190092, 
       40.89589547054338
      ], 
      [
       0.62377602916124, 
       40.8897378538744
      ], 
      [
       0.611378127955615, 
       40.9109299977458
      ], 
      [
       0.614457939984042, 
       40.93105072305937
      ], 
      [
       0.678911232555844, 
       40.94558857341081
      ], 
      [
       0.740792735229486, 
       40.939353266947386
      ], 
      [
       0.753930664885546, 
       40.932504917310006
      ], 
      [
       0.790509854886584, 
       40.93905104307602
      ], 
      [
       0.804526599880641, 
       40.95337527418435
      ], 
      [
       0.782572498489701, 
       40.99215467901105
      ], 
      [
       0.782117958007393, 
       41.02926193354657
      ], 
      [
       0.8196702522614, 
       41.06251122460354
      ], 
      [
       0.845879655396381, 
       41.032101637821945
      ], 
      [
       0.872228144318224, 
       41.02676059062651
      ], 
      [
       0.90674272146626, 
       41.02587322452704
      ], 
      [
       0.923017286895762, 
       41.05540509592479
      ], 
      [
       0.914248124712453, 
       41.082619489990925
      ], 
      [
       0.897773609296218, 
       41.10367405333101
      ], 
      [
       0.915437753383607, 
       41.126036666618354
      ], 
      [
       0.942484729497971, 
       41.126067310961204
      ], 
      [
       0.953458908142733, 
       41.1142815113501
      ], 
      [
       0.991013677136447, 
       41.12097185523155
      ], 
      [
       1.022649518086366, 
       41.14096784523377
      ], 
      [
       1.038737126365947, 
       41.17557628076687
      ]
     ]
    ]
   }, 
   "type": "Feature", 
   "properties": {
    "Cer_VIRM": "Likely", 
    "N_avisos": 1, 
    "Code_VIRM": "2PR-3AM-06VIRM-1791410400-694304", 
    "COD_Z": "694304", 
    "Identf_VIRM": "2.49.0.0.724.0.ES.20261007092432.694304VIRM08221791365072", 
    "Fen_avisos": [
     "VIRM "
    ], 
    "Av_mayor": 3, 
    "Des_VIRM": "Rachas máximas: 80 km/h. Viento del noroeste.", 
    "Nivel_VIRM": 3, 
    "VIRM": "Vientos", 
    "Valor_VIRM": "80 km/h", 
    "Resum_VIRM": "Aviso de vientos de nivel amarillo. Litoral sur de Tarragona", 
    "Nombre_zona": "Litoral sur de Tarragona", 
    "Prb_VIRM": "40%-70%", 
    "Ordn_avisos": [
     "2PR-3AM-06VIRM-1791410400-694304"
    ], 
    "Sev_VIRM": "Amarillo", 
    "Onset_VIRM": "2026-10-08T00:00:00+02:00", 
    "Expire_VIRM": "2026-10-08T23:59:59+02:00"
   }
  }, 
  {
   "geometry": {
    "type": "Polygon", 
    "coordinates": [
     [
      [
       0.273119697614674, 
       40.819073067057424
      ], 
      [
       0.292797129308366, 
       40.816648288030244
      ], 
      [
       0.311664122662907, 
       40.84035185057087
      ], 
      [
       0.335271135359515, 
       40.85399046024382
      ], 
      [
       0.371026519040612, 
       40.89126994622054
      ], 
      [
       0.364305957520632, 
       40.908748653107295
      ], 
      [
       0.367688661599778, 
       40.933505906937604
      ], 
      [
       0.395033614141542, 
       40.95567683548514
      ], 
      [
       0.439810137482894, 
       40.96239017077737
      ], 
      [
       0.456028870325229, 
       40.97880818934775
      ], 
      [
       0.442825477965951, 
       40.990424791905376
      ], 
      [
       0.450257101130787, 
       41.01507591805474
      ], 
      [
       0.466482927351654, 
       41.03380643718674
      ], 
      [
       0.504199284445324, 
       41.059852154259836
      ], 
      [
       0.561355911119162, 
       41.122819617862504
      ], 
      [
       0.614044672967941, 
       41.14325764951662
      ], 
      [
       0.620390704260102, 
       41.15098275613178
      ], 
      [
       0.607252125242514, 
       41.17186449479281
      ], 
      [
       0.619013796710811, 
       41.17833003266481
      ], 
      [
       0.648431258268394, 
       41.179642986427844
      ], 
      [
       0.707114478509546, 
       41.21645251492546
      ], 
      [
       0.686736669585716, 
       41.22499610955466
      ], 
      [
       0.6860834954779, 
       41.24582784916883
      ], 
      [
       0.703025360818867, 
       41.26607617306588
      ], 
      [
       0.704317798710959, 
       41.284269755632366
      ], 
      [
       0.71506684620113, 
       41.30326566287266
      ], 
      [
       0.752713814638367, 
       41.3181526297994
      ], 
      [
       0.762890950299786, 
       41.33433492719422
      ], 
      [
       0.821353172018562, 
       41.32992059620007
      ], 
      [
       0.833316787175867, 
       41.359102989042434
      ], 
      [
       0.847855378735892, 
       41.35514123063767
      ], 
      [
       0.864479628946109, 
       41.338401789829675
      ], 
      [
       0.912953503576461, 
       41.350187486116084
      ], 
      [
       0.940549713043808, 
       41.34965865314498
      ], 
      [
       0.968008304355492, 
       41.3598434233345
      ], 
      [
       0.992563261606351, 
       41.35819138425747
      ], 
      [
       1.006135214029309, 
       41.34663434394307
      ], 
      [
       1.002935996889978, 
       41.33032147869518
      ], 
      [
       1.107308281865873, 
       41.31513042135455
      ], 
      [
       1.127685715061733, 
       41.30571996211408
      ], 
      [
       1.185280695882641, 
       41.32066384564316
      ], 
      [
       1.195191224263555, 
       41.30574241480687
      ], 
      [
       1.174867132356657, 
       41.29004067266181
      ], 
      [
       1.155886052317511, 
       41.30319978055321
      ], 
      [
       1.135523114413748, 
       41.293705401364804
      ], 
      [
       1.141882915568337, 
       41.25689133269328
      ], 
      [
       1.138979172354694, 
       41.23870787978552
      ], 
      [
       1.112524259261682, 
       41.2402877478446
      ], 
      [
       1.096900150610907, 
       41.22966205336161
      ], 
      [
       1.073539110842268, 
       41.229357681193235
      ], 
      [
       1.06054707806301, 
       41.23835367643917
      ], 
      [
       1.035781699526801, 
       41.22208100668368
      ], 
      [
       1.01047271235764, 
       41.23394337380199
      ], 
      [
       1.019243937587351, 
       41.19958142147972
      ], 
      [
       1.038737126365947, 
       41.17557628076687
      ], 
      [
       1.022649518086366, 
       41.14096784523377
      ], 
      [
       0.991013677136447, 
       41.12097185523155
      ], 
      [
       0.953458908142733, 
       41.1142815113501
      ], 
      [
       0.942484729497971, 
       41.126067310961204
      ], 
      [
       0.915437753383607, 
       41.126036666618354
      ], 
      [
       0.897773609296218, 
       41.10367405333101
      ], 
      [
       0.914248124712453, 
       41.082619489990925
      ], 
      [
       0.923017286895762, 
       41.05540509592479
      ], 
      [
       0.90674272146626, 
       41.02587322452704
      ], 
      [
       0.872228144318224, 
       41.02676059062651
      ], 
      [
       0.845879655396381, 
       41.032101637821945
      ], 
      [
       0.8196702522614, 
       41.06251122460354
      ], 
      [
       0.782117958007393, 
       41.02926193354657
      ], 
      [
       0.782572498489701, 
       40.99215467901105
      ], 
      [
       0.804526599880641, 
       40.95337527418435
      ], 
      [
       0.790509854886584, 
       40.93905104307602
      ], 
      [
       0.753930664885546, 
       40.932504917310006
      ], 
      [
       0.740792735229486, 
       40.939353266947386
      ], 
      [
       0.678911232555844, 
       40.94558857341081
      ], 
      [
       0.614457939984042, 
       40.93105072305937
      ], 
      [
       0.611378127955615, 
       40.9109299977458
      ], 
      [
       0.62377602916124, 
       40.8897378538744
      ], 
      [
       0.643255394190092, 
       40.89589547054338
      ], 
      [
       0.66542359802591, 
       40.869031238177605
      ], 
      [
       0.63552649108679, 
       40.839089743712734
      ], 
      [
       0.643650944295066, 
       40.82182161499185
      ], 
      [
       0.607859951878198, 
       40.80758433944303
      ], 
      [
       0.612071810341577, 
       40.76267640273962
      ], 
      [
       0.588794221553614, 
       40.75204739305177
      ], 
      [
       0.574131629114579, 
       40.7332217351771
      ], 
      [
       0.562661215853815, 
       40.75210161437601
      ], 
      [
       0.507608511994626, 
       40.73864225218529
      ], 
      [
       0.444561928887034, 
       40.737760503785545
      ], 
      [
       0.428623339143825, 
       40.721826800996595
      ], 
      [
       0.401583610641141, 
       40.70758772012224
      ], 
      [
       0.353640393646419, 
       40.66042223228062
      ], 
      [
       0.360261677063316, 
       40.646972509577786
      ], 
      [
       0.330952682932999, 
       40.61138360633901
      ], 
      [
       0.280026995897029, 
       40.63039590075412
      ], 
      [
       0.269457349899028, 
       40.65989420944097
      ], 
      [
       0.293036168014248, 
       40.6888898312484
      ], 
      [
       0.263627836215826, 
       40.70618915961671
      ], 
      [
       0.237720727541634, 
       40.702020066251826
      ], 
      [
       0.217312198064584, 
       40.73258203949896
      ], 
      [
       0.198490955135039, 
       40.724504691168896
      ], 
      [
       0.171923965146309, 
       40.73317308769824
      ], 
      [
       0.176421823266409, 
       40.755276744753445
      ], 
      [
       0.191325030163162, 
       40.75065927177444
      ], 
      [
       0.213186578291875, 
       40.76785734713471
      ], 
      [
       0.224640947831619, 
       40.7658893893316
      ], 
      [
       0.234767218912957, 
       40.78732855471082
      ], 
      [
       0.258959225904065, 
       40.80056156525873
      ], 
      [
       0.273119697614674, 
       40.819073067057424
      ]
     ]
    ]
   }, 
   "type": "Feature", 
   "properties": {
    "Cer_VIRM": "Likely", 
    "N_avisos": 1, 
    "Code_VIRM": "2PR-2NA-06VIRM-1791432000-694305", 
    "COD_Z": "694305", 
    "Identf_VIRM": "2.49.0.0.724.0.ES.20261007092432.694305VIRM08161791365072", 
    "Fen_avisos": [
     "VIRM "
    ], 
    "Av_mayor": 2, 
    "Des_VIRM": "Rachas máximas: 90 km/h. Viento del noroeste. Principalmente en zonas altas expuestas.", 
    "Nivel_VIRM": 2, 
    "VIRM": "Vientos", 
    "Valor_VIRM": "90 km/h", 
    "Resum_VIRM": "Aviso de vientos de nivel naranja. Prelitoral sur de Tarragona", 
    "Nombre_zona": "Prelitoral sur de Tarragona", 
    "Prb_VIRM": "40%-70%", 
    "Ordn_avisos": [
     "2PR-2NA-06VIRM-1791432000-694305"
    ], 
    "Sev_VIRM": "Naranja", 
    "Onset_VIRM": "2026-10-08T06:00:00+02:00", 
    "Expire_VIRM": "2026-10-08T17:59:59+02:00"
   }
  }
 ]
}
