{
 "crs": {
  "type": "name", 
  "properties": {
   "name": "urn:ogc:def:crs:EPSG::4326"
  }
 }, 
 "type": "FeatureCollection", 
 "name": "Avisos", 
 "features": [
  {
   "geometry": {
    "type": "Polygon", 
    "coordinates": [
     [
      [
       -2.411530701396661, 
       43.321410363224324
      ], 
      [
       -2.409046363275371, 
       43.32197382666917
      ], 
      [
       -2.410180766077701, 
       43.324545895501906
      ], 
      [
       -2.356319124885325, 
       43.30252815579915
      ], 
      [
       -2.354386387728482, 
       43.29992402847396
      ], 
      [
       -2.283740490236942, 
       43.29504632649853
      ], 
      [
       -2.266377245851174, 
       43.299672528779496
      ], 
      [
       -2.267176576640975, 
       43.30086621748645
      ], 
      [
       -2.214415743476858, 
       43.30907005427939
      ], 
      [
       -2.176709617088555, 
       43.28808603185179
      ], 
      [
       -2.14002696664183, 
       43.29338075047198
      ], 
      [
       -2.125996233602977, 
       43.28925849033748
      ], 
      [
       -2.110985646760304, 
       43.3000739799148
      ], 
      [
       -2.043598418236338, 
       43.317403736262
      ], 
      [
       -2.012496371292571, 
       43.3212813553282
      ], 
      [
       -1.990491296534851, 
       43.316289992522606
      ], 
      [
       -1.960850293612637, 
       43.338471960592585
      ], 
      [
       -1.915283534348829, 
       43.33693232371562
      ], 
      [
       -1.882112182520423, 
       43.349731932330364
      ], 
      [
       -1.864014765452916, 
       43.37272119644843
      ], 
      [
       -1.826779487065958, 
       43.3846988445012
      ], 
      [
       -1.796619302208522, 
       43.38159415918886
      ], 
      [
       -1.791093392398774, 
       43.36769658990188
      ], 
      [
       -1.788053887008756, 
       43.35360900392517
      ], 
      [
       -1.771591981886666, 
       43.343285706386325
      ], 
      [
       -1.755757171006213, 
       43.34420401275875
      ], 
      [
       -1.73529324813189, 
       43.31966834469574
      ], 
      [
       -1.727627030886819, 
       43.2964065615173
      ], 
      [
       -1.78196775047133, 
       43.287093584329085
      ], 
      [
       -1.792637121349828, 
       43.27673479889527
      ], 
      [
       -1.793701029536624, 
       43.24720305520361
      ], 
      [
       -1.817990515524118, 
       43.23896559909794
      ], 
      [
       -1.82427436552819, 
       43.228576363468356
      ], 
      [
       -1.86195414085955, 
       43.21603624246199
      ], 
      [
       -1.872593589378894, 
       43.220580739100285
      ], 
      [
       -1.901679260753536, 
       43.211436157849526
      ], 
      [
       -1.920772861514404, 
       43.18699091844124
      ], 
      [
       -1.919644301884343, 
       43.17283434203578
      ], 
      [
       -1.946608420333229, 
       43.18233333988562
      ], 
      [
       -1.964932713054785, 
       43.19527785123726
      ], 
      [
       -2.000467427527562, 
       43.185995158597265
      ], 
      [
       -2.042275488654795, 
       43.20995334401665
      ], 
      [
       -2.054203173046947, 
       43.23071761103036
      ], 
      [
       -2.080801457694549, 
       43.243054292380265
      ], 
      [
       -2.09852217395551, 
       43.230742303486615
      ], 
      [
       -2.127004526503687, 
       43.22389478848196
      ], 
      [
       -2.157416853077454, 
       43.19533576633175
      ], 
      [
       -2.180058660443502, 
       43.207548199986576
      ], 
      [
       -2.193196847077052, 
       43.19792584634217
      ], 
      [
       -2.230937550914364, 
       43.20634379497791
      ], 
      [
       -2.256447313380773, 
       43.22522360103906
      ], 
      [
       -2.277316767360701, 
       43.215974760233124
      ], 
      [
       -2.29952934340305, 
       43.21358268767671
      ], 
      [
       -2.346155539198383, 
       43.23964728579096
      ], 
      [
       -2.347741203838981, 
       43.24802140171374
      ], 
      [
       -2.374570970181269, 
       43.27075415612118
      ], 
      [
       -2.416778363956959, 
       43.26787064905527
      ], 
      [
       -2.438793516866993, 
       43.28842961190564
      ], 
      [
       -2.436142985773625, 
       43.29914970863952
      ], 
      [
       -2.411530701396661, 
       43.321410363224324
      ]
     ]
    ]
   }, 
   "type": "Feature", 
   "properties": {
    "Nivel_PR": 3, 
    "N_avisos": 1, 
    "Valor_PRP2": "40 mm", 
    "Resum_PRP2": "Aviso de lluvias de nivel amarillo. Gipuzkoa litoral", 
    "COD_Z": "752001", 
    "Ordn_avisos": [
     "2PR-3AM-02PRP2-1791367200-752001"
    ], 
    "Identf_PRP2": "2.49.0.0.724.0.ES.20261007092938.752001PRP208041791365378", 
    "Fen_avisos": [
     "PR "
    ], 
    "Des_PRP2": "Precipitación acumulada en 12 horas: 40 mm.", 
    "Av_mayor": 3, 
    "Sev_PRP2": "Amarillo", 
    "Code_PRP2": "2PR-3AM-02PRP2-1791367200-752001", 
    "PRP2": "Lluvias", 
    "Cer_PRP2": "Likely", 
    "Nombre_zona": "Gipuzkoa litoral", 
    "Nivel_PRP2": 3, 
    "Onset_PRP2": "2026-10-07T12:00:00+02:00", 
    "Prb_PRP2": "40%-70%", 
    "Expire_PRP2": "2026-10-08T05:59:59+02:00"
   }
  }, 
  {
   "geometry": {
    "type": "Polygon", 
    "coordinates": [
     [
      [
       -6.357645381775444, 
       43.05987164171779
      ], 
      [
       -6.364850538939757, 
       43.07776606434469
      ], 
      [
       -6.361504215962944, 
       43.10279550354454
      ], 
      [
       -6.371997094201435, 
       43.1085998586141
      ], 
      [
       -6.375876255448873, 
       43.13599123224242
      ], 
      [
       -6.354418069894185, 
       43.151172789020684
      ], 
      [
       -6.350487468052142, 
       43.17508443202195
      ], 
      [
       -6.339710191869439, 
       43.189724492419806
      ], 
      [
       -6.299499075375693, 
       43.17537043234061
      ], 
      [
       -6.275594128641064, 
       43.17395124551405
      ], 
      [
       -6.265207418190434, 
       43.18679043460877
      ], 
      [
       -6.238949955747248, 
       43.197018364344366
      ], 
      [
       -6.209910623189653, 
       43.174806484980394
      ], 
      [
       -6.170490286565198, 
       43.19632699472918
      ], 
      [
       -6.144918416199275, 
       43.20447949816169
      ], 
      [
       -6.143162429548736, 
       43.21724989338027
      ], 
      [
       -6.125199110717634, 
       43.219615261588565
      ], 
      [
       -6.103206593342427, 
       43.23576375089
      ], 
      [
       -6.091717616079262, 
       43.226765404192435
      ], 
      [
       -6.097683184581306, 
       43.20769626832553
      ], 
      [
       -6.091300825055784, 
       43.189789756004174
      ], 
      [
       -6.067117007077752, 
       43.1725149531856
      ], 
      [
       -6.033266090426817, 
       43.17183360664658
      ], 
      [
       -6.019114103099629, 
       43.21861326587727
      ], 
      [
       -5.974137901719549, 
       43.235224738438305
      ], 
      [
       -5.977137130401133, 
       43.267199623295646
      ], 
      [
       -5.958702486468392, 
       43.27552951249507
      ], 
      [
       -5.94872893620067, 
       43.256051296777855
      ], 
      [
       -5.960630733193525, 
       43.24567752738622
      ], 
      [
       -5.933800922399728, 
       43.21788170085722
      ], 
      [
       -5.930962144066124, 
       43.20694299011951
      ], 
      [
       -5.894927937996521, 
       43.17063974913606
      ], 
      [
       -5.881523736163776, 
       43.167331875798375
      ], 
      [
       -5.857523555978067, 
       43.198403109343715
      ], 
      [
       -5.815470469051969, 
       43.20187761274142
      ], 
      [
       -5.796330542315127, 
       43.187842292571816
      ], 
      [
       -5.785755353198497, 
       43.1936738395189
      ], 
      [
       -5.770025904383564, 
       43.18138768498738
      ], 
      [
       -5.754004373366501, 
       43.19337169572015
      ], 
      [
       -5.719731736079239, 
       43.18893394996002
      ], 
      [
       -5.630126039522039, 
       43.193245454058655
      ], 
      [
       -5.624149567375752, 
       43.185882549676826
      ], 
      [
       -5.587876861882592, 
       43.174851181957905
      ], 
      [
       -5.580044393381496, 
       43.16735684686313
      ], 
      [
       -5.559755012552531, 
       43.17547523301062
      ], 
      [
       -5.534449904047549, 
       43.164504897526946
      ], 
      [
       -5.505021904625827, 
       43.16437005808524
      ], 
      [
       -5.500315209923169, 
       43.197922763841454
      ], 
      [
       -5.469045315963001, 
       43.24585485232768
      ], 
      [
       -5.464913724213146, 
       43.26983127512138
      ], 
      [
       -5.480128920730238, 
       43.2764531650527
      ], 
      [
       -5.479710095144389, 
       43.29010305585271
      ], 
      [
       -5.455539440277068, 
       43.3234707126412
      ], 
      [
       -5.418312744791686, 
       43.341308519694635
      ], 
      [
       -5.428215006999782, 
       43.38419954498586
      ], 
      [
       -5.381728047195332, 
       43.38587097970921
      ], 
      [
       -5.36474550397748, 
       43.407247303716396
      ], 
      [
       -5.33741693563688, 
       43.42845496701444
      ], 
      [
       -5.317546651594739, 
       43.41537204725229
      ], 
      [
       -5.280168990146881, 
       43.41332366355456
      ], 
      [
       -5.263127369224231, 
       43.43095852947781
      ], 
      [
       -5.228084719926827, 
       43.432493370044355
      ], 
      [
       -5.219617012340325, 
       43.43979808058606
      ], 
      [
       -5.183890793250541, 
       43.44105352600906
      ], 
      [
       -5.163293598269929, 
       43.43068574131618
      ], 
      [
       -5.162283261785245, 
       43.4200083888432
      ], 
      [
       -5.124856194943041, 
       43.43025426866398
      ], 
      [
       -5.08408461134923, 
       43.424792311001674
      ], 
      [
       -5.066214165980358, 
       43.41004436707181
      ], 
      [
       -5.029085881295532, 
       43.409944121224
      ], 
      [
       -5.010389837483198, 
       43.39545412972815
      ], 
      [
       -5.005267593920537, 
       43.37904001039451
      ], 
      [
       -4.982014940823007, 
       43.36588565353207
      ], 
      [
       -4.957173829710348, 
       43.366331629279415
      ], 
      [
       -4.925667350279939, 
       43.353108656718
      ], 
      [
       -4.863902070630291, 
       43.35803100231818
      ], 
      [
       -4.848903187608518, 
       43.365144554904845
      ], 
      [
       -4.819232518546904, 
       43.35515792672245
      ], 
      [
       -4.788371226552785, 
       43.353447845123306
      ], 
      [
       -4.776959548661787, 
       43.36238664024642
      ], 
      [
       -4.709824052088814, 
       43.36539121248415
      ], 
      [
       -4.693582954367923, 
       43.35918607708793
      ], 
      [
       -4.620567935104291, 
       43.34950246469419
      ], 
      [
       -4.597958871142643, 
       43.351171271647694
      ], 
      [
       -4.538089635352652, 
       43.34422177660077
      ], 
      [
       -4.517736858597568, 
       43.310188152140846
      ], 
      [
       -4.520348099910118, 
       43.280890024922236
      ], 
      [
       -4.546407388571003, 
       43.26895226158172
      ], 
      [
       -4.549509944905781, 
       43.284874634139044
      ], 
      [
       -4.597790811321593, 
       43.29913008290918
      ], 
      [
       -4.622537418699475, 
       43.288634002868335
      ], 
      [
       -4.634836568451701, 
       43.27107186253046
      ], 
      [
       -4.6585703568866, 
       43.26476036400601
      ], 
      [
       -4.70351493372833, 
       43.26555835920319
      ], 
      [
       -4.724330722525856, 
       43.25658441036981
      ], 
      [
       -4.720286269024367, 
       43.22975891088497
      ], 
      [
       -4.734703046123039, 
       43.20925471187868
      ], 
      [
       -4.732783459136435, 
       43.19014985407927
      ], 
      [
       -4.744433077825625, 
       43.18439014456305
      ], 
      [
       -4.777233715108298, 
       43.1923131146125
      ], 
      [
       -4.817665608661317, 
       43.179233871107016
      ], 
      [
       -4.839645415066653, 
       43.18105245966811
      ], 
      [
       -4.837823175131693, 
       43.19003193243562
      ], 
      [
       -4.860308038348312, 
       43.205893935738814
      ], 
      [
       -4.858776163539088, 
       43.21867773480609
      ], 
      [
       -4.89219530532859, 
       43.23874911564097
      ], 
      [
       -4.91808355273374, 
       43.22778301417073
      ], 
      [
       -4.940880523892358, 
       43.22521937760907
      ], 
      [
       -4.962531590787441, 
       43.212712315656425
      ], 
      [
       -4.995073134170881, 
       43.18606426601167
      ], 
      [
       -5.074902484216179, 
       43.1811861747949
      ], 
      [
       -5.077063845513849, 
       43.16074356040284
      ], 
      [
       -5.093429361261614, 
       43.14365240819312
      ], 
      [
       -5.089674273721051, 
       43.129800615998924
      ], 
      [
       -5.100344575831043, 
       43.1021243275708
      ], 
      [
       -5.139285923088732, 
       43.10319445001659
      ], 
      [
       -5.146409577120457, 
       43.115396737897015
      ], 
      [
       -5.166524508984155, 
       43.10271775456463
      ], 
      [
       -5.187208651337396, 
       43.10004601923504
      ], 
      [
       -5.218795585847062, 
       43.083932396327626
      ], 
      [
       -5.267106718721089, 
       43.08783825607115
      ], 
      [
       -5.280723478066287, 
       43.07770796123365
      ], 
      [
       -5.310099703165104, 
       43.084438794098
      ], 
      [
       -5.340047148901157, 
       43.084064098887936
      ], 
      [
       -5.343416735880871, 
       43.094466923794705
      ], 
      [
       -5.367734321352947, 
       43.09485747489664
      ], 
      [
       -5.38170203534951, 
       43.087517220065024
      ], 
      [
       -5.389049479938398, 
       43.04961858301548
      ], 
      [
       -5.446773853703152, 
       43.05569164265524
      ], 
      [
       -5.480109393253957, 
       43.04105324079255
      ], 
      [
       -5.492347520780552, 
       43.02163538705687
      ], 
      [
       -5.50459663339459, 
       43.028922301018866
      ], 
      [
       -5.539003828746679, 
       43.01863729767083
      ], 
      [
       -5.568735358387865, 
       43.02301574066579
      ], 
      [
       -5.573194371822554, 
       43.03251389395998
      ], 
      [
       -5.641716788109158, 
       43.0381729451123
      ], 
      [
       -5.670430747681758, 
       43.053227134887706
      ], 
      [
       -5.691936998315303, 
       43.05676571991302
      ], 
      [
       -5.72696261281059, 
       43.04279900669428
      ], 
      [
       -5.734330588280405, 
       43.023516531424605
      ], 
      [
       -5.765097724432166, 
       42.98637341959001
      ], 
      [
       -5.762445083514311, 
       42.97041926644181
      ], 
      [
       -5.805702677215475, 
       42.965287458757224
      ], 
      [
       -5.84890882673299, 
       42.96769496233006
      ], 
      [
       -5.862492668679688, 
       42.98167219218907
      ], 
      [
       -5.887731110460941, 
       42.97931793992217
      ], 
      [
       -5.932264583604465, 
       43.01115729715623
      ], 
      [
       -5.955321417536335, 
       43.01888337275897
      ], 
      [
       -5.968822158149728, 
       43.0415836442579
      ], 
      [
       -5.97271500398731, 
       43.0652347213164
      ], 
      [
       -6.018786864165198, 
       43.05516779197262
      ], 
      [
       -6.050809089678583, 
       43.06830075780982
      ], 
      [
       -6.065849071479451, 
       43.06600763867114
      ], 
      [
       -6.080447921352333, 
       43.07600560161632
      ], 
      [
       -6.090420841593243, 
       43.067209866580136
      ], 
      [
       -6.095471272324855, 
       43.03093194897325
      ], 
      [
       -6.135235839381101, 
       43.02128584120829
      ], 
      [
       -6.146977454996494, 
       43.03348755753304
      ], 
      [
       -6.184657174522216, 
       43.049839482847595
      ], 
      [
       -6.212460937805249, 
       43.046954716508715
      ], 
      [
       -6.225372993369143, 
       43.009207575897236
      ], 
      [
       -6.263247260366241, 
       43.017091572381375
      ], 
      [
       -6.283752173394265, 
       43.036663788818714
      ], 
      [
       -6.293727750101413, 
       43.02720203737228
      ], 
      [
       -6.325052430486785, 
       43.031625435819834
      ], 
      [
       -6.331715366677512, 
       43.04678271341804
      ], 
      [
       -6.357645381775444, 
       43.05987164171779
      ]
     ]
    ]
   }, 
   "type": "Feature", 
   "properties": {
    "Nivel_PR": 2, 
    "N_avisos": 1, 
    "Valor_PRP2": "80 mm", 
    "Resum_PRP2": "Aviso de lluvias de nivel naranja. Cordillera y Picos de Europa", 
    "COD_Z": "633305", 
    "Ordn_avisos": [
     "2PR-2NA-02PRP2-1791363600-633305"
    ], 
    "Identf_PRP2": "2.49.0.0.724.0.ES.20261007092907.633305PRP208011791365347", 
    "Fen_avisos": [
     "PR "
    ], 
    "Des_PRP2": "Precipitación acumulada en 12 horas: 80 mm. Podrán acumularse entre 60 y 80 litros en la cara norte de la cordillera y más de 80 litros en Picos de Europa.", 
    "Av_mayor": 2, 
    "Sev_PRP2": "Naranja", 
    "Code_PRP2": "2PR-2NA-02PRP2-1791363600-633305", 
    "PRP2": "Lluvias", 
    "Cer_PRP2": "Likely", 
    "Nombre_zona": "Cordillera y Picos de Europa", 
    "Nivel_PRP2": 2, 
    "Onset_PRP2": "2026-10-07T11:00:00+02:00", 
    "Prb_PRP2": "40%-70%", 
    "Expire_PRP2": "2026-10-08T02:59:59+02:00"
   }
  }, 
  {
   "geometry": {
    "type": "MultiPolygon", 
    "coordinates": [
     [
      [
       [
        -4.546407388571003, 
        43.26895226158172
       ], 
       [
        -4.520348099910118, 
        43.280890024922236
       ], 
       [
        -4.494667636404657, 
        43.28002198621946
       ], 
       [
        -4.454916286838363, 
        43.294247951283864
       ], 
       [
        -4.409857960152767, 
        43.3010521960003
       ], 
       [
        -4.39050981008569, 
        43.2932663765276
       ], 
       [
        -4.389767588494601, 
        43.27799530178461
       ], 
       [
        -4.36362816931369, 
        43.27299747824977
       ], 
       [
        -4.322386783797595, 
        43.272563337730055
       ], 
       [
        -4.238302093366506, 
        43.27769160863036
       ], 
       [
        -4.227418444737014, 
        43.29353929728249
       ], 
       [
        -4.21178381955006, 
        43.301404616426154
       ], 
       [
        -4.191194872943232, 
        43.32222249240162
       ], 
       [
        -4.145127856245848, 
        43.32462894358201
       ], 
       [
        -4.136902970199732, 
        43.33197737054549
       ], 
       [
        -4.112162536698074, 
        43.324711163944556
       ], 
       [
        -4.127404104734867, 
        43.303239993791564
       ], 
       [
        -4.106787658513256, 
        43.29223110801052
       ], 
       [
        -4.072811016340055, 
        43.30040654747984
       ], 
       [
        -4.012156507401353, 
        43.30419192996314
       ], 
       [
        -4.004354289978678, 
        43.33127334365037
       ], 
       [
        -3.950353825258781, 
        43.33210399761086
       ], 
       [
        -3.960227300101364, 
        43.30583726488738
       ], 
       [
        -3.930131440549577, 
        43.29212038628066
       ], 
       [
        -3.92505350422849, 
        43.30436233193424
       ], 
       [
        -3.89657807207975, 
        43.309739525379435
       ], 
       [
        -3.884393669125941, 
        43.3325520489452
       ], 
       [
        -3.853990391948047, 
        43.335358317223125
       ], 
       [
        -3.802737741615549, 
        43.297992760500954
       ], 
       [
        -3.765288636388469, 
        43.29235165731954
       ], 
       [
        -3.738814244007161, 
        43.30995800485627
       ], 
       [
        -3.708587995999626, 
        43.31700150051033
       ], 
       [
        -3.67369693399622, 
        43.302094172791776
       ], 
       [
        -3.647909999193147, 
        43.301396750614266
       ], 
       [
        -3.606959366961493, 
        43.33536936526162
       ], 
       [
        -3.573105872504341, 
        43.344044007831855
       ], 
       [
        -3.554947406974676, 
        43.31175426480535
       ], 
       [
        -3.505416954151217, 
        43.301610914172166
       ], 
       [
        -3.472393856505329, 
        43.303922103559955
       ], 
       [
        -3.472320518901835, 
        43.31515075439833
       ], 
       [
        -3.442951385366804, 
        43.35648971765761
       ], 
       [
        -3.430730036130431, 
        43.354051233297284
       ], 
       [
        -3.387721785114522, 
        43.36285817426843
       ], 
       [
        -3.370542263809886, 
        43.35666619814846
       ], 
       [
        -3.331805802367025, 
        43.38807473125905
       ], 
       [
        -3.297450736607606, 
        43.376382767832595
       ], 
       [
        -3.27868220366341, 
        43.358934863682514
       ], 
       [
        -3.277952050394672, 
        43.33684923867694
       ], 
       [
        -3.241063820458206, 
        43.32337250490077
       ], 
       [
        -3.223918056982644, 
        43.30920758722339
       ], 
       [
        -3.217070061841576, 
        43.28709717083419
       ], 
       [
        -3.26732153249083, 
        43.29533778457266
       ], 
       [
        -3.289809186816649, 
        43.290636786670525
       ], 
       [
        -3.293631094553606, 
        43.301027031020546
       ], 
       [
        -3.322374597201873, 
        43.29272868907453
       ], 
       [
        -3.338812627079597, 
        43.27830125589673
       ], 
       [
        -3.381677807496757, 
        43.270764682318536
       ], 
       [
        -3.390374285017038, 
        43.25290668273054
       ], 
       [
        -3.429055590136575, 
        43.24236806979239
       ], 
       [
        -3.442563471045689, 
        43.22144437997717
       ], 
       [
        -3.431639012663569, 
        43.207024987935505
       ], 
       [
        -3.432137935753219, 
        43.171320339086684
       ], 
       [
        -3.416332159468983, 
        43.13370395447516
       ], 
       [
        -3.443441137781836, 
        43.131810194956195
       ], 
       [
        -3.459029068974234, 
        43.13653014552842
       ], 
       [
        -3.485649771037048, 
        43.133538792024154
       ], 
       [
        -3.507119524250717, 
        43.1368583781893
       ], 
       [
        -3.542387222632537, 
        43.14843855673877
       ], 
       [
        -3.584260432072435, 
        43.154778684253436
       ], 
       [
        -3.602218617402908, 
        43.14991317329758
       ], 
       [
        -3.611123833822654, 
        43.16979293413977
       ], 
       [
        -3.648840873427983, 
        43.181282070236136
       ], 
       [
        -3.703345255638241, 
        43.11655066882174
       ], 
       [
        -3.727787992455379, 
        43.104718878887674
       ], 
       [
        -3.750720403169778, 
        43.10177930003051
       ], 
       [
        -3.766259067596397, 
        43.08057852769603
       ], 
       [
        -3.78894481982221, 
        43.078407333760055
       ], 
       [
        -3.808870767926261, 
        43.086930645874695
       ], 
       [
        -3.821922814391393, 
        43.08085858367953
       ], 
       [
        -3.845622606241079, 
        43.08467493322364
       ], 
       [
        -3.833164954039007, 
        43.05833776739538
       ], 
       [
        -3.860172216838103, 
        43.0436854920656
       ], 
       [
        -3.889709692322452, 
        43.04193787303636
       ], 
       [
        -3.907919468345818, 
        43.01637466559278
       ], 
       [
        -3.944121540718836, 
        43.00605050836201
       ], 
       [
        -3.974802486025633, 
        43.0088548856231
       ], 
       [
        -4.006553393625018, 
        42.989093867697235
       ], 
       [
        -4.041371160629698, 
        42.99676952260054
       ], 
       [
        -4.076067387863612, 
        42.99065853402129
       ], 
       [
        -4.087134949344138, 
        42.99850507646473
       ], 
       [
        -4.079352168677939, 
        43.01783972917525
       ], 
       [
        -4.099340138364741, 
        43.05207414003942
       ], 
       [
        -4.119532536572872, 
        43.062557805131306
       ], 
       [
        -4.119573325499825, 
        43.08234043014898
       ], 
       [
        -4.149229723333657, 
        43.06204728656604
       ], 
       [
        -4.153910561264468, 
        43.02482018879606
       ], 
       [
        -4.165604260924591, 
        42.97861582871681
       ], 
       [
        -4.183793169818201, 
        42.950568557060066
       ], 
       [
        -4.229026867758058, 
        42.95984387216882
       ], 
       [
        -4.237137077469584, 
        42.9546508225694
       ], 
       [
        -4.260872487987278, 
        42.965548620753935
       ], 
       [
        -4.300553450202401, 
        42.966887500442745
       ], 
       [
        -4.345968189236768, 
        42.97243154179437
       ], 
       [
        -4.371714789630954, 
        42.99593409286009
       ], 
       [
        -4.373001639592591, 
        43.00634599767889
       ], 
       [
        -4.40262574173008, 
        43.038412179312765
       ], 
       [
        -4.4305074024362, 
        43.04596397869797
       ], 
       [
        -4.446192662512701, 
        43.05881434360486
       ], 
       [
        -4.461738125881158, 
        43.06033665718144
       ], 
       [
        -4.472125871962225, 
        43.089531043362804
       ], 
       [
        -4.465815019993302, 
        43.113906037985906
       ], 
       [
        -4.48257653887333, 
        43.12345082346677
       ], 
       [
        -4.46299537252006, 
        43.14721336334897
       ], 
       [
        -4.51082966092587, 
        43.1725601126859
       ], 
       [
        -4.523752459395859, 
        43.19601597438421
       ], 
       [
        -4.526311939123588, 
        43.232025875670104
       ], 
       [
        -4.546407388571003, 
        43.26895226158172
       ]
      ]
     ], 
     [
      [
       [
        -3.303284977807107, 
        43.258960549110206
       ], 
       [
        -3.265633472139895, 
        43.267194131907615
       ], 
       [
        -3.248107018297248, 
        43.25993094089397
       ], 
       [
        -3.250813309775705, 
        43.246904690602584
       ], 
       [
        -3.267658441630469, 
        43.23439540945321
       ], 
       [
        -3.263878516859767, 
        43.206040198346756
       ], 
       [
        -3.282390227603329, 
        43.200323187730994
       ], 
       [
        -3.296589222079477, 
        43.20695056416831
       ], 
       [
        -3.291398455603449, 
        43.241378852161816
       ], 
       [
        -3.303284977807107, 
        43.258960549110206
       ]
      ]
     ]
    ]
   }, 
   "type": "Feature", 
   "properties": {
    "Nivel_PR": 2, 
    "N_avisos": 1, 
    "Valor_PRP2": "80 mm", 
    "Resum_PRP2": "Aviso de lluvias de nivel naranja. Centro y valle de Villaverde", 
    "COD_Z": "663903", 
    "Ordn_avisos": [
     "2PR-2NA-02PRP2-1791367200-663903"
    ], 
    "Identf_PRP2": "2.49.0.0.724.0.ES.20261007092938.663903PRP208011791365378", 
    "Fen_avisos": [
     "PR "
    ], 
    "Des_PRP2": "Precipitación acumulada en 12 horas: 80 mm. Podrán acumularse 80 litros en el entorno de los Valles Pasiegos y en la cara norte de zonas altas de montaña.", 
    "Av_mayor": 2, 
    "Sev_PRP2": "Naranja", 
    "Code_PRP2": "2PR-2NA-02PRP2-1791367200-663903", 
    "PRP2": "Lluvias", 
    "Cer_PRP2": "Likely", 
    "Nombre_zona": "Centro y valle de Villaverde", 
    "Nivel_PRP2": 2, 
    "Onset_PRP2": "2026-10-07T12:00:00+02:00", 
    "Prb_PRP2": "40%-70%", 
    "Expire_PRP2": "2026-10-08T02:59:59+02:00"
   }
  }, 
  {
   "geometry": {
    "type": "Polygon", 
    "coordinates": [
     [
      [
       1.038737126365947, 
       41.17557628076687
      ], 
      [
       1.05935583156521, 
       41.17675020249218
      ], 
      [
       1.062071401043808, 
       41.15919431343075
      ], 
      [
       1.087381516800279, 
       41.142206212974436
      ], 
      [
       1.096000752317826, 
       41.118235414861736
      ], 
      [
       1.095385218868641, 
       41.09304436196552
      ], 
      [
       1.118879626911933, 
       41.074187220682866
      ], 
      [
       1.085325325802643, 
       41.0640378702214
      ], 
      [
       1.051941910261324, 
       41.06482230744912
      ], 
      [
       1.004952302634858, 
       41.04337935890015
      ], 
      [
       0.990437975148758, 
       41.04193860065209
      ], 
      [
       0.967606140782954, 
       41.02875257424696
      ], 
      [
       0.918524900410932, 
       40.988381127658705
      ], 
      [
       0.858900814631335, 
       40.93499613543125
      ], 
      [
       0.79348613645024, 
       40.86700104097945
      ], 
      [
       0.753095334987016, 
       40.84645023833075
      ], 
      [
       0.729983447137581, 
       40.81815846646287
      ], 
      [
       0.700839221853448, 
       40.80417624565644
      ], 
      [
       0.710494018587541, 
       40.786251030376086
      ], 
      [
       0.729783638439996, 
       40.77061618128614
      ], 
      [
       0.763681600599112, 
       40.76217464425693
      ], 
      [
       0.782081017832905, 
       40.775008306201144
      ], 
      [
       0.828988020672423, 
       40.7360060222804
      ], 
      [
       0.86478495642443, 
       40.72184354202826
      ], 
      [
       0.875324296484753, 
       40.734358197567765
      ], 
      [
       0.888666556093036, 
       40.719743503355495
      ], 
      [
       0.877673195784174, 
       40.70165304361671
      ], 
      [
       0.842588169845539, 
       40.676136078635075
      ], 
      [
       0.769213167421963, 
       40.648164770243525
      ], 
      [
       0.751199107234354, 
       40.635387967286874
      ], 
      [
       0.709197642852862, 
       40.58522528742295
      ], 
      [
       0.681289412124061, 
       40.56464966877626
      ], 
      [
       0.65104299969501, 
       40.55546132191296
      ], 
      [
       0.610227025990529, 
       40.559447454242296
      ], 
      [
       0.599031340175684, 
       40.574828000920434
      ], 
      [
       0.651336648591862, 
       40.585810479789075
      ], 
      [
       0.673551692204818, 
       40.59370563608575
      ], 
      [
       0.712539913216221, 
       40.592466384077355
      ], 
      [
       0.747136871474016, 
       40.63651965363344
      ], 
      [
       0.736666823011185, 
       40.64082182608277
      ], 
      [
       0.734399554322187, 
       40.640308699524084
      ], 
      [
       0.704798466643601, 
       40.63897728854831
      ], 
      [
       0.664378241553634, 
       40.62686826908806
      ], 
      [
       0.603785309323274, 
       40.62240142057493
      ], 
      [
       0.539429213765425, 
       40.56780107293233
      ], 
      [
       0.516346493521146, 
       40.52326072632791
      ], 
      [
       0.478117781943803, 
       40.53233551426069
      ], 
      [
       0.439158199974304, 
       40.54739954926061
      ], 
      [
       0.432562017548043, 
       40.579792769740884
      ], 
      [
       0.389587254066028, 
       40.607081993107045
      ], 
      [
       0.37226044796744, 
       40.6053742592485
      ], 
      [
       0.330952682932999, 
       40.61138360633901
      ], 
      [
       0.360261677063316, 
       40.646972509577786
      ], 
      [
       0.353640393646419, 
       40.66042223228062
      ], 
      [
       0.401583610641141, 
       40.70758772012224
      ], 
      [
       0.428623339143825, 
       40.721826800996595
      ], 
      [
       0.444561928887034, 
       40.737760503785545
      ], 
      [
       0.507608511994626, 
       40.73864225218529
      ], 
      [
       0.562661215853815, 
       40.75210161437601
      ], 
      [
       0.574131629114579, 
       40.7332217351771
      ], 
      [
       0.588794221553614, 
       40.75204739305177
      ], 
      [
       0.612071810341577, 
       40.76267640273962
      ], 
      [
       0.607859951878198, 
       40.80758433944303
      ], 
      [
       0.643650944295066, 
       40.82182161499185
      ], 
      [
       0.63552649108679, 
       40.839089743712734
      ], 
      [
       0.66542359802591, 
       40.869031238177605
      ], 
      [
       0.643255394190092, 
       40.89589547054338
      ], 
      [
       0.62377602916124, 
       40.8897378538744
      ], 
      [
       0.611378127955615, 
       40.9109299977458
      ], 
      [
       0.614457939984042, 
       40.93105072305937
      ], 
      [
       0.678911232555844, 
       40.94558857341081
      ], 
      [
       0.740792735229486, 
       40.939353266947386
      ], 
      [
       0.753930664885546, 
       40.932504917310006
      ], 
      [
       0.790509854886584, 
       40.93905104307602
      ], 
      [
       0.804526599880641, 
       40.95337527418435
      ], 
      [
       0.782572498489701, 
       40.99215467901105
      ], 
      [
       0.782117958007393, 
       41.02926193354657
      ], 
      [
       0.8196702522614, 
       41.06251122460354
      ], 
      [
       0.845879655396381, 
       41.032101637821945
      ], 
      [
       0.872228144318224, 
       41.02676059062651
      ], 
      [
       0.90674272146626, 
       41.02587322452704
      ], 
      [
       0.923017286895762, 
       41.05540509592479
      ], 
      [
       0.914248124712453, 
       41.082619489990925
      ], 
      [
       0.897773609296218, 
       41.10367405333101
      ], 
      [
       0.915437753383607, 
       41.126036666618354
      ], 
      [
       0.942484729497971, 
       41.126067310961204
      ], 
      [
       0.953458908142733, 
       41.1142815113501
      ], 
      [
       0.991013677136447, 
       41.12097185523155
      ], 
      [
       1.022649518086366, 
       41.14096784523377
      ], 
      [
       1.038737126365947, 
       41.17557628076687
      ]
     ]
    ]
   }, 
   "type": "Feature", 
   "properties": {
    "Cer_VIRM": "Likely", 
    "N_avisos": 1, 
    "Code_VIRM": "2PR-3AM-06VIRM-1791410400-694304", 
    "COD_Z": "694304", 
    "Identf_VIRM": "2.49.0.0.724.0.ES.20261007092432.694304VIRM08221791365072", 
    "Fen_avisos": [
     "VIRM "
    ], 
    "Av_mayor": 3, 
    "Des_VIRM": "Rachas máximas: 80 km/h. Viento del noroeste.", 
    "Nivel_VIRM": 3, 
    "VIRM": "Vientos", 
    "Valor_VIRM": "80 km/h", 
    "Resum_VIRM": "Aviso de vientos de nivel amarillo. Litoral sur de Tarragona", 
    "Nombre_zona": "Litoral sur de Tarragona", 
    "Prb_VIRM": "40%-70%", 
    "Ordn_avisos": [
     "2PR-3AM-06VIRM-1791410400-694304"
    ], 
    "Sev_VIRM": "Amarillo", 
    "Onset_VIRM": "2026-10-08T00:00:00+02:00", 
    "Expire_VIRM": "2026-10-08T23:59:59+02:00"
   }
  }, 
  {
   "geometry": {
    "type": "Polygon", 
    "coordinates": [
     [
      [
       -1.94625242503434, 
       43.0978050722523
      ], 
      [
       -1.915068749800072, 
       43.12828203860279
      ], 
      [
       -1.919644301884343, 
       43.17283434203578
      ], 
      [
       -1.920772861514404, 
       43.18699091844124
      ], 
      [
       -1.901679260753536, 
       43.211436157849526
      ], 
      [
       -1.872593589378894, 
       43.220580739100285
      ], 
      [
       -1.86195414085955, 
       43.21603624246199
      ], 
      [
       -1.82427436552819, 
       43.228576363468356
      ], 
      [
       -1.817990515524118, 
       43.23896559909794
      ], 
      [
       -1.793701029536624, 
       43.24720305520361
      ], 
      [
       -1.792637121349828, 
       43.27673479889527
      ], 
      [
       -1.78196775047133, 
       43.287093584329085
      ], 
      [
       -1.727627030886819, 
       43.2964065615173
      ], 
      [
       -1.693414472250448, 
       43.31212027265056
      ], 
      [
       -1.666740521484611, 
       43.31506290762657
      ], 
      [
       -1.624487286550743, 
       43.307143072114975
      ], 
      [
       -1.628950626147863, 
       43.285199480861266
      ], 
      [
       -1.615946978896202, 
       43.258039240154986
      ], 
      [
       -1.573503509675963, 
       43.250737556077574
      ], 
      [
       -1.550140365706777, 
       43.29258337338224
      ], 
      [
       -1.502695604724014, 
       43.29255729465762
      ], 
      [
       -1.490085238045345, 
       43.28160451891673
      ], 
      [
       -1.437071057167704, 
       43.266944839165895
      ], 
      [
       -1.412394270868041, 
       43.27393431370189
      ], 
      [
       -1.38306537901006, 
       43.2539393519122
      ], 
      [
       -1.381313788184748, 
       43.18935433765126
      ], 
      [
       -1.400627619601008, 
       43.17875787342684
      ], 
      [
       -1.413173825663762, 
       43.148011812729294
      ], 
      [
       -1.413723893959201, 
       43.129119317516235
      ], 
      [
       -1.426079806046552, 
       43.11710706917422
      ], 
      [
       -1.470092496172601, 
       43.09205056738122
      ], 
      [
       -1.470985589543143, 
       43.08183346424901
      ], 
      [
       -1.445846732257124, 
       43.053364798474874
      ], 
      [
       -1.469073855562835, 
       43.034768493267336
      ], 
      [
       -1.490905141117286, 
       43.037507737673586
      ], 
      [
       -1.493150214480658, 
       43.056617869520636
      ], 
      [
       -1.516990043930955, 
       43.064529144464466
      ], 
      [
       -1.530115665220739, 
       43.04407820897586
      ], 
      [
       -1.553863013695997, 
       43.04024773260749
      ], 
      [
       -1.569741268882001, 
       43.04371595519614
      ], 
      [
       -1.630218892681469, 
       43.04029582939892
      ], 
      [
       -1.645109939427149, 
       43.053115503854855
      ], 
      [
       -1.669272730505788, 
       43.058864822882846
      ], 
      [
       -1.712003578902246, 
       43.05254636653173
      ], 
      [
       -1.771895262685297, 
       43.062542579395256
      ], 
      [
       -1.796977381634449, 
       43.05662290130781
      ], 
      [
       -1.827024459747527, 
       43.06438163689446
      ], 
      [
       -1.864915163276091, 
       43.08080090318307
      ], 
      [
       -1.875661963507623, 
       43.05604539809536
      ], 
      [
       -1.906202806216595, 
       43.05108272415037
      ], 
      [
       -1.928480879113052, 
       43.059244564855426
      ], 
      [
       -1.933969421236611, 
       43.08903792687802
      ], 
      [
       -1.94625242503434, 
       43.0978050722523
      ]
     ]
    ]
   }, 
   "type": "Feature", 
   "properties": {
    "Nivel_PR": 3, 
    "N_avisos": 1, 
    "Valor_PRP2": "40 mm", 
    "Resum_PRP2": "Aviso de lluvias de nivel amarillo. Vertiente cantábrica de Navarra", 
    "COD_Z": "743101", 
    "Ordn_avisos": [
     "2PR-3AM-02PRP2-1791367200-743101"
    ], 
    "Identf_PRP2": "2.49.0.0.724.0.ES.20261007092938.743101PRP208041791365378", 
    "Fen_avisos": [
     "PR "
    ], 
    "Des_PRP2": "Precipitación acumulada en 12 horas: 40 mm.", 
    "Av_mayor": 3, 
    "Sev_PRP2": "Amarillo", 
    "Code_PRP2": "2PR-3AM-02PRP2-1791367200-743101", 
    "PRP2": "Lluvias", 
    "Cer_PRP2": "Likely", 
    "Nombre_zona": "Vertiente cantábrica de Navarra", 
    "Nivel_PRP2": 3, 
    "Onset_PRP2": "2026-10-07T12:00:00+02:00", 
    "Prb_PRP2": "40%-70%", 
    "Expire_PRP2": "2026-10-08T05:59:59+02:00"
   }
  }, 
  {
   "geometry": {
    "type": "Polygon", 
    "coordinates": [
     [
      [
       0.273119697614674, 
       40.819073067057424
      ], 
      [
       0.292797129308366, 
       40.816648288030244
      ], 
      [
       0.311664122662907, 
       40.84035185057087
      ], 
      [
       0.335271135359515, 
       40.85399046024382
      ], 
      [
       0.371026519040612, 
       40.89126994622054
      ], 
      [
       0.364305957520632, 
       40.908748653107295
      ], 
      [
       0.367688661599778, 
       40.933505906937604
      ], 
      [
       0.395033614141542, 
       40.95567683548514
      ], 
      [
       0.439810137482894, 
       40.96239017077737
      ], 
      [
       0.456028870325229, 
       40.97880818934775
      ], 
      [
       0.442825477965951, 
       40.990424791905376
      ], 
      [
       0.450257101130787, 
       41.01507591805474
      ], 
      [
       0.466482927351654, 
       41.03380643718674
      ], 
      [
       0.504199284445324, 
       41.059852154259836
      ], 
      [
       0.561355911119162, 
       41.122819617862504
      ], 
      [
       0.614044672967941, 
       41.14325764951662
      ], 
      [
       0.620390704260102, 
       41.15098275613178
      ], 
      [
       0.607252125242514, 
       41.17186449479281
      ], 
      [
       0.619013796710811, 
       41.17833003266481
      ], 
      [
       0.648431258268394, 
       41.179642986427844
      ], 
      [
       0.707114478509546, 
       41.21645251492546
      ], 
      [
       0.686736669585716, 
       41.22499610955466
      ], 
      [
       0.6860834954779, 
       41.24582784916883
      ], 
      [
       0.703025360818867, 
       41.26607617306588
      ], 
      [
       0.704317798710959, 
       41.284269755632366
      ], 
      [
       0.71506684620113, 
       41.30326566287266
      ], 
      [
       0.752713814638367, 
       41.3181526297994
      ], 
      [
       0.762890950299786, 
       41.33433492719422
      ], 
      [
       0.821353172018562, 
       41.32992059620007
      ], 
      [
       0.833316787175867, 
       41.359102989042434
      ], 
      [
       0.847855378735892, 
       41.35514123063767
      ], 
      [
       0.864479628946109, 
       41.338401789829675
      ], 
      [
       0.912953503576461, 
       41.350187486116084
      ], 
      [
       0.940549713043808, 
       41.34965865314498
      ], 
      [
       0.968008304355492, 
       41.3598434233345
      ], 
      [
       0.992563261606351, 
       41.35819138425747
      ], 
      [
       1.006135214029309, 
       41.34663434394307
      ], 
      [
       1.002935996889978, 
       41.33032147869518
      ], 
      [
       1.107308281865873, 
       41.31513042135455
      ], 
      [
       1.127685715061733, 
       41.30571996211408
      ], 
      [
       1.185280695882641, 
       41.32066384564316
      ], 
      [
       1.195191224263555, 
       41.30574241480687
      ], 
      [
       1.174867132356657, 
       41.29004067266181
      ], 
      [
       1.155886052317511, 
       41.30319978055321
      ], 
      [
       1.135523114413748, 
       41.293705401364804
      ], 
      [
       1.141882915568337, 
       41.25689133269328
      ], 
      [
       1.138979172354694, 
       41.23870787978552
      ], 
      [
       1.112524259261682, 
       41.2402877478446
      ], 
      [
       1.096900150610907, 
       41.22966205336161
      ], 
      [
       1.073539110842268, 
       41.229357681193235
      ], 
      [
       1.06054707806301, 
       41.23835367643917
      ], 
      [
       1.035781699526801, 
       41.22208100668368
      ], 
      [
       1.01047271235764, 
       41.23394337380199
      ], 
      [
       1.019243937587351, 
       41.19958142147972
      ], 
      [
       1.038737126365947, 
       41.17557628076687
      ], 
      [
       1.022649518086366, 
       41.14096784523377
      ], 
      [
       0.991013677136447, 
       41.12097185523155
      ], 
      [
       0.953458908142733, 
       41.1142815113501
      ], 
      [
       0.942484729497971, 
       41.126067310961204
      ], 
      [
       0.915437753383607, 
       41.126036666618354
      ], 
      [
       0.897773609296218, 
       41.10367405333101
      ], 
      [
       0.914248124712453, 
       41.082619489990925
      ], 
      [
       0.923017286895762, 
       41.05540509592479
      ], 
      [
       0.90674272146626, 
       41.02587322452704
      ], 
      [
       0.872228144318224, 
       41.02676059062651
      ], 
      [
       0.845879655396381, 
       41.032101637821945
      ], 
      [
       0.8196702522614, 
       41.06251122460354
      ], 
      [
       0.782117958007393, 
       41.02926193354657
      ], 
      [
       0.782572498489701, 
       40.99215467901105
      ], 
      [
       0.804526599880641, 
       40.95337527418435
      ], 
      [
       0.790509854886584, 
       40.93905104307602
      ], 
      [
       0.753930664885546, 
       40.932504917310006
      ], 
      [
       0.740792735229486, 
       40.939353266947386
      ], 
      [
       0.678911232555844, 
       40.94558857341081
      ], 
      [
       0.614457939984042, 
       40.93105072305937
      ], 
      [
       0.611378127955615, 
       40.9109299977458
      ], 
      [
       0.62377602916124, 
       40.8897378538744
      ], 
      [
       0.643255394190092, 
       40.89589547054338
      ], 
      [
       0.66542359802591, 
       40.869031238177605
      ], 
      [
       0.63552649108679, 
       40.839089743712734
      ], 
      [
       0.643650944295066, 
       40.82182161499185
      ], 
      [
       0.607859951878198, 
       40.80758433944303
      ], 
      [
       0.612071810341577, 
       40.76267640273962
      ], 
      [
       0.588794221553614, 
       40.75204739305177
      ], 
      [
       0.574131629114579, 
       40.7332217351771
      ], 
      [
       0.562661215853815, 
       40.75210161437601
      ], 
      [
       0.507608511994626, 
       40.73864225218529
      ], 
      [
       0.444561928887034, 
       40.737760503785545
      ], 
      [
       0.428623339143825, 
       40.721826800996595
      ], 
      [
       0.401583610641141, 
       40.70758772012224
      ], 
      [
       0.353640393646419, 
       40.66042223228062
      ], 
      [
       0.360261677063316, 
       40.646972509577786
      ], 
      [
       0.330952682932999, 
       40.61138360633901
      ], 
      [
       0.280026995897029, 
       40.63039590075412
      ], 
      [
       0.269457349899028, 
       40.65989420944097
      ], 
      [
       0.293036168014248, 
       40.6888898312484
      ], 
      [
       0.263627836215826, 
       40.70618915961671
      ], 
      [
       0.237720727541634, 
       40.702020066251826
      ], 
      [
       0.217312198064584, 
       40.73258203949896
      ], 
      [
       0.198490955135039, 
       40.724504691168896
      ], 
      [
       0.171923965146309, 
       40.73317308769824
      ], 
      [
       0.176421823266409, 
       40.755276744753445
      ], 
      [
       0.191325030163162, 
       40.75065927177444
      ], 
      [
       0.213186578291875, 
       40.76785734713471
      ], 
      [
       0.224640947831619, 
       40.7658893893316
      ], 
      [
       0.234767218912957, 
       40.78732855471082
      ], 
      [
       0.258959225904065, 
       40.80056156525873
      ], 
      [
       0.273119697614674, 
       40.819073067057424
      ]
     ]
    ]
   }, 
   "type": "Feature", 
   "properties": {
    "Cer_VIRM": "Likely", 
    "N_avisos": 1, 
    "Code_VIRM": "2PR-3AM-06VIRM-1791410400-694305", 
    "COD_Z": "694305", 
    "Identf_VIRM": "2.49.0.0.724.0.ES.20261007092432.694305VIRM08041791365072", 
    "Fen_avisos": [
     "VIRM "
    ], 
    "Av_mayor": 3, 
    "Des_VIRM": "Rachas máximas: 80 km/h. Viento del noroeste.", 
    "Nivel_VIRM": 3, 
    "VIRM": "Vientos", 
    "Valor_VIRM": "80 km/h", 
    "Resum_VIRM": "Aviso de vientos de nivel amarillo. Prelitoral sur de Tarragona", 
    "Nombre_zona": "Prelitoral sur de Tarragona", 
    "Prb_VIRM": "40%-70%", 
    "Ordn_avisos": [
     "2PR-3AM-06VIRM-1791410400-694305"
    ], 
    "Sev_VIRM": "Amarillo", 
    "Onset_VIRM": "2026-10-08T00:00:00+02:00", 
    "Expire_VIRM": "2026-10-08T05:59:59+02:00"
   }
  }
 ]
}
