{
 "crs": {
  "type": "name", 
  "properties": {
   "name": "urn:ogc:def:crs:EPSG::4326"
  }
 }, 
 "type": "FeatureCollection", 
 "name": "Avisos", 
 "features": [
  {
   "geometry": {
    "type": "Polygon", 
    "coordinates": [
     [
      [
       1.038737126365947, 
       41.17557628076687
      ], 
      [
       1.05935583156521, 
       41.17675020249218
      ], 
      [
       1.062071401043808, 
       41.15919431343075
      ], 
      [
       1.087381516800279, 
       41.142206212974436
      ], 
      [
       1.096000752317826, 
       41.118235414861736
      ], 
      [
       1.095385218868641, 
       41.09304436196552
      ], 
      [
       1.118879626911933, 
       41.074187220682866
      ], 
      [
       1.085325325802643, 
       41.0640378702214
      ], 
      [
       1.051941910261324, 
       41.06482230744912
      ], 
      [
       1.004952302634858, 
       41.04337935890015
      ], 
      [
       0.990437975148758, 
       41.04193860065209
      ], 
      [
       0.967606140782954, 
       41.02875257424696
      ], 
      [
       0.918524900410932, 
       40.988381127658705
      ], 
      [
       0.858900814631335, 
       40.93499613543125
      ], 
      [
       0.79348613645024, 
       40.86700104097945
      ], 
      [
       0.753095334987016, 
       40.84645023833075
      ], 
      [
       0.729983447137581, 
       40.81815846646287
      ], 
      [
       0.700839221853448, 
       40.80417624565644
      ], 
      [
       0.710494018587541, 
       40.786251030376086
      ], 
      [
       0.729783638439996, 
       40.77061618128614
      ], 
      [
       0.763681600599112, 
       40.76217464425693
      ], 
      [
       0.782081017832905, 
       40.775008306201144
      ], 
      [
       0.828988020672423, 
       40.7360060222804
      ], 
      [
       0.86478495642443, 
       40.72184354202826
      ], 
      [
       0.875324296484753, 
       40.734358197567765
      ], 
      [
       0.888666556093036, 
       40.719743503355495
      ], 
      [
       0.877673195784174, 
       40.70165304361671
      ], 
      [
       0.842588169845539, 
       40.676136078635075
      ], 
      [
       0.769213167421963, 
       40.648164770243525
      ], 
      [
       0.751199107234354, 
       40.635387967286874
      ], 
      [
       0.709197642852862, 
       40.58522528742295
      ], 
      [
       0.681289412124061, 
       40.56464966877626
      ], 
      [
       0.65104299969501, 
       40.55546132191296
      ], 
      [
       0.610227025990529, 
       40.559447454242296
      ], 
      [
       0.599031340175684, 
       40.574828000920434
      ], 
      [
       0.651336648591862, 
       40.585810479789075
      ], 
      [
       0.673551692204818, 
       40.59370563608575
      ], 
      [
       0.712539913216221, 
       40.592466384077355
      ], 
      [
       0.747136871474016, 
       40.63651965363344
      ], 
      [
       0.736666823011185, 
       40.64082182608277
      ], 
      [
       0.734399554322187, 
       40.640308699524084
      ], 
      [
       0.704798466643601, 
       40.63897728854831
      ], 
      [
       0.664378241553634, 
       40.62686826908806
      ], 
      [
       0.603785309323274, 
       40.62240142057493
      ], 
      [
       0.539429213765425, 
       40.56780107293233
      ], 
      [
       0.516346493521146, 
       40.52326072632791
      ], 
      [
       0.478117781943803, 
       40.53233551426069
      ], 
      [
       0.439158199974304, 
       40.54739954926061
      ], 
      [
       0.432562017548043, 
       40.579792769740884
      ], 
      [
       0.389587254066028, 
       40.607081993107045
      ], 
      [
       0.37226044796744, 
       40.6053742592485
      ], 
      [
       0.330952682932999, 
       40.61138360633901
      ], 
      [
       0.360261677063316, 
       40.646972509577786
      ], 
      [
       0.353640393646419, 
       40.66042223228062
      ], 
      [
       0.401583610641141, 
       40.70758772012224
      ], 
      [
       0.428623339143825, 
       40.721826800996595
      ], 
      [
       0.444561928887034, 
       40.737760503785545
      ], 
      [
       0.507608511994626, 
       40.73864225218529
      ], 
      [
       0.562661215853815, 
       40.75210161437601
      ], 
      [
       0.574131629114579, 
       40.7332217351771
      ], 
      [
       0.588794221553614, 
       40.75204739305177
      ], 
      [
       0.612071810341577, 
       40.76267640273962
      ], 
      [
       0.607859951878198, 
       40.80758433944303
      ], 
      [
       0.643650944295066, 
       40.82182161499185
      ], 
      [
       0.63552649108679, 
       40.839089743712734
      ], 
      [
       0.66542359802591, 
       40.869031238177605
      ], 
      [
       0.643255394190092, 
       40.89589547054338
      ], 
      [
       0.62377602916124, 
       40.8897378538744
      ], 
      [
       0.611378127955615, 
       40.9109299977458
      ], 
      [
       0.614457939984042, 
       40.93105072305937
      ], 
      [
       0.678911232555844, 
       40.94558857341081
      ], 
      [
       0.740792735229486, 
       40.939353266947386
      ], 
      [
       0.753930664885546, 
       40.932504917310006
      ], 
      [
       0.790509854886584, 
       40.93905104307602
      ], 
      [
       0.804526599880641, 
       40.95337527418435
      ], 
      [
       0.782572498489701, 
       40.99215467901105
      ], 
      [
       0.782117958007393, 
       41.02926193354657
      ], 
      [
       0.8196702522614, 
       41.06251122460354
      ], 
      [
       0.845879655396381, 
       41.032101637821945
      ], 
      [
       0.872228144318224, 
       41.02676059062651
      ], 
      [
       0.90674272146626, 
       41.02587322452704
      ], 
      [
       0.923017286895762, 
       41.05540509592479
      ], 
      [
       0.914248124712453, 
       41.082619489990925
      ], 
      [
       0.897773609296218, 
       41.10367405333101
      ], 
      [
       0.915437753383607, 
       41.126036666618354
      ], 
      [
       0.942484729497971, 
       41.126067310961204
      ], 
      [
       0.953458908142733, 
       41.1142815113501
      ], 
      [
       0.991013677136447, 
       41.12097185523155
      ], 
      [
       1.022649518086366, 
       41.14096784523377
      ], 
      [
       1.038737126365947, 
       41.17557628076687
      ]
     ]
    ]
   }, 
   "type": "Feature", 
   "properties": {
    "Cer_VIRM": "Likely", 
    "N_avisos": 1, 
    "Code_VIRM": "2PR-3AM-06VIRM-1791410400-694304", 
    "COD_Z": "694304", 
    "Identf_VIRM": "2.49.0.0.724.0.ES.20261007092432.694304VIRM08221791365072", 
    "Fen_avisos": [
     "VIRM "
    ], 
    "Av_mayor": 3, 
    "Des_VIRM": "Rachas máximas: 80 km/h. Viento del noroeste.", 
    "Nivel_VIRM": 3, 
    "VIRM": "Vientos", 
    "Valor_VIRM": "80 km/h", 
    "Resum_VIRM": "Aviso de vientos de nivel amarillo. Litoral sur de Tarragona", 
    "Nombre_zona": "Litoral sur de Tarragona", 
    "Prb_VIRM": "40%-70%", 
    "Ordn_avisos": [
     "2PR-3AM-06VIRM-1791410400-694304"
    ], 
    "Sev_VIRM": "Amarillo", 
    "Onset_VIRM": "2026-10-08T00:00:00+02:00", 
    "Expire_VIRM": "2026-10-08T23:59:59+02:00"
   }
  }, 
  {
   "geometry": {
    "type": "Polygon", 
    "coordinates": [
     [
      [
       0.273119697614674, 
       40.819073067057424
      ], 
      [
       0.292797129308366, 
       40.816648288030244
      ], 
      [
       0.311664122662907, 
       40.84035185057087
      ], 
      [
       0.335271135359515, 
       40.85399046024382
      ], 
      [
       0.371026519040612, 
       40.89126994622054
      ], 
      [
       0.364305957520632, 
       40.908748653107295
      ], 
      [
       0.367688661599778, 
       40.933505906937604
      ], 
      [
       0.395033614141542, 
       40.95567683548514
      ], 
      [
       0.439810137482894, 
       40.96239017077737
      ], 
      [
       0.456028870325229, 
       40.97880818934775
      ], 
      [
       0.442825477965951, 
       40.990424791905376
      ], 
      [
       0.450257101130787, 
       41.01507591805474
      ], 
      [
       0.466482927351654, 
       41.03380643718674
      ], 
      [
       0.504199284445324, 
       41.059852154259836
      ], 
      [
       0.561355911119162, 
       41.122819617862504
      ], 
      [
       0.614044672967941, 
       41.14325764951662
      ], 
      [
       0.620390704260102, 
       41.15098275613178
      ], 
      [
       0.607252125242514, 
       41.17186449479281
      ], 
      [
       0.619013796710811, 
       41.17833003266481
      ], 
      [
       0.648431258268394, 
       41.179642986427844
      ], 
      [
       0.707114478509546, 
       41.21645251492546
      ], 
      [
       0.686736669585716, 
       41.22499610955466
      ], 
      [
       0.6860834954779, 
       41.24582784916883
      ], 
      [
       0.703025360818867, 
       41.26607617306588
      ], 
      [
       0.704317798710959, 
       41.284269755632366
      ], 
      [
       0.71506684620113, 
       41.30326566287266
      ], 
      [
       0.752713814638367, 
       41.3181526297994
      ], 
      [
       0.762890950299786, 
       41.33433492719422
      ], 
      [
       0.821353172018562, 
       41.32992059620007
      ], 
      [
       0.833316787175867, 
       41.359102989042434
      ], 
      [
       0.847855378735892, 
       41.35514123063767
      ], 
      [
       0.864479628946109, 
       41.338401789829675
      ], 
      [
       0.912953503576461, 
       41.350187486116084
      ], 
      [
       0.940549713043808, 
       41.34965865314498
      ], 
      [
       0.968008304355492, 
       41.3598434233345
      ], 
      [
       0.992563261606351, 
       41.35819138425747
      ], 
      [
       1.006135214029309, 
       41.34663434394307
      ], 
      [
       1.002935996889978, 
       41.33032147869518
      ], 
      [
       1.107308281865873, 
       41.31513042135455
      ], 
      [
       1.127685715061733, 
       41.30571996211408
      ], 
      [
       1.185280695882641, 
       41.32066384564316
      ], 
      [
       1.195191224263555, 
       41.30574241480687
      ], 
      [
       1.174867132356657, 
       41.29004067266181
      ], 
      [
       1.155886052317511, 
       41.30319978055321
      ], 
      [
       1.135523114413748, 
       41.293705401364804
      ], 
      [
       1.141882915568337, 
       41.25689133269328
      ], 
      [
       1.138979172354694, 
       41.23870787978552
      ], 
      [
       1.112524259261682, 
       41.2402877478446
      ], 
      [
       1.096900150610907, 
       41.22966205336161
      ], 
      [
       1.073539110842268, 
       41.229357681193235
      ], 
      [
       1.06054707806301, 
       41.23835367643917
      ], 
      [
       1.035781699526801, 
       41.22208100668368
      ], 
      [
       1.01047271235764, 
       41.23394337380199
      ], 
      [
       1.019243937587351, 
       41.19958142147972
      ], 
      [
       1.038737126365947, 
       41.17557628076687
      ], 
      [
       1.022649518086366, 
       41.14096784523377
      ], 
      [
       0.991013677136447, 
       41.12097185523155
      ], 
      [
       0.953458908142733, 
       41.1142815113501
      ], 
      [
       0.942484729497971, 
       41.126067310961204
      ], 
      [
       0.915437753383607, 
       41.126036666618354
      ], 
      [
       0.897773609296218, 
       41.10367405333101
      ], 
      [
       0.914248124712453, 
       41.082619489990925
      ], 
      [
       0.923017286895762, 
       41.05540509592479
      ], 
      [
       0.90674272146626, 
       41.02587322452704
      ], 
      [
       0.872228144318224, 
       41.02676059062651
      ], 
      [
       0.845879655396381, 
       41.032101637821945
      ], 
      [
       0.8196702522614, 
       41.06251122460354
      ], 
      [
       0.782117958007393, 
       41.02926193354657
      ], 
      [
       0.782572498489701, 
       40.99215467901105
      ], 
      [
       0.804526599880641, 
       40.95337527418435
      ], 
      [
       0.790509854886584, 
       40.93905104307602
      ], 
      [
       0.753930664885546, 
       40.932504917310006
      ], 
      [
       0.740792735229486, 
       40.939353266947386
      ], 
      [
       0.678911232555844, 
       40.94558857341081
      ], 
      [
       0.614457939984042, 
       40.93105072305937
      ], 
      [
       0.611378127955615, 
       40.9109299977458
      ], 
      [
       0.62377602916124, 
       40.8897378538744
      ], 
      [
       0.643255394190092, 
       40.89589547054338
      ], 
      [
       0.66542359802591, 
       40.869031238177605
      ], 
      [
       0.63552649108679, 
       40.839089743712734
      ], 
      [
       0.643650944295066, 
       40.82182161499185
      ], 
      [
       0.607859951878198, 
       40.80758433944303
      ], 
      [
       0.612071810341577, 
       40.76267640273962
      ], 
      [
       0.588794221553614, 
       40.75204739305177
      ], 
      [
       0.574131629114579, 
       40.7332217351771
      ], 
      [
       0.562661215853815, 
       40.75210161437601
      ], 
      [
       0.507608511994626, 
       40.73864225218529
      ], 
      [
       0.444561928887034, 
       40.737760503785545
      ], 
      [
       0.428623339143825, 
       40.721826800996595
      ], 
      [
       0.401583610641141, 
       40.70758772012224
      ], 
      [
       0.353640393646419, 
       40.66042223228062
      ], 
      [
       0.360261677063316, 
       40.646972509577786
      ], 
      [
       0.330952682932999, 
       40.61138360633901
      ], 
      [
       0.280026995897029, 
       40.63039590075412
      ], 
      [
       0.269457349899028, 
       40.65989420944097
      ], 
      [
       0.293036168014248, 
       40.6888898312484
      ], 
      [
       0.263627836215826, 
       40.70618915961671
      ], 
      [
       0.237720727541634, 
       40.702020066251826
      ], 
      [
       0.217312198064584, 
       40.73258203949896
      ], 
      [
       0.198490955135039, 
       40.724504691168896
      ], 
      [
       0.171923965146309, 
       40.73317308769824
      ], 
      [
       0.176421823266409, 
       40.755276744753445
      ], 
      [
       0.191325030163162, 
       40.75065927177444
      ], 
      [
       0.213186578291875, 
       40.76785734713471
      ], 
      [
       0.224640947831619, 
       40.7658893893316
      ], 
      [
       0.234767218912957, 
       40.78732855471082
      ], 
      [
       0.258959225904065, 
       40.80056156525873
      ], 
      [
       0.273119697614674, 
       40.819073067057424
      ]
     ]
    ]
   }, 
   "type": "Feature", 
   "properties": {
    "Cer_VIRM": "Likely", 
    "N_avisos": 1, 
    "Code_VIRM": "2PR-2NA-06VIRM-1791432000-694305", 
    "COD_Z": "694305", 
    "Identf_VIRM": "2.49.0.0.724.0.ES.20261007092432.694305VIRM08161791365072", 
    "Fen_avisos": [
     "VIRM "
    ], 
    "Av_mayor": 2, 
    "Des_VIRM": "Rachas máximas: 90 km/h. Viento del noroeste. Principalmente en zonas altas expuestas.", 
    "Nivel_VIRM": 2, 
    "VIRM": "Vientos", 
    "Valor_VIRM": "90 km/h", 
    "Resum_VIRM": "Aviso de vientos de nivel naranja. Prelitoral sur de Tarragona", 
    "Nombre_zona": "Prelitoral sur de Tarragona", 
    "Prb_VIRM": "40%-70%", 
    "Ordn_avisos": [
     "2PR-2NA-06VIRM-1791432000-694305"
    ], 
    "Sev_VIRM": "Naranja", 
    "Onset_VIRM": "2026-10-08T06:00:00+02:00", 
    "Expire_VIRM": "2026-10-08T17:59:59+02:00"
   }
  }
 ]
}
