{
 "crs": {
  "type": "name", 
  "properties": {
   "name": "urn:ogc:def:crs:EPSG::4326"
  }
 }, 
 "type": "FeatureCollection", 
 "name": "Avisos", 
 "features": [
  {
   "geometry": {
    "type": "Polygon", 
    "coordinates": [
     [
      [
       -5.425664289901452, 
       35.96704307971726
      ], 
      [
       -5.173583845426837, 
       35.97187642680007
      ], 
      [
       -5.168138660245498, 
       35.77235495421249
      ], 
      [
       -5.419589027514403, 
       35.76755670902416
      ], 
      [
       -5.425664289901452, 
       35.96704307971726
      ], 
      [
       -5.425664289901452, 
       35.96704307971726
      ]
     ]
    ]
   }, 
   "type": "Feature", 
   "properties": {
    "Valor_PRP1": "15 mm", 
    "Nivel_PR": 3, 
    "Prb_TOTO": "40%-70%", 
    "Sev_TOTO": "Amarillo", 
    "TOTO": "Tormentas", 
    "PRP1": "Lluvias", 
    "N_avisos": 2, 
    "Identf_TOTO": "2.49.0.0.724.0.ES.20261007093555.785101TOTO09161791365755", 
    "Expire_PRP1": "2026-10-09T17:59:59+02:00", 
    "Code_TOTO": "2PR-3AM-07TOTO-1791518400-785101", 
    "Nombre_zona": "Ceuta", 
    "Prb_PRP1": "40%-70%", 
    "Expire_TOTO": "2026-10-09T17:59:59+02:00", 
    "Des_PRP1": "Precipitación acumulada en una hora: 15 mm.", 
    "Code_PRP1": "2PR-3AM-01PRP1-1791518400-785101", 
    "Cer_TOTO": "Likely", 
    "Fen_avisos": [
     "PR ", 
     "TOTO "
    ], 
    "Ordn_avisos": [
     "2PR-3AM-01PRP1-1791518400-785101", 
     "2PR-3AM-07TOTO-1791518400-785101"
    ], 
    "Nivel_TOTO": 3, 
    "Onset_TOTO": "2026-10-09T06:00:00+02:00", 
    "COD_Z": "785101", 
    "Av_mayor": 3, 
    "Resum_PRP1": "Aviso de lluvias de nivel amarillo. Ceuta", 
    "Cer_PRP1": "Likely", 
    "Onset_PRP1": "2026-10-09T06:00:00+02:00", 
    "Nivel_PRP1": 3, 
    "Identf_PRP1": "2.49.0.0.724.0.ES.20261007093555.785101PRP109161791365755", 
    "Sev_PRP1": "Amarillo", 
    "Resum_TOTO": "Aviso de tormentas de nivel amarillo. Ceuta"
   }
  }, 
  {
   "geometry": {
    "type": "Polygon", 
    "coordinates": [
     [
      [
       3.082073313602626, 
       41.824826281063345
      ], 
      [
       3.086272661110857, 
       41.826340213079945
      ], 
      [
       3.098010493212545, 
       41.84268226097762
      ], 
      [
       3.115484183901735, 
       41.84931052805003
      ], 
      [
       3.145971385605563, 
       41.849873166718126
      ], 
      [
       3.146726827758028, 
       41.85886054052435
      ], 
      [
       3.173392019761114, 
       41.86405846918253
      ], 
      [
       3.184616911743912, 
       41.88834866448963
      ], 
      [
       3.204125112443205, 
       41.89200871771296
      ], 
      [
       3.208400738158145, 
       41.917519185222915
      ], 
      [
       3.219793639588294, 
       41.94277762132379
      ], 
      [
       3.234296650738604, 
       41.95016967690259
      ], 
      [
       3.232452484451533, 
       41.96977498771974
      ], 
      [
       3.214721452592452, 
       41.97458337221866
      ], 
      [
       3.200940367059836, 
       41.99544851130084
      ], 
      [
       3.195976705245351, 
       42.028723912725305
      ], 
      [
       3.199115263451745, 
       42.04864381074216
      ], 
      [
       3.214803215230657, 
       42.06160840725341
      ], 
      [
       3.184716194256445, 
       42.104005403167456
      ], 
      [
       3.137866087867716, 
       42.12683701937359
      ], 
      [
       3.125217242702377, 
       42.128325649145005
      ], 
      [
       3.113191568834922, 
       42.172840699222164
      ], 
      [
       3.11264990894991, 
       42.20415745189329
      ], 
      [
       3.118321442145595, 
       42.2228372229003
      ], 
      [
       3.13968817188577, 
       42.25101659368455
      ], 
      [
       3.162752890003275, 
       42.26424846272922
      ], 
      [
       3.18232671129598, 
       42.25761027780726
      ], 
      [
       3.220088513945284, 
       42.23261715663812
      ], 
      [
       3.23213823075297, 
       42.24535385503731
      ], 
      [
       3.282428709105792, 
       42.25415633260183
      ], 
      [
       3.288741539967442, 
       42.265456049069655
      ], 
      [
       3.292031963666492, 
       42.30749774699677
      ], 
      [
       3.303702515789549, 
       42.308276329547425
      ], 
      [
       3.309032251463918, 
       42.3270817521545
      ], 
      [
       3.268811351972768, 
       42.34072773816703
      ], 
      [
       3.242411058474765, 
       42.33779938354657
      ], 
      [
       3.239430766372375, 
       42.349330419293935
      ], 
      [
       3.216038740349082, 
       42.34960690659257
      ], 
      [
       3.199087906650205, 
       42.33510053960062
      ], 
      [
       3.189260683242976, 
       42.352222346478094
      ], 
      [
       3.164037472880288, 
       42.3608142905846
      ], 
      [
       3.156176264679809, 
       42.37905139741862
      ], 
      [
       3.171950006422561, 
       42.415995416560285
      ], 
      [
       3.175783197246252, 
       42.435680341975946
      ], 
      [
       3.248111442585749, 
       42.43298526602685
      ], 
      [
       3.712159825762839, 
       42.440184329331274
      ], 
      [
       3.754298705501022, 
       42.410945135929886
      ], 
      [
       3.769591863001221, 
       42.348647916070604
      ], 
      [
       3.768671550324815, 
       42.285331251024466
      ], 
      [
       3.751619501668346, 
       42.22329015981087
      ], 
      [
       3.719097293034401, 
       42.164767014930746
      ], 
      [
       3.668398798414395, 
       42.09344644616784
      ], 
      [
       3.677107385002818, 
       42.005658007638765
      ], 
      [
       3.679804960746254, 
       41.942526282206096
      ], 
      [
       3.666474175612513, 
       41.88015168478726
      ], 
      [
       3.63763975127264, 
       41.82077845931151
      ], 
      [
       3.575323138650984, 
       41.7224071895065
      ], 
      [
       3.524571678556222, 
       41.66056526035962
      ], 
      [
       3.461848450251143, 
       41.61199804956196
      ], 
      [
       3.368175731826968, 
       41.665430184873244
      ], 
      [
       3.082073313602626, 
       41.824826281063345
      ]
     ]
    ]
   }, 
   "type": "Feature", 
   "properties": {
    "Expire_COCO": "2026-10-09T13:59:59+02:00", 
    "N_avisos": 1, 
    "Des_COCO": "Viento del norte y noroeste de 50 a 70 km/h (fuerza 7 a 8) y olas de 4 m.", 
    "Provincia": "Girona", 
    "Nivel_COCO": 2, 
    "Code_COCO": "2PR-2NA-10COCO-1791496800-691703C", 
    "COD_Z": "691703C", 
    "Cer_COCO": "Likely", 
    "Prb_COCO": "40%-70%", 
    "Av_mayor": 2, 
    "Fen_avisos": [
     "COCO "
    ], 
    "Identf_COCO": "2.49.0.0.724.0.ES.20261007093555.691703COCO09121791365755", 
    "Sev_COCO": "Naranja", 
    "Onset_COCO": "2026-10-09T00:00:00+02:00", 
    "Nombre_zona": "Ampurdán - Costa", 
    "COCO": "Costeros", 
    "Ordn_avisos": [
     "2PR-2NA-10COCO-1791496800-691703C"
    ], 
    "Resum_COCO": "Aviso de costeros de nivel naranja. Costa - Ampurdán"
   }
  }, 
  {
   "geometry": {
    "type": "Polygon", 
    "coordinates": [
     [
      [
       2.736517017649455, 
       40.19688014236028
      ], 
      [
       2.925929566322659, 
       39.900582609181996
      ], 
      [
       2.921306748961134, 
       39.902516630486346
      ], 
      [
       2.918505638628014, 
       39.89708187381961
      ], 
      [
       2.888225973629332, 
       39.88719105926526
      ], 
      [
       2.85488390866059, 
       39.87522531635218
      ], 
      [
       2.826151922281655, 
       39.85713937760935
      ], 
      [
       2.779779581500994, 
       39.856051523323714
      ], 
      [
       2.763586313668851, 
       39.832873657290286
      ], 
      [
       2.74271481973615, 
       39.83282023945082
      ], 
      [
       2.715498728462373, 
       39.81835910775317
      ], 
      [
       2.693047634645238, 
       39.798804731860265
      ], 
      [
       2.6700085379776, 
       39.79255177525682
      ], 
      [
       2.666737529034204, 
       39.77576616330704
      ], 
      [
       2.600368902173272, 
       39.733156289622485
      ], 
      [
       2.588325161176209, 
       39.71761720278705
      ], 
      [
       2.556840124088685, 
       39.700652773348416
      ], 
      [
       2.528512727290606, 
       39.70174853052169
      ], 
      [
       2.49911233888076, 
       39.684957083699544
      ], 
      [
       2.463027783603537, 
       39.65243211820261
      ], 
      [
       2.437840705970729, 
       39.64367238476261
      ], 
      [
       2.255600689086822, 
       39.86333352277846
      ], 
      [
       2.196499341512693, 
       39.93083524156603
      ], 
      [
       2.517099435144671, 
       40.120455324483224
      ], 
      [
       2.574392641688212, 
       40.1489341573821
      ], 
      [
       2.636837643175057, 
       40.17012346481553
      ], 
      [
       2.736517017649455, 
       40.19688014236028
      ]
     ]
    ]
   }, 
   "type": "Feature", 
   "properties": {
    "Expire_COCO": "2026-10-09T11:59:59+02:00", 
    "N_avisos": 1, 
    "Des_COCO": "Olas de 3 m del norte.", 
    "Provincia": "Mallorca", 
    "Nivel_COCO": 3, 
    "Code_COCO": "2PR-3AM-10COCO-1791496800-645401C", 
    "COD_Z": "645401C", 
    "Cer_COCO": "Likely", 
    "Prb_COCO": "40%-70%", 
    "Av_mayor": 3, 
    "Fen_avisos": [
     "COCO "
    ], 
    "Identf_COCO": "2.49.0.0.724.0.ES.20261007093555.645401COCO09101791365755", 
    "Sev_COCO": "Amarillo", 
    "Onset_COCO": "2026-10-09T00:00:00+02:00", 
    "Nombre_zona": "Sierra Tramontana - Costa", 
    "COCO": "Costeros", 
    "Ordn_avisos": [
     "2PR-3AM-10COCO-1791496800-645401C"
    ], 
    "Resum_COCO": "Aviso de costeros de nivel amarillo. Costa - Sierra Tramontana"
   }
  }, 
  {
   "geometry": {
    "type": "Polygon", 
    "coordinates": [
     [
      [
       2.736517017649455, 
       40.19688014236028
      ], 
      [
       3.03704933166705, 
       40.27688265731416
      ], 
      [
       3.121258494432212, 
       40.29213764916716
      ], 
      [
       3.207751097106938, 
       40.29423937896813
      ], 
      [
       3.293043228485744, 
       40.28310688578968
      ], 
      [
       3.373703323850382, 
       40.259192007447155
      ], 
      [
       3.453111563135304, 
       40.218545183064485
      ], 
      [
       3.486196709789007, 
       40.1022920722502
      ], 
      [
       3.530352607590071, 
       39.9884770810162
      ], 
      [
       3.66674406220694, 
       39.83056819298232
      ], 
      [
       3.799249504103252, 
       39.67515076471391
      ], 
      [
       3.8812347586139, 
       39.592294442974456
      ], 
      [
       3.776611469279939, 
       39.44331977452944
      ], 
      [
       3.437484175049237, 
       39.63483845206843
      ], 
      [
       3.436462559340867, 
       39.63730203268784
      ], 
      [
       3.444425604692902, 
       39.65793175529875
      ], 
      [
       3.455584884122637, 
       39.65496027426403
      ], 
      [
       3.453465215796963, 
       39.722966535404574
      ], 
      [
       3.458426274397636, 
       39.74445359177401
      ], 
      [
       3.433257229229422, 
       39.74539718710306
      ], 
      [
       3.405111601555566, 
       39.764338402611074
      ], 
      [
       3.386290557455726, 
       39.764069204989426
      ], 
      [
       3.349049585418865, 
       39.789702977517834
      ], 
      [
       3.336152817464717, 
       39.78424507149212
      ], 
      [
       3.331957304295643, 
       39.76172357203006
      ], 
      [
       3.308016227060273, 
       39.754482584408734
      ], 
      [
       3.286735752178408, 
       39.74026546505345
      ], 
      [
       3.255502204350607, 
       39.729977031066895
      ], 
      [
       3.237832547869252, 
       39.73251031819208
      ], 
      [
       3.154184488573584, 
       39.768096430624674
      ], 
      [
       3.126759746489769, 
       39.79388874806779
      ], 
      [
       3.118049462101028, 
       39.81599897716343
      ], 
      [
       3.1285277870153, 
       39.84016104085736
      ], 
      [
       3.14449333998927, 
       39.83477244055907
      ], 
      [
       3.17980334518923, 
       39.84107496388962
      ], 
      [
       3.195873981217511, 
       39.857554761039474
      ], 
      [
       3.17142930923679, 
       39.876387697492405
      ], 
      [
       3.142300157825009, 
       39.86496675837214
      ], 
      [
       3.133189911434687, 
       39.86977974855413
      ], 
      [
       3.106734633085728, 
       39.8578962731226
      ], 
      [
       3.088000098047296, 
       39.87127339792297
      ], 
      [
       3.079496633425339, 
       39.889109705810135
      ], 
      [
       3.091198744987214, 
       39.91149008436943
      ], 
      [
       3.109843303255506, 
       39.90856380923847
      ], 
      [
       3.138382538404872, 
       39.92849858881956
      ], 
      [
       3.155351647362019, 
       39.92351279964673
      ], 
      [
       3.179388725852552, 
       39.93765921564423
      ], 
      [
       3.203448207725542, 
       39.94416945300366
      ], 
      [
       3.207188480534217, 
       39.957902425840494
      ], 
      [
       3.167892456652532, 
       39.96043461509576
      ], 
      [
       3.148198472623155, 
       39.95447010591897
      ], 
      [
       3.121653701686562, 
       39.93176981528782
      ], 
      [
       3.097025168743492, 
       39.93636090817741
      ], 
      [
       3.08184375691817, 
       39.92529080211146
      ], 
      [
       3.055874656450265, 
       39.92236908856661
      ], 
      [
       3.029083712693407, 
       39.93533472457494
      ], 
      [
       3.002352066112033, 
       39.92418445109547
      ], 
      [
       2.988008171058053, 
       39.90973240825707
      ], 
      [
       2.96685534388447, 
       39.91057519783789
      ], 
      [
       2.951428354536854, 
       39.920570453510244
      ], 
      [
       2.925929566322659, 
       39.900582609181996
      ], 
      [
       2.736517017649455, 
       40.19688014236028
      ]
     ]
    ]
   }, 
   "type": "Feature", 
   "properties": {
    "Expire_COCO": "2026-10-09T14:59:59+02:00", 
    "N_avisos": 1, 
    "Des_COCO": "Olas de 3 a 4 m del norte.", 
    "Provincia": "Mallorca", 
    "Nivel_COCO": 3, 
    "Code_COCO": "2PR-3AM-10COCO-1791496800-645402C", 
    "COD_Z": "645402C", 
    "Cer_COCO": "Likely", 
    "Prb_COCO": "40%-70%", 
    "Av_mayor": 3, 
    "Fen_avisos": [
     "COCO "
    ], 
    "Identf_COCO": "2.49.0.0.724.0.ES.20261007093555.645402COCO09131791365755", 
    "Sev_COCO": "Amarillo", 
    "Onset_COCO": "2026-10-09T00:00:00+02:00", 
    "Nombre_zona": "Norte y nordeste de Mallorca - Costa", 
    "COCO": "Costeros", 
    "Ordn_avisos": [
     "2PR-3AM-10COCO-1791496800-645402C"
    ], 
    "Resum_COCO": "Aviso de costeros de nivel amarillo. Costa - Norte y nordeste de Mallorca"
   }
  }, 
  {
   "geometry": {
    "type": "Polygon", 
    "coordinates": [
     [
      [
       3.453111563135304, 
       40.218545183064485
      ], 
      [
       3.462403541415314, 
       40.232694336314864
      ], 
      [
       3.517628683576131, 
       40.28592640145727
      ], 
      [
       3.585923604617043, 
       40.329393136605425
      ], 
      [
       3.664416175739356, 
       40.361256578706474
      ], 
      [
       3.749787840053641, 
       40.38016896355217
      ], 
      [
       3.920282254888747, 
       40.40361988428846
      ], 
      [
       3.989122395928106, 
       40.42022608988096
      ], 
      [
       4.077397093357589, 
       40.4270182616101
      ], 
      [
       4.165618488228601, 
       40.41990557651544
      ], 
      [
       4.264444896983975, 
       40.39512918462429
      ], 
      [
       4.290893804176956, 
       40.38404914529773
      ], 
      [
       4.370222074227303, 
       40.357193911035054
      ], 
      [
       4.440905911600214, 
       40.31877382839477
      ], 
      [
       4.483924535007516, 
       40.28359361599664
      ], 
      [
       4.515526121220306, 
       40.27030894730337
      ], 
      [
       4.582363018267909, 
       40.226695297955246
      ], 
      [
       4.63627085277578, 
       40.17363354795935
      ], 
      [
       4.675055902313432, 
       40.11332011344435
      ], 
      [
       4.732947705540757, 
       39.99389040592457
      ], 
      [
       4.754131401538674, 
       39.932858680396045
      ], 
      [
       4.75989675486754, 
       39.869845015233444
      ], 
      [
       4.750078049051147, 
       39.807129986571944
      ], 
      [
       4.725070955664728, 
       39.74697721959972
      ], 
      [
       4.681886104296574, 
       39.65625494106519
      ], 
      [
       4.639004299785731, 
       39.60148385565221
      ], 
      [
       4.583399979436958, 
       39.55406589701648
      ], 
      [
       4.51714019949643, 
       39.51574778114677
      ], 
      [
       4.442672080142895, 
       39.48793996630908
      ], 
      [
       4.362734415206908, 
       39.471666316388905
      ], 
      [
       4.272394304301587, 
       39.46771910657539
      ], 
      [
       4.183887708873893, 
       39.477055729156284
      ], 
      [
       4.090971268556688, 
       39.50240523010855
      ], 
      [
       4.018023308687414, 
       39.5296982740339
      ], 
      [
       3.883855396926581, 
       39.59244201948094
      ], 
      [
       3.8812347586139, 
       39.592294442974456
      ], 
      [
       3.799249504103252, 
       39.67515076471391
      ], 
      [
       3.66674406220694, 
       39.83056819298232
      ], 
      [
       3.530352607590071, 
       39.9884770810162
      ], 
      [
       3.486196709789007, 
       40.1022920722502
      ], 
      [
       3.453111563135304, 
       40.218545183064485
      ]
     ], 
     [
      [
       3.831360128022526, 
       39.97145854446977
      ], 
      [
       3.821869420184256, 
       39.925974620335325
      ], 
      [
       3.855284371051183, 
       39.921759777368784
      ], 
      [
       3.912894507433046, 
       39.9256900617062
      ], 
      [
       3.937914095313725, 
       39.938635065534164
      ], 
      [
       4.019709079766007, 
       39.92259252429274
      ], 
      [
       4.079245976663601, 
       39.89658415537849
      ], 
      [
       4.098675712604329, 
       39.879094675956324
      ], 
      [
       4.144048156595628, 
       39.862249871545856
      ], 
      [
       4.175876235641732, 
       39.843399239609056
      ], 
      [
       4.232635503680789, 
       39.81944862294717
      ], 
      [
       4.270362511741297, 
       39.809347526732374
      ], 
      [
       4.288704543397044, 
       39.815064393986084
      ], 
      [
       4.300790591291161, 
       39.83335363186803
      ], 
      [
       4.313041917998484, 
       39.88572177292749
      ], 
      [
       4.275445732362079, 
       39.93378225825376
      ], 
      [
       4.279453669881259, 
       39.946017625261405
      ], 
      [
       4.26268088885862, 
       39.9651388432208
      ], 
      [
       4.256639933567299, 
       39.99968247882007
      ], 
      [
       4.225775459088047, 
       39.998508563313194
      ], 
      [
       4.194346658988747, 
       40.02404431973719
      ], 
      [
       4.169625300320487, 
       40.027737999680866
      ], 
      [
       4.165664925997604, 
       40.058057526372224
      ], 
      [
       4.156563363771487, 
       40.068247935997604
      ], 
      [
       4.137340577640527, 
       40.06731211772563
      ], 
      [
       4.14185542459894, 
       40.03572681619271
      ], 
      [
       4.121057026869154, 
       40.0360560683947
      ], 
      [
       4.131425103162904, 
       40.0556311899564
      ], 
      [
       4.101975078492025, 
       40.054924089850246
      ], 
      [
       4.085475502743022, 
       40.07534135606005
      ], 
      [
       4.07795988305642, 
       40.060564529392266
      ], 
      [
       4.049399279424795, 
       40.05297980715426
      ], 
      [
       4.033217292990988, 
       40.065936274966724
      ], 
      [
       4.022808301922438, 
       40.059893414804684
      ], 
      [
       3.979481028276378, 
       40.05138479652403
      ], 
      [
       3.959580304129579, 
       40.061794792018475
      ], 
      [
       3.942382585964486, 
       40.05689982849731
      ], 
      [
       3.883113546207726, 
       40.05847491529487
      ], 
      [
       3.822660094446648, 
       40.05052335119432
      ], 
      [
       3.819935255530015, 
       40.04031715862857
      ], 
      [
       3.793566243831407, 
       40.02045506921205
      ], 
      [
       3.795923696315386, 
       40.00046519867328
      ], 
      [
       3.826427210470649, 
       39.996467767508626
      ], 
      [
       3.831360128022526, 
       39.97145854446977
      ]
     ]
    ]
   }, 
   "type": "Feature", 
   "properties": {
    "Expire_COCO": "2026-10-09T14:59:59+02:00", 
    "N_avisos": 1, 
    "Des_COCO": "Viento del norte de 50 a 65 km/h (fuerza 7 a 8) y olas de 4 a 5 m.", 
    "Provincia": "Menorca", 
    "Nivel_COCO": 2, 
    "Code_COCO": "2PR-2NA-10COCO-1791496800-645501C", 
    "COD_Z": "645501C", 
    "Cer_COCO": "Likely", 
    "Prb_COCO": "40%-70%", 
    "Av_mayor": 2, 
    "Fen_avisos": [
     "COCO "
    ], 
    "Identf_COCO": "2.49.0.0.724.0.ES.20261007093555.645501COCO09131791365755", 
    "Sev_COCO": "Naranja", 
    "Onset_COCO": "2026-10-09T00:00:00+02:00", 
    "Nombre_zona": "Menorca - Costa", 
    "COCO": "Costeros", 
    "Ordn_avisos": [
     "2PR-2NA-10COCO-1791496800-645501C"
    ], 
    "Resum_COCO": "Aviso de costeros de nivel naranja. Costa - Menorca"
   }
  }
 ]
}
