{
 "crs": {
  "type": "name", 
  "properties": {
   "name": "urn:ogc:def:crs:EPSG::4326"
  }
 }, 
 "type": "FeatureCollection", 
 "name": "Avisos", 
 "features": [
  {
   "geometry": {
    "type": "Polygon", 
    "coordinates": [
     [
      [
       3.082073313602626, 
       41.824826281063345
      ], 
      [
       3.086272661110857, 
       41.826340213079945
      ], 
      [
       3.098010493212545, 
       41.84268226097762
      ], 
      [
       3.115484183901735, 
       41.84931052805003
      ], 
      [
       3.145971385605563, 
       41.849873166718126
      ], 
      [
       3.146726827758028, 
       41.85886054052435
      ], 
      [
       3.173392019761114, 
       41.86405846918253
      ], 
      [
       3.184616911743912, 
       41.88834866448963
      ], 
      [
       3.204125112443205, 
       41.89200871771296
      ], 
      [
       3.208400738158145, 
       41.917519185222915
      ], 
      [
       3.219793639588294, 
       41.94277762132379
      ], 
      [
       3.234296650738604, 
       41.95016967690259
      ], 
      [
       3.232452484451533, 
       41.96977498771974
      ], 
      [
       3.214721452592452, 
       41.97458337221866
      ], 
      [
       3.200940367059836, 
       41.99544851130084
      ], 
      [
       3.195976705245351, 
       42.028723912725305
      ], 
      [
       3.199115263451745, 
       42.04864381074216
      ], 
      [
       3.214803215230657, 
       42.06160840725341
      ], 
      [
       3.184716194256445, 
       42.104005403167456
      ], 
      [
       3.137866087867716, 
       42.12683701937359
      ], 
      [
       3.125217242702377, 
       42.128325649145005
      ], 
      [
       3.113191568834922, 
       42.172840699222164
      ], 
      [
       3.11264990894991, 
       42.20415745189329
      ], 
      [
       3.118321442145595, 
       42.2228372229003
      ], 
      [
       3.13968817188577, 
       42.25101659368455
      ], 
      [
       3.162752890003275, 
       42.26424846272922
      ], 
      [
       3.18232671129598, 
       42.25761027780726
      ], 
      [
       3.220088513945284, 
       42.23261715663812
      ], 
      [
       3.23213823075297, 
       42.24535385503731
      ], 
      [
       3.282428709105792, 
       42.25415633260183
      ], 
      [
       3.288741539967442, 
       42.265456049069655
      ], 
      [
       3.292031963666492, 
       42.30749774699677
      ], 
      [
       3.303702515789549, 
       42.308276329547425
      ], 
      [
       3.309032251463918, 
       42.3270817521545
      ], 
      [
       3.268811351972768, 
       42.34072773816703
      ], 
      [
       3.242411058474765, 
       42.33779938354657
      ], 
      [
       3.239430766372375, 
       42.349330419293935
      ], 
      [
       3.216038740349082, 
       42.34960690659257
      ], 
      [
       3.199087906650205, 
       42.33510053960062
      ], 
      [
       3.189260683242976, 
       42.352222346478094
      ], 
      [
       3.164037472880288, 
       42.3608142905846
      ], 
      [
       3.156176264679809, 
       42.37905139741862
      ], 
      [
       3.171950006422561, 
       42.415995416560285
      ], 
      [
       3.175783197246252, 
       42.435680341975946
      ], 
      [
       3.248111442585749, 
       42.43298526602685
      ], 
      [
       3.712159825762839, 
       42.440184329331274
      ], 
      [
       3.754298705501022, 
       42.410945135929886
      ], 
      [
       3.769591863001221, 
       42.348647916070604
      ], 
      [
       3.768671550324815, 
       42.285331251024466
      ], 
      [
       3.751619501668346, 
       42.22329015981087
      ], 
      [
       3.719097293034401, 
       42.164767014930746
      ], 
      [
       3.668398798414395, 
       42.09344644616784
      ], 
      [
       3.677107385002818, 
       42.005658007638765
      ], 
      [
       3.679804960746254, 
       41.942526282206096
      ], 
      [
       3.666474175612513, 
       41.88015168478726
      ], 
      [
       3.63763975127264, 
       41.82077845931151
      ], 
      [
       3.575323138650984, 
       41.7224071895065
      ], 
      [
       3.524571678556222, 
       41.66056526035962
      ], 
      [
       3.461848450251143, 
       41.61199804956196
      ], 
      [
       3.368175731826968, 
       41.665430184873244
      ], 
      [
       3.082073313602626, 
       41.824826281063345
      ]
     ]
    ]
   }, 
   "type": "Feature", 
   "properties": {
    "Expire_COCO": "2026-10-08T23:59:59+02:00", 
    "N_avisos": 1, 
    "Des_COCO": "Viento del norte de 50 a 70 km/h (fuerza 7 a 8) y olas de 3 o 4 m.", 
    "Provincia": "Girona", 
    "Nivel_COCO": 2, 
    "Code_COCO": "2PR-2NA-10COCO-1791439200-691703C", 
    "COD_Z": "691703C", 
    "Cer_COCO": "Likely", 
    "Prb_COCO": "40%-70%", 
    "Av_mayor": 2, 
    "Fen_avisos": [
     "COCO "
    ], 
    "Identf_COCO": "2.49.0.0.724.0.ES.20261007092432.691703COCO08221791365072", 
    "Sev_COCO": "Naranja", 
    "Onset_COCO": "2026-10-08T08:00:00+02:00", 
    "Nombre_zona": "Ampurdán - Costa", 
    "COCO": "Costeros", 
    "Ordn_avisos": [
     "2PR-2NA-10COCO-1791439200-691703C"
    ], 
    "Resum_COCO": "Aviso de costeros de nivel naranja. Costa - Ampurdán"
   }
  }, 
  {
   "geometry": {
    "type": "Polygon", 
    "coordinates": [
     [
      [
       3.082073313602626, 
       41.824826281063345
      ], 
      [
       3.368175731826968, 
       41.665430184873244
      ], 
      [
       3.461848450251143, 
       41.61199804956196
      ], 
      [
       3.457226802540975, 
       41.608414910585665
      ], 
      [
       3.220434755379561, 
       41.46044810621896
      ], 
      [
       3.135333442582542, 
       41.41845967453055
      ], 
      [
       3.091687717887286, 
       41.40194404893611
      ], 
      [
       2.867250376999201, 
       41.57987291613145
      ], 
      [
       2.779505115009547, 
       41.64912244170018
      ], 
      [
       2.794120100176215, 
       41.67391256856941
      ], 
      [
       2.817866231081555, 
       41.686778243706705
      ], 
      [
       2.854415933790484, 
       41.70006519376004
      ], 
      [
       2.888299863819823, 
       41.70152344883903
      ], 
      [
       2.913299210607874, 
       41.708102422203694
      ], 
      [
       2.954825624775968, 
       41.73131597738271
      ], 
      [
       2.972557070473235, 
       41.75348957069878
      ], 
      [
       3.030545181372171, 
       41.779847209583785
      ], 
      [
       3.066508618259802, 
       41.80051243413485
      ], 
      [
       3.082073313602626, 
       41.824826281063345
      ]
     ]
    ]
   }, 
   "type": "Feature", 
   "properties": {
    "Expire_COCO": "2026-10-08T23:59:59+02:00", 
    "N_avisos": 1, 
    "Des_COCO": "Viento del norte de 50 a 60 km/h (fuerza 7) y olas de 3 m.", 
    "Provincia": "Girona", 
    "Nivel_COCO": 3, 
    "Code_COCO": "2PR-3AM-10COCO-1791475200-691704C", 
    "COD_Z": "691704C", 
    "Cer_COCO": "Likely", 
    "Prb_COCO": "40%-70%", 
    "Av_mayor": 3, 
    "Fen_avisos": [
     "COCO "
    ], 
    "Identf_COCO": "2.49.0.0.724.0.ES.20261007092432.691704COCO08221791365072", 
    "Sev_COCO": "Amarillo", 
    "Onset_COCO": "2026-10-08T18:00:00+02:00", 
    "Nombre_zona": "Litoral sur de Girona - Costa", 
    "COCO": "Costeros", 
    "Ordn_avisos": [
     "2PR-3AM-10COCO-1791475200-691704C"
    ], 
    "Resum_COCO": "Aviso de costeros de nivel amarillo. Costa - Litoral sur de Girona"
   }
  }, 
  {
   "geometry": {
    "type": "Polygon", 
    "coordinates": [
     [
      [
       2.850717207647832, 
       42.3794342748447
      ], 
      [
       2.894934485370713, 
       42.384218402836126
      ], 
      [
       2.918687845156965, 
       42.39932777971815
      ], 
      [
       2.908814487932507, 
       42.412098863610986
      ], 
      [
       2.902630499939529, 
       42.436479425397174
      ], 
      [
       2.921157527856974, 
       42.45083189319504
      ], 
      [
       2.947811616130253, 
       42.429436878560956
      ], 
      [
       2.988993831568168, 
       42.4500761987861
      ], 
      [
       2.981575127546016, 
       42.46797259152795
      ], 
      [
       2.989713160939874, 
       42.47424302622166
      ], 
      [
       3.014346534021726, 
       42.466638400267996
      ], 
      [
       3.034477438221497, 
       42.475063701632116
      ], 
      [
       3.048294536037615, 
       42.457365342831814
      ], 
      [
       3.086972993391111, 
       42.42608330193881
      ], 
      [
       3.108968564667821, 
       42.43423395717227
      ], 
      [
       3.175783197246252, 
       42.435680341975946
      ], 
      [
       3.171950006422561, 
       42.415995416560285
      ], 
      [
       3.156176264679809, 
       42.37905139741862
      ], 
      [
       3.164037472880288, 
       42.3608142905846
      ], 
      [
       3.189260683242976, 
       42.352222346478094
      ], 
      [
       3.199087906650205, 
       42.33510053960062
      ], 
      [
       3.216038740349082, 
       42.34960690659257
      ], 
      [
       3.239430766372375, 
       42.349330419293935
      ], 
      [
       3.242411058474765, 
       42.33779938354657
      ], 
      [
       3.268811351972768, 
       42.34072773816703
      ], 
      [
       3.309032251463918, 
       42.3270817521545
      ], 
      [
       3.303702515789549, 
       42.308276329547425
      ], 
      [
       3.292031963666492, 
       42.30749774699677
      ], 
      [
       3.288741539967442, 
       42.265456049069655
      ], 
      [
       3.282428709105792, 
       42.25415633260183
      ], 
      [
       3.23213823075297, 
       42.24535385503731
      ], 
      [
       3.220088513945284, 
       42.23261715663812
      ], 
      [
       3.18232671129598, 
       42.25761027780726
      ], 
      [
       3.162752890003275, 
       42.26424846272922
      ], 
      [
       3.13968817188577, 
       42.25101659368455
      ], 
      [
       3.118321442145595, 
       42.2228372229003
      ], 
      [
       3.11264990894991, 
       42.20415745189329
      ], 
      [
       3.113191568834922, 
       42.172840699222164
      ], 
      [
       3.125217242702377, 
       42.128325649145005
      ], 
      [
       3.137866087867716, 
       42.12683701937359
      ], 
      [
       3.184716194256445, 
       42.104005403167456
      ], 
      [
       3.214803215230657, 
       42.06160840725341
      ], 
      [
       3.199115263451745, 
       42.04864381074216
      ], 
      [
       3.195976705245351, 
       42.028723912725305
      ], 
      [
       3.200940367059836, 
       41.99544851130084
      ], 
      [
       3.214721452592452, 
       41.97458337221866
      ], 
      [
       3.232452484451533, 
       41.96977498771974
      ], 
      [
       3.234296650738604, 
       41.95016967690259
      ], 
      [
       3.219793639588294, 
       41.94277762132379
      ], 
      [
       3.208400738158145, 
       41.917519185222915
      ], 
      [
       3.204125112443205, 
       41.89200871771296
      ], 
      [
       3.184616911743912, 
       41.88834866448963
      ], 
      [
       3.173392019761114, 
       41.86405846918253
      ], 
      [
       3.146726827758028, 
       41.85886054052435
      ], 
      [
       3.145971385605563, 
       41.849873166718126
      ], 
      [
       3.115484183901735, 
       41.84931052805003
      ], 
      [
       3.098010493212545, 
       41.84268226097762
      ], 
      [
       3.086272661110857, 
       41.826340213079945
      ], 
      [
       3.082073313602626, 
       41.824826281063345
      ], 
      [
       3.063307647808232, 
       41.843959336706796
      ], 
      [
       3.034402074091144, 
       41.84864672474698
      ], 
      [
       3.024074739899159, 
       41.869371493571485
      ], 
      [
       2.987099742120129, 
       41.885138041633034
      ], 
      [
       2.956505960618205, 
       41.88477247591763
      ], 
      [
       2.940958989728721, 
       41.89478907772887
      ], 
      [
       2.887117384718295, 
       41.90967874840201
      ], 
      [
       2.903243704069285, 
       41.91935252665678
      ], 
      [
       2.899016583286803, 
       41.93320765638204
      ], 
      [
       2.936784505346204, 
       41.94020143004428
      ], 
      [
       2.949452211435794, 
       41.9623886953263
      ], 
      [
       2.932933974580174, 
       41.970726702459984
      ], 
      [
       2.905976448904199, 
       41.97177959834348
      ], 
      [
       2.897355409705221, 
       41.98784179095803
      ], 
      [
       2.901294272069108, 
       42.03214158027956
      ], 
      [
       2.884115055764105, 
       42.05354994875624
      ], 
      [
       2.885408626184338, 
       42.066076389000045
      ], 
      [
       2.858040109425617, 
       42.07870641685536
      ], 
      [
       2.843675053959488, 
       42.09735434071072
      ], 
      [
       2.840029279174327, 
       42.13978466007328
      ], 
      [
       2.824967406878808, 
       42.1510487619913
      ], 
      [
       2.803086244700128, 
       42.1459233320426
      ], 
      [
       2.810279691385394, 
       42.1665766496228
      ], 
      [
       2.847108579852728, 
       42.16340284214071
      ], 
      [
       2.862157970950609, 
       42.19667575615755
      ], 
      [
       2.843001287300215, 
       42.20735114941825
      ], 
      [
       2.834998956559952, 
       42.23737490774842
      ], 
      [
       2.806833613221542, 
       42.233408294251824
      ], 
      [
       2.780404375954585, 
       42.26608241668453
      ], 
      [
       2.798487561008232, 
       42.28125227819258
      ], 
      [
       2.785653441610907, 
       42.30636902909627
      ], 
      [
       2.806601400257334, 
       42.312732886807936
      ], 
      [
       2.828015528690661, 
       42.3415008890224
      ], 
      [
       2.89564597632722, 
       42.34911206527767
      ], 
      [
       2.887542699922368, 
       42.36132182434954
      ], 
      [
       2.859486349083367, 
       42.36528458731978
      ], 
      [
       2.850717207647832, 
       42.3794342748447
      ]
     ]
    ]
   }, 
   "type": "Feature", 
   "properties": {
    "Cer_VIRM": "Likely", 
    "N_avisos": 1, 
    "Code_VIRM": "2PR-3AM-06VIRM-1791453600-691703", 
    "COD_Z": "691703", 
    "Identf_VIRM": "2.49.0.0.724.0.ES.20261007092432.691703VIRM08221791365072", 
    "Fen_avisos": [
     "VIRM "
    ], 
    "Av_mayor": 3, 
    "Des_VIRM": "Rachas máximas: 80 km/h. Viento del noroeste. El umbral se alcanzará en zonas expuestas del litoral.", 
    "Nivel_VIRM": 3, 
    "VIRM": "Vientos", 
    "Valor_VIRM": "80 km/h", 
    "Resum_VIRM": "Aviso de vientos de nivel amarillo. Ampurdán", 
    "Nombre_zona": "Ampurdán", 
    "Prb_VIRM": "40%-70%", 
    "Ordn_avisos": [
     "2PR-3AM-06VIRM-1791453600-691703"
    ], 
    "Sev_VIRM": "Amarillo", 
    "Onset_VIRM": "2026-10-08T12:00:00+02:00", 
    "Expire_VIRM": "2026-10-08T23:59:59+02:00"
   }
  }, 
  {
   "geometry": {
    "type": "Polygon", 
    "coordinates": [
     [
      [
       0.734399554322187, 
       40.640308699524084
      ], 
      [
       0.736666823011185, 
       40.64082182608277
      ], 
      [
       0.747136871474016, 
       40.63651965363344
      ], 
      [
       0.712539913216221, 
       40.592466384077355
      ], 
      [
       0.673551692204818, 
       40.59370563608575
      ], 
      [
       0.651336648591862, 
       40.585810479789075
      ], 
      [
       0.599031340175684, 
       40.574828000920434
      ], 
      [
       0.610227025990529, 
       40.559447454242296
      ], 
      [
       0.65104299969501, 
       40.55546132191296
      ], 
      [
       0.681289412124061, 
       40.56464966877626
      ], 
      [
       0.709197642852862, 
       40.58522528742295
      ], 
      [
       0.751199107234354, 
       40.635387967286874
      ], 
      [
       0.769213167421963, 
       40.648164770243525
      ], 
      [
       0.842588169845539, 
       40.676136078635075
      ], 
      [
       0.877673195784174, 
       40.70165304361671
      ], 
      [
       0.888666556093036, 
       40.719743503355495
      ], 
      [
       0.875324296484753, 
       40.734358197567765
      ], 
      [
       0.86478495642443, 
       40.72184354202826
      ], 
      [
       0.828988020672423, 
       40.7360060222804
      ], 
      [
       0.782081017832905, 
       40.775008306201144
      ], 
      [
       0.763681600599112, 
       40.76217464425693
      ], 
      [
       0.729783638439996, 
       40.77061618128614
      ], 
      [
       0.710494018587541, 
       40.786251030376086
      ], 
      [
       0.700839221853448, 
       40.80417624565644
      ], 
      [
       0.729983447137581, 
       40.81815846646287
      ], 
      [
       0.753095334987016, 
       40.84645023833075
      ], 
      [
       0.79348613645024, 
       40.86700104097945
      ], 
      [
       0.858900814631335, 
       40.93499613543125
      ], 
      [
       0.918524900410932, 
       40.988381127658705
      ], 
      [
       0.967606140782954, 
       41.02875257424696
      ], 
      [
       0.990437975148758, 
       41.04193860065209
      ], 
      [
       1.004952302634858, 
       41.04337935890015
      ], 
      [
       1.051941910261324, 
       41.06482230744912
      ], 
      [
       1.085325325802643, 
       41.0640378702214
      ], 
      [
       1.118879626911933, 
       41.074187220682866
      ], 
      [
       1.332179035381998, 
       40.764786278826925
      ], 
      [
       1.310728348682103, 
       40.751414746226246
      ], 
      [
       1.315051996474769, 
       40.68779808284437
      ], 
      [
       1.303401266535607, 
       40.62471670885213
      ], 
      [
       1.276244508655578, 
       40.56447027861868
      ], 
      [
       1.234608065533769, 
       40.509249479911276
      ], 
      [
       1.180034056069901, 
       40.461057733634526
      ], 
      [
       1.114521302253698, 
       40.42164021215293
      ], 
      [
       1.071215429854732, 
       40.40033089883925
      ], 
      [
       1.042431194685819, 
       40.371249530671896
      ], 
      [
       1.01049728970025, 
       40.34572031530584
      ], 
      [
       0.910321527310226, 
       40.383210290680594
      ], 
      [
       0.550437130346159, 
       40.51591364534921
      ], 
      [
       0.516346493521146, 
       40.52326072632791
      ], 
      [
       0.539429213765425, 
       40.56780107293233
      ], 
      [
       0.603785309323274, 
       40.62240142057493
      ], 
      [
       0.664378241553634, 
       40.62686826908806
      ], 
      [
       0.704798466643601, 
       40.63897728854831
      ], 
      [
       0.734399554322187, 
       40.640308699524084
      ]
     ]
    ]
   }, 
   "type": "Feature", 
   "properties": {
    "Expire_COCO": "2026-10-08T23:59:59+02:00", 
    "N_avisos": 1, 
    "Des_COCO": "Viento del noroeste de 50 a 60 km/h (fuerza 7).", 
    "Provincia": "Tarragona", 
    "Nivel_COCO": 3, 
    "Code_COCO": "2PR-3AM-10COCO-1791439200-694304C", 
    "COD_Z": "694304C", 
    "Cer_COCO": "Likely", 
    "Prb_COCO": "40%-70%", 
    "Av_mayor": 3, 
    "Fen_avisos": [
     "COCO "
    ], 
    "Identf_COCO": "2.49.0.0.724.0.ES.20261007092432.694304COCO08221791365072", 
    "Sev_COCO": "Amarillo", 
    "Onset_COCO": "2026-10-08T08:00:00+02:00", 
    "Nombre_zona": "Litoral sur de Tarragona - Costa", 
    "COCO": "Costeros", 
    "Ordn_avisos": [
     "2PR-3AM-10COCO-1791439200-694304C"
    ], 
    "Resum_COCO": "Aviso de costeros de nivel amarillo. Costa - Litoral sur de Tarragona"
   }
  }, 
  {
   "geometry": {
    "type": "Polygon", 
    "coordinates": [
     [
      [
       2.736517017649455, 
       40.19688014236028
      ], 
      [
       3.03704933166705, 
       40.27688265731416
      ], 
      [
       3.121258494432212, 
       40.29213764916716
      ], 
      [
       3.207751097106938, 
       40.29423937896813
      ], 
      [
       3.293043228485744, 
       40.28310688578968
      ], 
      [
       3.373703323850382, 
       40.259192007447155
      ], 
      [
       3.453111563135304, 
       40.218545183064485
      ], 
      [
       3.486196709789007, 
       40.1022920722502
      ], 
      [
       3.530352607590071, 
       39.9884770810162
      ], 
      [
       3.66674406220694, 
       39.83056819298232
      ], 
      [
       3.799249504103252, 
       39.67515076471391
      ], 
      [
       3.8812347586139, 
       39.592294442974456
      ], 
      [
       3.776611469279939, 
       39.44331977452944
      ], 
      [
       3.437484175049237, 
       39.63483845206843
      ], 
      [
       3.436462559340867, 
       39.63730203268784
      ], 
      [
       3.444425604692902, 
       39.65793175529875
      ], 
      [
       3.455584884122637, 
       39.65496027426403
      ], 
      [
       3.453465215796963, 
       39.722966535404574
      ], 
      [
       3.458426274397636, 
       39.74445359177401
      ], 
      [
       3.433257229229422, 
       39.74539718710306
      ], 
      [
       3.405111601555566, 
       39.764338402611074
      ], 
      [
       3.386290557455726, 
       39.764069204989426
      ], 
      [
       3.349049585418865, 
       39.789702977517834
      ], 
      [
       3.336152817464717, 
       39.78424507149212
      ], 
      [
       3.331957304295643, 
       39.76172357203006
      ], 
      [
       3.308016227060273, 
       39.754482584408734
      ], 
      [
       3.286735752178408, 
       39.74026546505345
      ], 
      [
       3.255502204350607, 
       39.729977031066895
      ], 
      [
       3.237832547869252, 
       39.73251031819208
      ], 
      [
       3.154184488573584, 
       39.768096430624674
      ], 
      [
       3.126759746489769, 
       39.79388874806779
      ], 
      [
       3.118049462101028, 
       39.81599897716343
      ], 
      [
       3.1285277870153, 
       39.84016104085736
      ], 
      [
       3.14449333998927, 
       39.83477244055907
      ], 
      [
       3.17980334518923, 
       39.84107496388962
      ], 
      [
       3.195873981217511, 
       39.857554761039474
      ], 
      [
       3.17142930923679, 
       39.876387697492405
      ], 
      [
       3.142300157825009, 
       39.86496675837214
      ], 
      [
       3.133189911434687, 
       39.86977974855413
      ], 
      [
       3.106734633085728, 
       39.8578962731226
      ], 
      [
       3.088000098047296, 
       39.87127339792297
      ], 
      [
       3.079496633425339, 
       39.889109705810135
      ], 
      [
       3.091198744987214, 
       39.91149008436943
      ], 
      [
       3.109843303255506, 
       39.90856380923847
      ], 
      [
       3.138382538404872, 
       39.92849858881956
      ], 
      [
       3.155351647362019, 
       39.92351279964673
      ], 
      [
       3.179388725852552, 
       39.93765921564423
      ], 
      [
       3.203448207725542, 
       39.94416945300366
      ], 
      [
       3.207188480534217, 
       39.957902425840494
      ], 
      [
       3.167892456652532, 
       39.96043461509576
      ], 
      [
       3.148198472623155, 
       39.95447010591897
      ], 
      [
       3.121653701686562, 
       39.93176981528782
      ], 
      [
       3.097025168743492, 
       39.93636090817741
      ], 
      [
       3.08184375691817, 
       39.92529080211146
      ], 
      [
       3.055874656450265, 
       39.92236908856661
      ], 
      [
       3.029083712693407, 
       39.93533472457494
      ], 
      [
       3.002352066112033, 
       39.92418445109547
      ], 
      [
       2.988008171058053, 
       39.90973240825707
      ], 
      [
       2.96685534388447, 
       39.91057519783789
      ], 
      [
       2.951428354536854, 
       39.920570453510244
      ], 
      [
       2.925929566322659, 
       39.900582609181996
      ], 
      [
       2.736517017649455, 
       40.19688014236028
      ]
     ]
    ]
   }, 
   "type": "Feature", 
   "properties": {
    "Expire_COCO": "2026-10-08T23:59:59+02:00", 
    "N_avisos": 1, 
    "Des_COCO": "Viento del norte de 45 a 60 km/h (fuerza 6 a 7) y olas de 3 m.", 
    "Provincia": "Mallorca", 
    "Nivel_COCO": 3, 
    "Code_COCO": "2PR-3AM-10COCO-1791475200-645402C", 
    "COD_Z": "645402C", 
    "Cer_COCO": "Likely", 
    "Prb_COCO": "40%-70%", 
    "Av_mayor": 3, 
    "Fen_avisos": [
     "COCO "
    ], 
    "Identf_COCO": "2.49.0.0.724.0.ES.20261007090614.645402COCO08221791363974", 
    "Sev_COCO": "Amarillo", 
    "Onset_COCO": "2026-10-08T18:00:00+02:00", 
    "Nombre_zona": "Norte y nordeste de Mallorca - Costa", 
    "COCO": "Costeros", 
    "Ordn_avisos": [
     "2PR-3AM-10COCO-1791475200-645402C"
    ], 
    "Resum_COCO": "Aviso de costeros de nivel amarillo. Costa - Norte y nordeste de Mallorca"
   }
  }, 
  {
   "geometry": {
    "type": "Polygon", 
    "coordinates": [
     [
      [
       3.453111563135304, 
       40.218545183064485
      ], 
      [
       3.462403541415314, 
       40.232694336314864
      ], 
      [
       3.517628683576131, 
       40.28592640145727
      ], 
      [
       3.585923604617043, 
       40.329393136605425
      ], 
      [
       3.664416175739356, 
       40.361256578706474
      ], 
      [
       3.749787840053641, 
       40.38016896355217
      ], 
      [
       3.920282254888747, 
       40.40361988428846
      ], 
      [
       3.989122395928106, 
       40.42022608988096
      ], 
      [
       4.077397093357589, 
       40.4270182616101
      ], 
      [
       4.165618488228601, 
       40.41990557651544
      ], 
      [
       4.264444896983975, 
       40.39512918462429
      ], 
      [
       4.290893804176956, 
       40.38404914529773
      ], 
      [
       4.370222074227303, 
       40.357193911035054
      ], 
      [
       4.440905911600214, 
       40.31877382839477
      ], 
      [
       4.483924535007516, 
       40.28359361599664
      ], 
      [
       4.515526121220306, 
       40.27030894730337
      ], 
      [
       4.582363018267909, 
       40.226695297955246
      ], 
      [
       4.63627085277578, 
       40.17363354795935
      ], 
      [
       4.675055902313432, 
       40.11332011344435
      ], 
      [
       4.732947705540757, 
       39.99389040592457
      ], 
      [
       4.754131401538674, 
       39.932858680396045
      ], 
      [
       4.75989675486754, 
       39.869845015233444
      ], 
      [
       4.750078049051147, 
       39.807129986571944
      ], 
      [
       4.725070955664728, 
       39.74697721959972
      ], 
      [
       4.681886104296574, 
       39.65625494106519
      ], 
      [
       4.639004299785731, 
       39.60148385565221
      ], 
      [
       4.583399979436958, 
       39.55406589701648
      ], 
      [
       4.51714019949643, 
       39.51574778114677
      ], 
      [
       4.442672080142895, 
       39.48793996630908
      ], 
      [
       4.362734415206908, 
       39.471666316388905
      ], 
      [
       4.272394304301587, 
       39.46771910657539
      ], 
      [
       4.183887708873893, 
       39.477055729156284
      ], 
      [
       4.090971268556688, 
       39.50240523010855
      ], 
      [
       4.018023308687414, 
       39.5296982740339
      ], 
      [
       3.883855396926581, 
       39.59244201948094
      ], 
      [
       3.8812347586139, 
       39.592294442974456
      ], 
      [
       3.799249504103252, 
       39.67515076471391
      ], 
      [
       3.66674406220694, 
       39.83056819298232
      ], 
      [
       3.530352607590071, 
       39.9884770810162
      ], 
      [
       3.486196709789007, 
       40.1022920722502
      ], 
      [
       3.453111563135304, 
       40.218545183064485
      ]
     ], 
     [
      [
       3.831360128022526, 
       39.97145854446977
      ], 
      [
       3.821869420184256, 
       39.925974620335325
      ], 
      [
       3.855284371051183, 
       39.921759777368784
      ], 
      [
       3.912894507433046, 
       39.9256900617062
      ], 
      [
       3.937914095313725, 
       39.938635065534164
      ], 
      [
       4.019709079766007, 
       39.92259252429274
      ], 
      [
       4.079245976663601, 
       39.89658415537849
      ], 
      [
       4.098675712604329, 
       39.879094675956324
      ], 
      [
       4.144048156595628, 
       39.862249871545856
      ], 
      [
       4.175876235641732, 
       39.843399239609056
      ], 
      [
       4.232635503680789, 
       39.81944862294717
      ], 
      [
       4.270362511741297, 
       39.809347526732374
      ], 
      [
       4.288704543397044, 
       39.815064393986084
      ], 
      [
       4.300790591291161, 
       39.83335363186803
      ], 
      [
       4.313041917998484, 
       39.88572177292749
      ], 
      [
       4.275445732362079, 
       39.93378225825376
      ], 
      [
       4.279453669881259, 
       39.946017625261405
      ], 
      [
       4.26268088885862, 
       39.9651388432208
      ], 
      [
       4.256639933567299, 
       39.99968247882007
      ], 
      [
       4.225775459088047, 
       39.998508563313194
      ], 
      [
       4.194346658988747, 
       40.02404431973719
      ], 
      [
       4.169625300320487, 
       40.027737999680866
      ], 
      [
       4.165664925997604, 
       40.058057526372224
      ], 
      [
       4.156563363771487, 
       40.068247935997604
      ], 
      [
       4.137340577640527, 
       40.06731211772563
      ], 
      [
       4.14185542459894, 
       40.03572681619271
      ], 
      [
       4.121057026869154, 
       40.0360560683947
      ], 
      [
       4.131425103162904, 
       40.0556311899564
      ], 
      [
       4.101975078492025, 
       40.054924089850246
      ], 
      [
       4.085475502743022, 
       40.07534135606005
      ], 
      [
       4.07795988305642, 
       40.060564529392266
      ], 
      [
       4.049399279424795, 
       40.05297980715426
      ], 
      [
       4.033217292990988, 
       40.065936274966724
      ], 
      [
       4.022808301922438, 
       40.059893414804684
      ], 
      [
       3.979481028276378, 
       40.05138479652403
      ], 
      [
       3.959580304129579, 
       40.061794792018475
      ], 
      [
       3.942382585964486, 
       40.05689982849731
      ], 
      [
       3.883113546207726, 
       40.05847491529487
      ], 
      [
       3.822660094446648, 
       40.05052335119432
      ], 
      [
       3.819935255530015, 
       40.04031715862857
      ], 
      [
       3.793566243831407, 
       40.02045506921205
      ], 
      [
       3.795923696315386, 
       40.00046519867328
      ], 
      [
       3.826427210470649, 
       39.996467767508626
      ], 
      [
       3.831360128022526, 
       39.97145854446977
      ]
     ]
    ]
   }, 
   "type": "Feature", 
   "properties": {
    "Expire_COCO": "2026-10-08T23:59:59+02:00", 
    "N_avisos": 1, 
    "Des_COCO": "Viento del norte de 45 a 60 km/h (fuerza 6 a 7) y olas de 3 m.", 
    "Provincia": "Menorca", 
    "Nivel_COCO": 3, 
    "Code_COCO": "2PR-3AM-10COCO-1791475200-645501C", 
    "COD_Z": "645501C", 
    "Cer_COCO": "Likely", 
    "Prb_COCO": "40%-70%", 
    "Av_mayor": 3, 
    "Fen_avisos": [
     "COCO "
    ], 
    "Identf_COCO": "2.49.0.0.724.0.ES.20261007090614.645501COCO08221791363974", 
    "Sev_COCO": "Amarillo", 
    "Onset_COCO": "2026-10-08T18:00:00+02:00", 
    "Nombre_zona": "Menorca - Costa", 
    "COCO": "Costeros", 
    "Ordn_avisos": [
     "2PR-3AM-10COCO-1791475200-645501C"
    ], 
    "Resum_COCO": "Aviso de costeros de nivel amarillo. Costa - Menorca"
   }
  }, 
  {
   "geometry": {
    "type": "Polygon", 
    "coordinates": [
     [
      [
       -0.238043451063964, 
       40.71838473743723
      ], 
      [
       -0.222821107467843, 
       40.75449662781511
      ], 
      [
       -0.195963634375227, 
       40.78479372222865
      ], 
      [
       -0.143321900781666, 
       40.785780174930295
      ], 
      [
       -0.145968000525914, 
       40.77546106733316
      ], 
      [
       -0.125629996402793, 
       40.7536552081768
      ], 
      [
       -0.063489676383235, 
       40.72774476440231
      ], 
      [
       -0.030206643939116, 
       40.722767488388605
      ], 
      [
       -0.016508598382077, 
       40.731537554479615
      ], 
      [
       0.01575837557702, 
       40.72900503444177
      ], 
      [
       0.027643080773141, 
       40.695288535361186
      ], 
      [
       0.043378993513466, 
       40.69134385100983
      ], 
      [
       0.073890101089485, 
       40.714645007167775
      ], 
      [
       0.113702714391102, 
       40.72747379496828
      ], 
      [
       0.142547840478385, 
       40.7188017611698
      ], 
      [
       0.163044292791776, 
       40.72293367298469
      ], 
      [
       0.171923965146309, 
       40.73317308769824
      ], 
      [
       0.198490955135039, 
       40.724504691168896
      ], 
      [
       0.217312198064584, 
       40.73258203949896
      ], 
      [
       0.237720727541634, 
       40.702020066251826
      ], 
      [
       0.263627836215826, 
       40.70618915961671
      ], 
      [
       0.293036168014248, 
       40.6888898312484
      ], 
      [
       0.269457349899028, 
       40.65989420944097
      ], 
      [
       0.256356049242671, 
       40.66358813313502
      ], 
      [
       0.200475462639346, 
       40.65202997911142
      ], 
      [
       0.1591713406264, 
       40.64654885372779
      ], 
      [
       0.15872449716358, 
       40.61402090617148
      ], 
      [
       0.17560953153908, 
       40.61070237682571
      ], 
      [
       0.187030211292036, 
       40.59588716193642
      ], 
      [
       0.175814728424071, 
       40.584352922668764
      ], 
      [
       0.147019439295871, 
       40.57490142173107
      ], 
      [
       0.115702952251291, 
       40.58677514109691
      ], 
      [
       0.079828025315732, 
       40.572444989338166
      ], 
      [
       0.087559017417375, 
       40.54973096190209
      ], 
      [
       0.099602132762632, 
       40.54153642523728
      ], 
      [
       0.083100198605818, 
       40.50196188756082
      ], 
      [
       0.092833957746539, 
       40.4814185543957
      ], 
      [
       0.079161077130185, 
       40.468733281753934
      ], 
      [
       0.055263817478777, 
       40.466035537195005
      ], 
      [
       0.044027731281257, 
       40.45068752763623
      ], 
      [
       0.015326349834822, 
       40.44136183755466
      ], 
      [
       -0.017312719960255, 
       40.3958419003907
      ], 
      [
       -0.036351623919948, 
       40.38533439636118
      ], 
      [
       -0.044010264326541, 
       40.36723744388586
      ], 
      [
       -0.027387838347356, 
       40.36284794646901
      ], 
      [
       -0.057568618622485, 
       40.321926906237245
      ], 
      [
       -0.084572883160097, 
       40.298201994250554
      ], 
      [
       -0.103643684277315, 
       40.313290958884686
      ], 
      [
       -0.100724087556241, 
       40.32871899282646
      ], 
      [
       -0.086095129044232, 
       40.35031932933942
      ], 
      [
       -0.143098492790324, 
       40.36091183671135
      ], 
      [
       -0.153591703701116, 
       40.35666721152269
      ], 
      [
       -0.1837140043716, 
       40.36192681425074
      ], 
      [
       -0.211789264126501, 
       40.35269067382679
      ], 
      [
       -0.216112176507505, 
       40.36865657602391
      ], 
      [
       -0.246770138622725, 
       40.37605642018171
      ], 
      [
       -0.261504938489013, 
       40.36788569140665
      ], 
      [
       -0.27884282652124, 
       40.36984449613413
      ], 
      [
       -0.284177674856899, 
       40.38684060505327
      ], 
      [
       -0.30600670181252, 
       40.40953649331462
      ], 
      [
       -0.33161379225718, 
       40.42588445189524
      ], 
      [
       -0.346141242470628, 
       40.44428766347808
      ], 
      [
       -0.33139586320879, 
       40.459395379546635
      ], 
      [
       -0.275741390160813, 
       40.47620955119077
      ], 
      [
       -0.276425186266262, 
       40.50187796946709
      ], 
      [
       -0.300648772553379, 
       40.51630871109338
      ], 
      [
       -0.288898353237227, 
       40.54429767246917
      ], 
      [
       -0.294844521258606, 
       40.56083001444137
      ], 
      [
       -0.291098014380528, 
       40.60508376220704
      ], 
      [
       -0.29791817108172, 
       40.61325986813753
      ], 
      [
       -0.320871803097275, 
       40.6031847040109
      ], 
      [
       -0.378328745294887, 
       40.62522939456644
      ], 
      [
       -0.369581031142234, 
       40.65111476139501
      ], 
      [
       -0.376740941046312, 
       40.66787770823777
      ], 
      [
       -0.354952613789263, 
       40.67803555795529
      ], 
      [
       -0.327603271583558, 
       40.68062079908092
      ], 
      [
       -0.315707329958317, 
       40.66396100028952
      ], 
      [
       -0.249228789350899, 
       40.691109135321696
      ], 
      [
       -0.234778698945732, 
       40.69144818918986
      ], 
      [
       -0.238043451063964, 
       40.71838473743723
      ]
     ]
    ]
   }, 
   "type": "Feature", 
   "properties": {
    "Cer_VIRM": "Likely", 
    "N_avisos": 1, 
    "Code_VIRM": "2PR-3AM-06VIRM-1791439200-771201", 
    "COD_Z": "771201", 
    "Identf_VIRM": "2.49.0.0.724.0.ES.20261007093926.771201VIRM08221791365966", 
    "Fen_avisos": [
     "VIRM "
    ], 
    "Av_mayor": 3, 
    "Des_VIRM": "Rachas máximas: 80 km/h. Viento del noroeste.", 
    "Nivel_VIRM": 3, 
    "VIRM": "Vientos", 
    "Valor_VIRM": "80 km/h", 
    "Resum_VIRM": "Aviso de vientos de nivel amarillo. Interior norte de Castellón", 
    "Nombre_zona": "Interior norte de Castellón", 
    "Prb_VIRM": "40%-70%", 
    "Ordn_avisos": [
     "2PR-3AM-06VIRM-1791439200-771201"
    ], 
    "Sev_VIRM": "Amarillo", 
    "Onset_VIRM": "2026-10-08T08:00:00+02:00", 
    "Expire_VIRM": "2026-10-08T23:59:59+02:00"
   }
  }, 
  {
   "geometry": {
    "type": "Polygon", 
    "coordinates": [
     [
      [
       0.092833957746539, 
       40.4814185543957
      ], 
      [
       0.083100198605818, 
       40.50196188756082
      ], 
      [
       0.099602132762632, 
       40.54153642523728
      ], 
      [
       0.087559017417375, 
       40.54973096190209
      ], 
      [
       0.079828025315732, 
       40.572444989338166
      ], 
      [
       0.115702952251291, 
       40.58677514109691
      ], 
      [
       0.147019439295871, 
       40.57490142173107
      ], 
      [
       0.175814728424071, 
       40.584352922668764
      ], 
      [
       0.187030211292036, 
       40.59588716193642
      ], 
      [
       0.17560953153908, 
       40.61070237682571
      ], 
      [
       0.15872449716358, 
       40.61402090617148
      ], 
      [
       0.1591713406264, 
       40.64654885372779
      ], 
      [
       0.200475462639346, 
       40.65202997911142
      ], 
      [
       0.256356049242671, 
       40.66358813313502
      ], 
      [
       0.269457349899028, 
       40.65989420944097
      ], 
      [
       0.280026995897029, 
       40.63039590075412
      ], 
      [
       0.330952682932999, 
       40.61138360633901
      ], 
      [
       0.37226044796744, 
       40.6053742592485
      ], 
      [
       0.389587254066028, 
       40.607081993107045
      ], 
      [
       0.432562017548043, 
       40.579792769740884
      ], 
      [
       0.439158199974304, 
       40.54739954926061
      ], 
      [
       0.478117781943803, 
       40.53233551426069
      ], 
      [
       0.516346493521146, 
       40.52326072632791
      ], 
      [
       0.486802322696206, 
       40.476983232907536
      ], 
      [
       0.44834565578124, 
       40.43811489626099
      ], 
      [
       0.437430674982302, 
       40.41730271919968
      ], 
      [
       0.418439212152644, 
       40.399925949111505
      ], 
      [
       0.404704297749167, 
       40.36372994397862
      ], 
      [
       0.387552135695374, 
       40.340520391344924
      ], 
      [
       0.355289211402173, 
       40.31248807659871
      ], 
      [
       0.323469095829046, 
       40.27469751585657
      ], 
      [
       0.29705648727836, 
       40.30752641266093
      ], 
      [
       0.303615564291718, 
       40.323812069371535
      ], 
      [
       0.243299674240095, 
       40.362925175833695
      ], 
      [
       0.190723598313384, 
       40.39376884326486
      ], 
      [
       0.206781503469542, 
       40.41588569647873
      ], 
      [
       0.112403797134239, 
       40.463077545994715
      ], 
      [
       0.092833957746539, 
       40.4814185543957
      ]
     ]
    ]
   }, 
   "type": "Feature", 
   "properties": {
    "Cer_VIRM": "Likely", 
    "N_avisos": 1, 
    "Code_VIRM": "2PR-3AM-06VIRM-1791439200-771202", 
    "COD_Z": "771202", 
    "Identf_VIRM": "2.49.0.0.724.0.ES.20261007093926.771202VIRM08221791365966", 
    "Fen_avisos": [
     "VIRM "
    ], 
    "Av_mayor": 3, 
    "Des_VIRM": "Rachas máximas: 80 km/h. Viento del noroeste.", 
    "Nivel_VIRM": 3, 
    "VIRM": "Vientos", 
    "Valor_VIRM": "80 km/h", 
    "Resum_VIRM": "Aviso de vientos de nivel amarillo. Litoral norte de Castellón", 
    "Nombre_zona": "Litoral norte de Castellón", 
    "Prb_VIRM": "40%-70%", 
    "Ordn_avisos": [
     "2PR-3AM-06VIRM-1791439200-771202"
    ], 
    "Sev_VIRM": "Amarillo", 
    "Onset_VIRM": "2026-10-08T08:00:00+02:00", 
    "Expire_VIRM": "2026-10-08T23:59:59+02:00"
   }
  }, 
  {
   "geometry": {
    "type": "Polygon", 
    "coordinates": [
     [
      [
       1.038737126365947, 
       41.17557628076687
      ], 
      [
       1.05935583156521, 
       41.17675020249218
      ], 
      [
       1.062071401043808, 
       41.15919431343075
      ], 
      [
       1.087381516800279, 
       41.142206212974436
      ], 
      [
       1.096000752317826, 
       41.118235414861736
      ], 
      [
       1.095385218868641, 
       41.09304436196552
      ], 
      [
       1.118879626911933, 
       41.074187220682866
      ], 
      [
       1.085325325802643, 
       41.0640378702214
      ], 
      [
       1.051941910261324, 
       41.06482230744912
      ], 
      [
       1.004952302634858, 
       41.04337935890015
      ], 
      [
       0.990437975148758, 
       41.04193860065209
      ], 
      [
       0.967606140782954, 
       41.02875257424696
      ], 
      [
       0.918524900410932, 
       40.988381127658705
      ], 
      [
       0.858900814631335, 
       40.93499613543125
      ], 
      [
       0.79348613645024, 
       40.86700104097945
      ], 
      [
       0.753095334987016, 
       40.84645023833075
      ], 
      [
       0.729983447137581, 
       40.81815846646287
      ], 
      [
       0.700839221853448, 
       40.80417624565644
      ], 
      [
       0.710494018587541, 
       40.786251030376086
      ], 
      [
       0.729783638439996, 
       40.77061618128614
      ], 
      [
       0.763681600599112, 
       40.76217464425693
      ], 
      [
       0.782081017832905, 
       40.775008306201144
      ], 
      [
       0.828988020672423, 
       40.7360060222804
      ], 
      [
       0.86478495642443, 
       40.72184354202826
      ], 
      [
       0.875324296484753, 
       40.734358197567765
      ], 
      [
       0.888666556093036, 
       40.719743503355495
      ], 
      [
       0.877673195784174, 
       40.70165304361671
      ], 
      [
       0.842588169845539, 
       40.676136078635075
      ], 
      [
       0.769213167421963, 
       40.648164770243525
      ], 
      [
       0.751199107234354, 
       40.635387967286874
      ], 
      [
       0.709197642852862, 
       40.58522528742295
      ], 
      [
       0.681289412124061, 
       40.56464966877626
      ], 
      [
       0.65104299969501, 
       40.55546132191296
      ], 
      [
       0.610227025990529, 
       40.559447454242296
      ], 
      [
       0.599031340175684, 
       40.574828000920434
      ], 
      [
       0.651336648591862, 
       40.585810479789075
      ], 
      [
       0.673551692204818, 
       40.59370563608575
      ], 
      [
       0.712539913216221, 
       40.592466384077355
      ], 
      [
       0.747136871474016, 
       40.63651965363344
      ], 
      [
       0.736666823011185, 
       40.64082182608277
      ], 
      [
       0.734399554322187, 
       40.640308699524084
      ], 
      [
       0.704798466643601, 
       40.63897728854831
      ], 
      [
       0.664378241553634, 
       40.62686826908806
      ], 
      [
       0.603785309323274, 
       40.62240142057493
      ], 
      [
       0.539429213765425, 
       40.56780107293233
      ], 
      [
       0.516346493521146, 
       40.52326072632791
      ], 
      [
       0.478117781943803, 
       40.53233551426069
      ], 
      [
       0.439158199974304, 
       40.54739954926061
      ], 
      [
       0.432562017548043, 
       40.579792769740884
      ], 
      [
       0.389587254066028, 
       40.607081993107045
      ], 
      [
       0.37226044796744, 
       40.6053742592485
      ], 
      [
       0.330952682932999, 
       40.61138360633901
      ], 
      [
       0.360261677063316, 
       40.646972509577786
      ], 
      [
       0.353640393646419, 
       40.66042223228062
      ], 
      [
       0.401583610641141, 
       40.70758772012224
      ], 
      [
       0.428623339143825, 
       40.721826800996595
      ], 
      [
       0.444561928887034, 
       40.737760503785545
      ], 
      [
       0.507608511994626, 
       40.73864225218529
      ], 
      [
       0.562661215853815, 
       40.75210161437601
      ], 
      [
       0.574131629114579, 
       40.7332217351771
      ], 
      [
       0.588794221553614, 
       40.75204739305177
      ], 
      [
       0.612071810341577, 
       40.76267640273962
      ], 
      [
       0.607859951878198, 
       40.80758433944303
      ], 
      [
       0.643650944295066, 
       40.82182161499185
      ], 
      [
       0.63552649108679, 
       40.839089743712734
      ], 
      [
       0.66542359802591, 
       40.869031238177605
      ], 
      [
       0.643255394190092, 
       40.89589547054338
      ], 
      [
       0.62377602916124, 
       40.8897378538744
      ], 
      [
       0.611378127955615, 
       40.9109299977458
      ], 
      [
       0.614457939984042, 
       40.93105072305937
      ], 
      [
       0.678911232555844, 
       40.94558857341081
      ], 
      [
       0.740792735229486, 
       40.939353266947386
      ], 
      [
       0.753930664885546, 
       40.932504917310006
      ], 
      [
       0.790509854886584, 
       40.93905104307602
      ], 
      [
       0.804526599880641, 
       40.95337527418435
      ], 
      [
       0.782572498489701, 
       40.99215467901105
      ], 
      [
       0.782117958007393, 
       41.02926193354657
      ], 
      [
       0.8196702522614, 
       41.06251122460354
      ], 
      [
       0.845879655396381, 
       41.032101637821945
      ], 
      [
       0.872228144318224, 
       41.02676059062651
      ], 
      [
       0.90674272146626, 
       41.02587322452704
      ], 
      [
       0.923017286895762, 
       41.05540509592479
      ], 
      [
       0.914248124712453, 
       41.082619489990925
      ], 
      [
       0.897773609296218, 
       41.10367405333101
      ], 
      [
       0.915437753383607, 
       41.126036666618354
      ], 
      [
       0.942484729497971, 
       41.126067310961204
      ], 
      [
       0.953458908142733, 
       41.1142815113501
      ], 
      [
       0.991013677136447, 
       41.12097185523155
      ], 
      [
       1.022649518086366, 
       41.14096784523377
      ], 
      [
       1.038737126365947, 
       41.17557628076687
      ]
     ]
    ]
   }, 
   "type": "Feature", 
   "properties": {
    "Cer_VIRM": "Likely", 
    "N_avisos": 1, 
    "Code_VIRM": "2PR-3AM-06VIRM-1791410400-694304", 
    "COD_Z": "694304", 
    "Identf_VIRM": "2.49.0.0.724.0.ES.20261007092432.694304VIRM08221791365072", 
    "Fen_avisos": [
     "VIRM "
    ], 
    "Av_mayor": 3, 
    "Des_VIRM": "Rachas máximas: 80 km/h. Viento del noroeste.", 
    "Nivel_VIRM": 3, 
    "VIRM": "Vientos", 
    "Valor_VIRM": "80 km/h", 
    "Resum_VIRM": "Aviso de vientos de nivel amarillo. Litoral sur de Tarragona", 
    "Nombre_zona": "Litoral sur de Tarragona", 
    "Prb_VIRM": "40%-70%", 
    "Ordn_avisos": [
     "2PR-3AM-06VIRM-1791410400-694304"
    ], 
    "Sev_VIRM": "Amarillo", 
    "Onset_VIRM": "2026-10-08T00:00:00+02:00", 
    "Expire_VIRM": "2026-10-08T23:59:59+02:00"
   }
  }, 
  {
   "geometry": {
    "type": "Polygon", 
    "coordinates": [
     [
      [
       0.273119697614674, 
       40.819073067057424
      ], 
      [
       0.292797129308366, 
       40.816648288030244
      ], 
      [
       0.311664122662907, 
       40.84035185057087
      ], 
      [
       0.335271135359515, 
       40.85399046024382
      ], 
      [
       0.371026519040612, 
       40.89126994622054
      ], 
      [
       0.364305957520632, 
       40.908748653107295
      ], 
      [
       0.367688661599778, 
       40.933505906937604
      ], 
      [
       0.395033614141542, 
       40.95567683548514
      ], 
      [
       0.439810137482894, 
       40.96239017077737
      ], 
      [
       0.456028870325229, 
       40.97880818934775
      ], 
      [
       0.442825477965951, 
       40.990424791905376
      ], 
      [
       0.450257101130787, 
       41.01507591805474
      ], 
      [
       0.466482927351654, 
       41.03380643718674
      ], 
      [
       0.504199284445324, 
       41.059852154259836
      ], 
      [
       0.561355911119162, 
       41.122819617862504
      ], 
      [
       0.614044672967941, 
       41.14325764951662
      ], 
      [
       0.620390704260102, 
       41.15098275613178
      ], 
      [
       0.607252125242514, 
       41.17186449479281
      ], 
      [
       0.619013796710811, 
       41.17833003266481
      ], 
      [
       0.648431258268394, 
       41.179642986427844
      ], 
      [
       0.707114478509546, 
       41.21645251492546
      ], 
      [
       0.686736669585716, 
       41.22499610955466
      ], 
      [
       0.6860834954779, 
       41.24582784916883
      ], 
      [
       0.703025360818867, 
       41.26607617306588
      ], 
      [
       0.704317798710959, 
       41.284269755632366
      ], 
      [
       0.71506684620113, 
       41.30326566287266
      ], 
      [
       0.752713814638367, 
       41.3181526297994
      ], 
      [
       0.762890950299786, 
       41.33433492719422
      ], 
      [
       0.821353172018562, 
       41.32992059620007
      ], 
      [
       0.833316787175867, 
       41.359102989042434
      ], 
      [
       0.847855378735892, 
       41.35514123063767
      ], 
      [
       0.864479628946109, 
       41.338401789829675
      ], 
      [
       0.912953503576461, 
       41.350187486116084
      ], 
      [
       0.940549713043808, 
       41.34965865314498
      ], 
      [
       0.968008304355492, 
       41.3598434233345
      ], 
      [
       0.992563261606351, 
       41.35819138425747
      ], 
      [
       1.006135214029309, 
       41.34663434394307
      ], 
      [
       1.002935996889978, 
       41.33032147869518
      ], 
      [
       1.107308281865873, 
       41.31513042135455
      ], 
      [
       1.127685715061733, 
       41.30571996211408
      ], 
      [
       1.185280695882641, 
       41.32066384564316
      ], 
      [
       1.195191224263555, 
       41.30574241480687
      ], 
      [
       1.174867132356657, 
       41.29004067266181
      ], 
      [
       1.155886052317511, 
       41.30319978055321
      ], 
      [
       1.135523114413748, 
       41.293705401364804
      ], 
      [
       1.141882915568337, 
       41.25689133269328
      ], 
      [
       1.138979172354694, 
       41.23870787978552
      ], 
      [
       1.112524259261682, 
       41.2402877478446
      ], 
      [
       1.096900150610907, 
       41.22966205336161
      ], 
      [
       1.073539110842268, 
       41.229357681193235
      ], 
      [
       1.06054707806301, 
       41.23835367643917
      ], 
      [
       1.035781699526801, 
       41.22208100668368
      ], 
      [
       1.01047271235764, 
       41.23394337380199
      ], 
      [
       1.019243937587351, 
       41.19958142147972
      ], 
      [
       1.038737126365947, 
       41.17557628076687
      ], 
      [
       1.022649518086366, 
       41.14096784523377
      ], 
      [
       0.991013677136447, 
       41.12097185523155
      ], 
      [
       0.953458908142733, 
       41.1142815113501
      ], 
      [
       0.942484729497971, 
       41.126067310961204
      ], 
      [
       0.915437753383607, 
       41.126036666618354
      ], 
      [
       0.897773609296218, 
       41.10367405333101
      ], 
      [
       0.914248124712453, 
       41.082619489990925
      ], 
      [
       0.923017286895762, 
       41.05540509592479
      ], 
      [
       0.90674272146626, 
       41.02587322452704
      ], 
      [
       0.872228144318224, 
       41.02676059062651
      ], 
      [
       0.845879655396381, 
       41.032101637821945
      ], 
      [
       0.8196702522614, 
       41.06251122460354
      ], 
      [
       0.782117958007393, 
       41.02926193354657
      ], 
      [
       0.782572498489701, 
       40.99215467901105
      ], 
      [
       0.804526599880641, 
       40.95337527418435
      ], 
      [
       0.790509854886584, 
       40.93905104307602
      ], 
      [
       0.753930664885546, 
       40.932504917310006
      ], 
      [
       0.740792735229486, 
       40.939353266947386
      ], 
      [
       0.678911232555844, 
       40.94558857341081
      ], 
      [
       0.614457939984042, 
       40.93105072305937
      ], 
      [
       0.611378127955615, 
       40.9109299977458
      ], 
      [
       0.62377602916124, 
       40.8897378538744
      ], 
      [
       0.643255394190092, 
       40.89589547054338
      ], 
      [
       0.66542359802591, 
       40.869031238177605
      ], 
      [
       0.63552649108679, 
       40.839089743712734
      ], 
      [
       0.643650944295066, 
       40.82182161499185
      ], 
      [
       0.607859951878198, 
       40.80758433944303
      ], 
      [
       0.612071810341577, 
       40.76267640273962
      ], 
      [
       0.588794221553614, 
       40.75204739305177
      ], 
      [
       0.574131629114579, 
       40.7332217351771
      ], 
      [
       0.562661215853815, 
       40.75210161437601
      ], 
      [
       0.507608511994626, 
       40.73864225218529
      ], 
      [
       0.444561928887034, 
       40.737760503785545
      ], 
      [
       0.428623339143825, 
       40.721826800996595
      ], 
      [
       0.401583610641141, 
       40.70758772012224
      ], 
      [
       0.353640393646419, 
       40.66042223228062
      ], 
      [
       0.360261677063316, 
       40.646972509577786
      ], 
      [
       0.330952682932999, 
       40.61138360633901
      ], 
      [
       0.280026995897029, 
       40.63039590075412
      ], 
      [
       0.269457349899028, 
       40.65989420944097
      ], 
      [
       0.293036168014248, 
       40.6888898312484
      ], 
      [
       0.263627836215826, 
       40.70618915961671
      ], 
      [
       0.237720727541634, 
       40.702020066251826
      ], 
      [
       0.217312198064584, 
       40.73258203949896
      ], 
      [
       0.198490955135039, 
       40.724504691168896
      ], 
      [
       0.171923965146309, 
       40.73317308769824
      ], 
      [
       0.176421823266409, 
       40.755276744753445
      ], 
      [
       0.191325030163162, 
       40.75065927177444
      ], 
      [
       0.213186578291875, 
       40.76785734713471
      ], 
      [
       0.224640947831619, 
       40.7658893893316
      ], 
      [
       0.234767218912957, 
       40.78732855471082
      ], 
      [
       0.258959225904065, 
       40.80056156525873
      ], 
      [
       0.273119697614674, 
       40.819073067057424
      ]
     ]
    ]
   }, 
   "type": "Feature", 
   "properties": {
    "Cer_VIRM": "Likely", 
    "N_avisos": 1, 
    "Code_VIRM": "2PR-3AM-06VIRM-1791475200-694305", 
    "COD_Z": "694305", 
    "Identf_VIRM": "2.49.0.0.724.0.ES.20261007092432.694305VIRM08221791365072", 
    "Fen_avisos": [
     "VIRM "
    ], 
    "Av_mayor": 3, 
    "Des_VIRM": "Rachas máximas: 80 km/h. Viento del noroeste.", 
    "Nivel_VIRM": 3, 
    "VIRM": "Vientos", 
    "Valor_VIRM": "80 km/h", 
    "Resum_VIRM": "Aviso de vientos de nivel amarillo. Prelitoral sur de Tarragona", 
    "Nombre_zona": "Prelitoral sur de Tarragona", 
    "Prb_VIRM": "40%-70%", 
    "Ordn_avisos": [
     "2PR-3AM-06VIRM-1791475200-694305"
    ], 
    "Sev_VIRM": "Amarillo", 
    "Onset_VIRM": "2026-10-08T18:00:00+02:00", 
    "Expire_VIRM": "2026-10-08T23:59:59+02:00"
   }
  }
 ]
}
